<?xml version="1.0" encoding="UTF-8"?>
<gpx version="1.1" creator="Go GPS Converter">
  <trk>
    <name>GPS Track</name>
    <trkseg>
      <trkpt lat="30.656666" lon="104.101234">
        <time>2026-04-19T14:27:48Z</time>
      </trkpt>
      <trkpt lat="30.656572" lon="104.101006">
        <time>2026-04-19T14:27:49Z</time>
      </trkpt>
      <trkpt lat="30.65655" lon="104.10104">
        <time>2026-04-19T14:27:50Z</time>
      </trkpt>
      <trkpt lat="30.656668" lon="104.10118">
        <time>2026-04-19T14:27:51Z</time>
      </trkpt>
      <trkpt lat="30.656471" lon="104.10124">
        <time>2026-04-19T14:27:52Z</time>
      </trkpt>
      <trkpt lat="30.656414" lon="104.10106">
        <time>2026-04-19T14:27:54Z</time>
      </trkpt>
      <trkpt lat="30.656391" lon="104.101036">
        <time>2026-04-19T14:27:55Z</time>
      </trkpt>
      <trkpt lat="30.656351" lon="104.10102">
        <time>2026-04-19T14:27:56Z</time>
      </trkpt>
      <trkpt lat="30.656303" lon="104.10102">
        <time>2026-04-19T14:27:57Z</time>
      </trkpt>
      <trkpt lat="30.65627" lon="104.101">
        <time>2026-04-19T14:27:58Z</time>
      </trkpt>
      <trkpt lat="30.656223" lon="104.10097">
        <time>2026-04-19T14:27:59Z</time>
      </trkpt>
      <trkpt lat="30.656185" lon="104.10096">
        <time>2026-04-19T14:28:00Z</time>
      </trkpt>
      <trkpt lat="30.656137" lon="104.10094">
        <time>2026-04-19T14:28:01Z</time>
      </trkpt>
      <trkpt lat="30.656084" lon="104.10092">
        <time>2026-04-19T14:28:02Z</time>
      </trkpt>
      <trkpt lat="30.656042" lon="104.1009">
        <time>2026-04-19T14:28:03Z</time>
      </trkpt>
      <trkpt lat="30.655998" lon="104.10087">
        <time>2026-04-19T14:28:04Z</time>
      </trkpt>
      <trkpt lat="30.65596" lon="104.100845">
        <time>2026-04-19T14:28:05Z</time>
      </trkpt>
      <trkpt lat="30.655914" lon="104.10082">
        <time>2026-04-19T14:28:06Z</time>
      </trkpt>
      <trkpt lat="30.65588" lon="104.10079">
        <time>2026-04-19T14:28:07Z</time>
      </trkpt>
      <trkpt lat="30.655838" lon="104.10075">
        <time>2026-04-19T14:28:08Z</time>
      </trkpt>
      <trkpt lat="30.655794" lon="104.10072">
        <time>2026-04-19T14:28:09Z</time>
      </trkpt>
      <trkpt lat="30.655754" lon="104.10069">
        <time>2026-04-19T14:28:10Z</time>
      </trkpt>
      <trkpt lat="30.655712" lon="104.10066">
        <time>2026-04-19T14:28:11Z</time>
      </trkpt>
      <trkpt lat="30.655668" lon="104.10064">
        <time>2026-04-19T14:28:12Z</time>
      </trkpt>
      <trkpt lat="30.655666" lon="104.10063">
        <time>2026-04-19T14:28:13Z</time>
      </trkpt>
      <trkpt lat="30.655655" lon="104.10063">
        <time>2026-04-19T14:28:14Z</time>
      </trkpt>
      <trkpt lat="30.655643" lon="104.100624">
        <time>2026-04-19T14:28:15Z</time>
      </trkpt>
      <trkpt lat="30.655611" lon="104.10061">
        <time>2026-04-19T14:28:16Z</time>
      </trkpt>
      <trkpt lat="30.655571" lon="104.10061">
        <time>2026-04-19T14:28:17Z</time>
      </trkpt>
      <trkpt lat="30.655535" lon="104.10063">
        <time>2026-04-19T14:28:18Z</time>
      </trkpt>
      <trkpt lat="30.655512" lon="104.10066">
        <time>2026-04-19T14:28:19Z</time>
      </trkpt>
      <trkpt lat="30.65549" lon="104.10069">
        <time>2026-04-19T14:28:20Z</time>
      </trkpt>
      <trkpt lat="30.65547" lon="104.10072">
        <time>2026-04-19T14:28:21Z</time>
      </trkpt>
      <trkpt lat="30.655445" lon="104.100746">
        <time>2026-04-19T14:28:22Z</time>
      </trkpt>
      <trkpt lat="30.65543" lon="104.10077">
        <time>2026-04-19T14:28:23Z</time>
      </trkpt>
      <trkpt lat="30.655416" lon="104.10079">
        <time>2026-04-19T14:28:24Z</time>
      </trkpt>
      <trkpt lat="30.65541" lon="104.10082">
        <time>2026-04-19T14:28:25Z</time>
      </trkpt>
      <trkpt lat="30.655407" lon="104.100845">
        <time>2026-04-19T14:28:26Z</time>
      </trkpt>
      <trkpt lat="30.655407" lon="104.100876">
        <time>2026-04-19T14:28:27Z</time>
      </trkpt>
      <trkpt lat="30.655401" lon="104.1009">
        <time>2026-04-19T14:28:28Z</time>
      </trkpt>
      <trkpt lat="30.655394" lon="104.10093">
        <time>2026-04-19T14:28:29Z</time>
      </trkpt>
      <trkpt lat="30.655361" lon="104.100945">
        <time>2026-04-19T14:28:30Z</time>
      </trkpt>
      <trkpt lat="30.655323" lon="104.100945">
        <time>2026-04-19T14:28:31Z</time>
      </trkpt>
      <trkpt lat="30.655283" lon="104.10094">
        <time>2026-04-19T14:28:32Z</time>
      </trkpt>
      <trkpt lat="30.655243" lon="104.100914">
        <time>2026-04-19T14:28:33Z</time>
      </trkpt>
      <trkpt lat="30.655209" lon="104.10091">
        <time>2026-04-19T14:28:34Z</time>
      </trkpt>
      <trkpt lat="30.65517" lon="104.10089">
        <time>2026-04-19T14:28:35Z</time>
      </trkpt>
      <trkpt lat="30.655136" lon="104.10089">
        <time>2026-04-19T14:28:36Z</time>
      </trkpt>
      <trkpt lat="30.655094" lon="104.10086">
        <time>2026-04-19T14:28:37Z</time>
      </trkpt>
      <trkpt lat="30.655066" lon="104.100845">
        <time>2026-04-19T14:28:38Z</time>
      </trkpt>
      <trkpt lat="30.655039" lon="104.10083">
        <time>2026-04-19T14:28:39Z</time>
      </trkpt>
      <trkpt lat="30.655008" lon="104.10082">
        <time>2026-04-19T14:28:40Z</time>
      </trkpt>
      <trkpt lat="30.65496" lon="104.1008">
        <time>2026-04-19T14:28:41Z</time>
      </trkpt>
      <trkpt lat="30.654911" lon="104.10079">
        <time>2026-04-19T14:28:42Z</time>
      </trkpt>
      <trkpt lat="30.654863" lon="104.10077">
        <time>2026-04-19T14:28:43Z</time>
      </trkpt>
      <trkpt lat="30.654823" lon="104.10074">
        <time>2026-04-19T14:28:44Z</time>
      </trkpt>
      <trkpt lat="30.654783" lon="104.10071">
        <time>2026-04-19T14:28:45Z</time>
      </trkpt>
      <trkpt lat="30.654743" lon="104.100685">
        <time>2026-04-19T14:28:46Z</time>
      </trkpt>
      <trkpt lat="30.654705" lon="104.100655">
        <time>2026-04-19T14:28:47Z</time>
      </trkpt>
      <trkpt lat="30.654665" lon="104.100624">
        <time>2026-04-19T14:28:48Z</time>
      </trkpt>
      <trkpt lat="30.654625" lon="104.1006">
        <time>2026-04-19T14:28:49Z</time>
      </trkpt>
      <trkpt lat="30.654585" lon="104.10057">
        <time>2026-04-19T14:28:50Z</time>
      </trkpt>
      <trkpt lat="30.654545" lon="104.10055">
        <time>2026-04-19T14:28:51Z</time>
      </trkpt>
      <trkpt lat="30.654505" lon="104.10052">
        <time>2026-04-19T14:28:52Z</time>
      </trkpt>
      <trkpt lat="30.654467" lon="104.100494">
        <time>2026-04-19T14:28:53Z</time>
      </trkpt>
      <trkpt lat="30.654428" lon="104.10048">
        <time>2026-04-19T14:28:54Z</time>
      </trkpt>
      <trkpt lat="30.654396" lon="104.10046">
        <time>2026-04-19T14:28:55Z</time>
      </trkpt>
      <trkpt lat="30.654367" lon="104.10043">
        <time>2026-04-19T14:28:56Z</time>
      </trkpt>
      <trkpt lat="30.654345" lon="104.10039">
        <time>2026-04-19T14:28:57Z</time>
      </trkpt>
      <trkpt lat="30.654333" lon="104.10036">
        <time>2026-04-19T14:28:58Z</time>
      </trkpt>
      <trkpt lat="30.654322" lon="104.10033">
        <time>2026-04-19T14:28:59Z</time>
      </trkpt>
      <trkpt lat="30.654314" lon="104.10031">
        <time>2026-04-19T14:29:00Z</time>
      </trkpt>
      <trkpt lat="30.654314" lon="104.10031">
        <time>2026-04-19T14:29:01Z</time>
      </trkpt>
      <trkpt lat="30.654312" lon="104.1003">
        <time>2026-04-19T14:29:02Z</time>
      </trkpt>
      <trkpt lat="30.65431" lon="104.1003">
        <time>2026-04-19T14:29:03Z</time>
      </trkpt>
      <trkpt lat="30.65431" lon="104.10031">
        <time>2026-04-19T14:29:04Z</time>
      </trkpt>
      <trkpt lat="30.654308" lon="104.1003">
        <time>2026-04-19T14:29:05Z</time>
      </trkpt>
      <trkpt lat="30.654308" lon="104.10031">
        <time>2026-04-19T14:29:06Z</time>
      </trkpt>
      <trkpt lat="30.65431" lon="104.1003">
        <time>2026-04-19T14:29:07Z</time>
      </trkpt>
      <trkpt lat="30.654308" lon="104.1003">
        <time>2026-04-19T14:29:08Z</time>
      </trkpt>
      <trkpt lat="30.654308" lon="104.1003">
        <time>2026-04-19T14:29:09Z</time>
      </trkpt>
      <trkpt lat="30.654308" lon="104.1003">
        <time>2026-04-19T14:29:10Z</time>
      </trkpt>
      <trkpt lat="30.65431" lon="104.1003">
        <time>2026-04-19T14:29:11Z</time>
      </trkpt>
      <trkpt lat="30.654308" lon="104.1003">
        <time>2026-04-19T14:29:12Z</time>
      </trkpt>
      <trkpt lat="30.654308" lon="104.1003">
        <time>2026-04-19T14:29:13Z</time>
      </trkpt>
      <trkpt lat="30.65431" lon="104.1003">
        <time>2026-04-19T14:29:14Z</time>
      </trkpt>
      <trkpt lat="30.654308" lon="104.1003">
        <time>2026-04-19T14:29:15Z</time>
      </trkpt>
      <trkpt lat="30.654308" lon="104.1003">
        <time>2026-04-19T14:29:16Z</time>
      </trkpt>
      <trkpt lat="30.654308" lon="104.1003">
        <time>2026-04-19T14:29:17Z</time>
      </trkpt>
      <trkpt lat="30.654308" lon="104.10031">
        <time>2026-04-19T14:29:18Z</time>
      </trkpt>
      <trkpt lat="30.654305" lon="104.1003">
        <time>2026-04-19T14:29:19Z</time>
      </trkpt>
      <trkpt lat="30.6543" lon="104.100296">
        <time>2026-04-19T14:29:20Z</time>
      </trkpt>
      <trkpt lat="30.654287" lon="104.10027">
        <time>2026-04-19T14:29:21Z</time>
      </trkpt>
      <trkpt lat="30.65426" lon="104.10027">
        <time>2026-04-19T14:29:22Z</time>
      </trkpt>
      <trkpt lat="30.654232" lon="104.10027">
        <time>2026-04-19T14:29:23Z</time>
      </trkpt>
      <trkpt lat="30.654198" lon="104.100266">
        <time>2026-04-19T14:29:24Z</time>
      </trkpt>
      <trkpt lat="30.654158" lon="104.100266">
        <time>2026-04-19T14:29:25Z</time>
      </trkpt>
      <trkpt lat="30.654118" lon="104.100266">
        <time>2026-04-19T14:29:26Z</time>
      </trkpt>
      <trkpt lat="30.654078" lon="104.10026">
        <time>2026-04-19T14:29:27Z</time>
      </trkpt>
      <trkpt lat="30.654043" lon="104.100235">
        <time>2026-04-19T14:29:28Z</time>
      </trkpt>
      <trkpt lat="30.654018" lon="104.10021">
        <time>2026-04-19T14:29:29Z</time>
      </trkpt>
      <trkpt lat="30.653992" lon="104.10019">
        <time>2026-04-19T14:29:30Z</time>
      </trkpt>
      <trkpt lat="30.653961" lon="104.100174">
        <time>2026-04-19T14:29:31Z</time>
      </trkpt>
      <trkpt lat="30.653933" lon="104.10015">
        <time>2026-04-19T14:29:32Z</time>
      </trkpt>
      <trkpt lat="30.6539" lon="104.10013">
        <time>2026-04-19T14:29:33Z</time>
      </trkpt>
      <trkpt lat="30.653866" lon="104.100105">
        <time>2026-04-19T14:29:34Z</time>
      </trkpt>
      <trkpt lat="30.65383" lon="104.10008">
        <time>2026-04-19T14:29:35Z</time>
      </trkpt>
      <trkpt lat="30.653791" lon="104.10006">
        <time>2026-04-19T14:29:36Z</time>
      </trkpt>
      <trkpt lat="30.653753" lon="104.10003">
        <time>2026-04-19T14:29:37Z</time>
      </trkpt>
      <trkpt lat="30.653711" lon="104.10001">
        <time>2026-04-19T14:29:38Z</time>
      </trkpt>
      <trkpt lat="30.65367" lon="104.09998">
        <time>2026-04-19T14:29:39Z</time>
      </trkpt>
      <trkpt lat="30.65363" lon="104.09996">
        <time>2026-04-19T14:29:40Z</time>
      </trkpt>
      <trkpt lat="30.65359" lon="104.09994">
        <time>2026-04-19T14:29:41Z</time>
      </trkpt>
      <trkpt lat="30.653551" lon="104.09991">
        <time>2026-04-19T14:29:42Z</time>
      </trkpt>
      <trkpt lat="30.653513" lon="104.099884">
        <time>2026-04-19T14:29:43Z</time>
      </trkpt>
      <trkpt lat="30.653473" lon="104.09986">
        <time>2026-04-19T14:29:44Z</time>
      </trkpt>
      <trkpt lat="30.653433" lon="104.099846">
        <time>2026-04-19T14:29:45Z</time>
      </trkpt>
      <trkpt lat="30.653397" lon="104.09982">
        <time>2026-04-19T14:29:46Z</time>
      </trkpt>
      <trkpt lat="30.65335" lon="104.099785">
        <time>2026-04-19T14:29:47Z</time>
      </trkpt>
      <trkpt lat="30.6533" lon="104.099754">
        <time>2026-04-19T14:29:48Z</time>
      </trkpt>
      <trkpt lat="30.653244" lon="104.099724">
        <time>2026-04-19T14:29:49Z</time>
      </trkpt>
      <trkpt lat="30.65319" lon="104.09969">
        <time>2026-04-19T14:29:50Z</time>
      </trkpt>
      <trkpt lat="30.65314" lon="104.09966">
        <time>2026-04-19T14:29:51Z</time>
      </trkpt>
      <trkpt lat="30.65309" lon="104.09963">
        <time>2026-04-19T14:29:52Z</time>
      </trkpt>
      <trkpt lat="30.65304" lon="104.0996">
        <time>2026-04-19T14:29:53Z</time>
      </trkpt>
      <trkpt lat="30.65299" lon="104.09958">
        <time>2026-04-19T14:29:54Z</time>
      </trkpt>
      <trkpt lat="30.652943" lon="104.099556">
        <time>2026-04-19T14:29:55Z</time>
      </trkpt>
      <trkpt lat="30.652895" lon="104.099525">
        <time>2026-04-19T14:29:56Z</time>
      </trkpt>
      <trkpt lat="30.65285" lon="104.099495">
        <time>2026-04-19T14:29:57Z</time>
      </trkpt>
      <trkpt lat="30.6528" lon="104.099464">
        <time>2026-04-19T14:29:58Z</time>
      </trkpt>
      <trkpt lat="30.652748" lon="104.099434">
        <time>2026-04-19T14:29:59Z</time>
      </trkpt>
      <trkpt lat="30.652697" lon="104.0994">
        <time>2026-04-19T14:30:00Z</time>
      </trkpt>
      <trkpt lat="30.652643" lon="104.099365">
        <time>2026-04-19T14:30:01Z</time>
      </trkpt>
      <trkpt lat="30.652573" lon="104.09935">
        <time>2026-04-19T14:30:02Z</time>
      </trkpt>
      <trkpt lat="30.652517" lon="104.09931">
        <time>2026-04-19T14:30:03Z</time>
      </trkpt>
      <trkpt lat="30.65246" lon="104.09927">
        <time>2026-04-19T14:30:04Z</time>
      </trkpt>
      <trkpt lat="30.652403" lon="104.09923">
        <time>2026-04-19T14:30:05Z</time>
      </trkpt>
      <trkpt lat="30.652338" lon="104.09919">
        <time>2026-04-19T14:30:06Z</time>
      </trkpt>
      <trkpt lat="30.65227" lon="104.099144">
        <time>2026-04-19T14:30:07Z</time>
      </trkpt>
      <trkpt lat="30.652203" lon="104.099106">
        <time>2026-04-19T14:30:08Z</time>
      </trkpt>
      <trkpt lat="30.652134" lon="104.09907">
        <time>2026-04-19T14:30:09Z</time>
      </trkpt>
      <trkpt lat="30.652067" lon="104.09903">
        <time>2026-04-19T14:30:10Z</time>
      </trkpt>
      <trkpt lat="30.652006" lon="104.09899">
        <time>2026-04-19T14:30:11Z</time>
      </trkpt>
      <trkpt lat="30.651947" lon="104.09895">
        <time>2026-04-19T14:30:12Z</time>
      </trkpt>
      <trkpt lat="30.651886" lon="104.09892">
        <time>2026-04-19T14:30:13Z</time>
      </trkpt>
      <trkpt lat="30.651823" lon="104.098885">
        <time>2026-04-19T14:30:14Z</time>
      </trkpt>
      <trkpt lat="30.651764" lon="104.09884">
        <time>2026-04-19T14:30:15Z</time>
      </trkpt>
      <trkpt lat="30.651703" lon="104.09879">
        <time>2026-04-19T14:30:16Z</time>
      </trkpt>
      <trkpt lat="30.651646" lon="104.098755">
        <time>2026-04-19T14:30:17Z</time>
      </trkpt>
      <trkpt lat="30.651585" lon="104.09872">
        <time>2026-04-19T14:30:18Z</time>
      </trkpt>
      <trkpt lat="30.651524" lon="104.09869">
        <time>2026-04-19T14:30:19Z</time>
      </trkpt>
      <trkpt lat="30.651464" lon="104.09865">
        <time>2026-04-19T14:30:20Z</time>
      </trkpt>
      <trkpt lat="30.651407" lon="104.09861">
        <time>2026-04-19T14:30:21Z</time>
      </trkpt>
      <trkpt lat="30.651352" lon="104.09857">
        <time>2026-04-19T14:30:22Z</time>
      </trkpt>
      <trkpt lat="30.651295" lon="104.09854">
        <time>2026-04-19T14:30:23Z</time>
      </trkpt>
      <trkpt lat="30.65124" lon="104.0985">
        <time>2026-04-19T14:30:24Z</time>
      </trkpt>
      <trkpt lat="30.651184" lon="104.09847">
        <time>2026-04-19T14:30:25Z</time>
      </trkpt>
      <trkpt lat="30.651129" lon="104.09844">
        <time>2026-04-19T14:30:26Z</time>
      </trkpt>
      <trkpt lat="30.651077" lon="104.098404">
        <time>2026-04-19T14:30:27Z</time>
      </trkpt>
      <trkpt lat="30.651026" lon="104.09837">
        <time>2026-04-19T14:30:28Z</time>
      </trkpt>
      <trkpt lat="30.65098" lon="104.09834">
        <time>2026-04-19T14:30:29Z</time>
      </trkpt>
      <trkpt lat="30.65094" lon="104.09831">
        <time>2026-04-19T14:30:30Z</time>
      </trkpt>
      <trkpt lat="30.6509" lon="104.09829">
        <time>2026-04-19T14:30:31Z</time>
      </trkpt>
      <trkpt lat="30.65086" lon="104.09826">
        <time>2026-04-19T14:30:32Z</time>
      </trkpt>
      <trkpt lat="30.650824" lon="104.09822">
        <time>2026-04-19T14:30:33Z</time>
      </trkpt>
      <trkpt lat="30.650782" lon="104.0982">
        <time>2026-04-19T14:30:34Z</time>
      </trkpt>
      <trkpt lat="30.650742" lon="104.09817">
        <time>2026-04-19T14:30:35Z</time>
      </trkpt>
      <trkpt lat="30.650698" lon="104.098145">
        <time>2026-04-19T14:30:36Z</time>
      </trkpt>
      <trkpt lat="30.650656" lon="104.098114">
        <time>2026-04-19T14:30:37Z</time>
      </trkpt>
      <trkpt lat="30.650614" lon="104.09809">
        <time>2026-04-19T14:30:38Z</time>
      </trkpt>
      <trkpt lat="30.650572" lon="104.09806">
        <time>2026-04-19T14:30:39Z</time>
      </trkpt>
      <trkpt lat="30.650532" lon="104.09803">
        <time>2026-04-19T14:30:40Z</time>
      </trkpt>
      <trkpt lat="30.6505" lon="104.097984">
        <time>2026-04-19T14:30:41Z</time>
      </trkpt>
      <trkpt lat="30.650478" lon="104.09793">
        <time>2026-04-19T14:30:42Z</time>
      </trkpt>
      <trkpt lat="30.650465" lon="104.097885">
        <time>2026-04-19T14:30:43Z</time>
      </trkpt>
      <trkpt lat="30.650465" lon="104.09784">
        <time>2026-04-19T14:30:44Z</time>
      </trkpt>
      <trkpt lat="30.650476" lon="104.09779">
        <time>2026-04-19T14:30:45Z</time>
      </trkpt>
      <trkpt lat="30.650488" lon="104.09777">
        <time>2026-04-19T14:30:46Z</time>
      </trkpt>
      <trkpt lat="30.650509" lon="104.09773">
        <time>2026-04-19T14:30:47Z</time>
      </trkpt>
      <trkpt lat="30.65053" lon="104.097694">
        <time>2026-04-19T14:30:48Z</time>
      </trkpt>
      <trkpt lat="30.65055" lon="104.09765">
        <time>2026-04-19T14:30:49Z</time>
      </trkpt>
      <trkpt lat="30.650572" lon="104.0976">
        <time>2026-04-19T14:30:50Z</time>
      </trkpt>
      <trkpt lat="30.650593" lon="104.09755">
        <time>2026-04-19T14:30:51Z</time>
      </trkpt>
      <trkpt lat="30.650618" lon="104.097496">
        <time>2026-04-19T14:30:52Z</time>
      </trkpt>
      <trkpt lat="30.650642" lon="104.09744">
        <time>2026-04-19T14:30:53Z</time>
      </trkpt>
      <trkpt lat="30.650667" lon="104.0974">
        <time>2026-04-19T14:30:54Z</time>
      </trkpt>
      <trkpt lat="30.650688" lon="104.097336">
        <time>2026-04-19T14:30:55Z</time>
      </trkpt>
      <trkpt lat="30.650713" lon="104.09729">
        <time>2026-04-19T14:30:56Z</time>
      </trkpt>
      <trkpt lat="30.650738" lon="104.09724">
        <time>2026-04-19T14:30:57Z</time>
      </trkpt>
      <trkpt lat="30.650764" lon="104.09718">
        <time>2026-04-19T14:30:58Z</time>
      </trkpt>
      <trkpt lat="30.65079" lon="104.09712">
        <time>2026-04-19T14:30:59Z</time>
      </trkpt>
      <trkpt lat="30.65081" lon="104.09707">
        <time>2026-04-19T14:31:00Z</time>
      </trkpt>
      <trkpt lat="30.650833" lon="104.09701">
        <time>2026-04-19T14:31:01Z</time>
      </trkpt>
      <trkpt lat="30.65086" lon="104.09695">
        <time>2026-04-19T14:31:02Z</time>
      </trkpt>
      <trkpt lat="30.650887" lon="104.09689">
        <time>2026-04-19T14:31:03Z</time>
      </trkpt>
      <trkpt lat="30.650911" lon="104.09683">
        <time>2026-04-19T14:31:04Z</time>
      </trkpt>
      <trkpt lat="30.650938" lon="104.09678">
        <time>2026-04-19T14:31:05Z</time>
      </trkpt>
      <trkpt lat="30.650963" lon="104.09672">
        <time>2026-04-19T14:31:06Z</time>
      </trkpt>
      <trkpt lat="30.65098" lon="104.09667">
        <time>2026-04-19T14:31:07Z</time>
      </trkpt>
      <trkpt lat="30.650991" lon="104.096634">
        <time>2026-04-19T14:31:08Z</time>
      </trkpt>
      <trkpt lat="30.650997" lon="104.096596">
        <time>2026-04-19T14:31:09Z</time>
      </trkpt>
      <trkpt lat="30.651009" lon="104.09656">
        <time>2026-04-19T14:31:10Z</time>
      </trkpt>
      <trkpt lat="30.651022" lon="104.09652">
        <time>2026-04-19T14:31:11Z</time>
      </trkpt>
      <trkpt lat="30.651033" lon="104.09648">
        <time>2026-04-19T14:31:12Z</time>
      </trkpt>
      <trkpt lat="30.651049" lon="104.096436">
        <time>2026-04-19T14:31:13Z</time>
      </trkpt>
      <trkpt lat="30.651072" lon="104.0964">
        <time>2026-04-19T14:31:14Z</time>
      </trkpt>
      <trkpt lat="30.651108" lon="104.09637">
        <time>2026-04-19T14:31:15Z</time>
      </trkpt>
      <trkpt lat="30.65114" lon="104.09633">
        <time>2026-04-19T14:31:16Z</time>
      </trkpt>
      <trkpt lat="30.651163" lon="104.09628">
        <time>2026-04-19T14:31:17Z</time>
      </trkpt>
      <trkpt lat="30.651182" lon="104.09623">
        <time>2026-04-19T14:31:18Z</time>
      </trkpt>
      <trkpt lat="30.651203" lon="104.09618">
        <time>2026-04-19T14:31:19Z</time>
      </trkpt>
      <trkpt lat="30.651232" lon="104.09613">
        <time>2026-04-19T14:31:20Z</time>
      </trkpt>
      <trkpt lat="30.651258" lon="104.09608">
        <time>2026-04-19T14:31:21Z</time>
      </trkpt>
      <trkpt lat="30.651289" lon="104.096016">
        <time>2026-04-19T14:31:22Z</time>
      </trkpt>
      <trkpt lat="30.651318" lon="104.09596">
        <time>2026-04-19T14:31:23Z</time>
      </trkpt>
      <trkpt lat="30.651348" lon="104.09591">
        <time>2026-04-19T14:31:24Z</time>
      </trkpt>
      <trkpt lat="30.651377" lon="104.09585">
        <time>2026-04-19T14:31:25Z</time>
      </trkpt>
      <trkpt lat="30.651403" lon="104.095795">
        <time>2026-04-19T14:31:26Z</time>
      </trkpt>
      <trkpt lat="30.651434" lon="104.09574">
        <time>2026-04-19T14:31:27Z</time>
      </trkpt>
      <trkpt lat="30.651463" lon="104.09569">
        <time>2026-04-19T14:31:28Z</time>
      </trkpt>
      <trkpt lat="30.651487" lon="104.095634">
        <time>2026-04-19T14:31:29Z</time>
      </trkpt>
      <trkpt lat="30.651531" lon="104.09558">
        <time>2026-04-19T14:31:30Z</time>
      </trkpt>
      <trkpt lat="30.651573" lon="104.09553">
        <time>2026-04-19T14:31:31Z</time>
      </trkpt>
      <trkpt lat="30.65161" lon="104.095474">
        <time>2026-04-19T14:31:32Z</time>
      </trkpt>
      <trkpt lat="30.651644" lon="104.09543">
        <time>2026-04-19T14:31:33Z</time>
      </trkpt>
      <trkpt lat="30.651667" lon="104.09537">
        <time>2026-04-19T14:31:34Z</time>
      </trkpt>
      <trkpt lat="30.651691" lon="104.09531">
        <time>2026-04-19T14:31:35Z</time>
      </trkpt>
      <trkpt lat="30.651724" lon="104.095245">
        <time>2026-04-19T14:31:36Z</time>
      </trkpt>
      <trkpt lat="30.651743" lon="104.09518">
        <time>2026-04-19T14:31:37Z</time>
      </trkpt>
      <trkpt lat="30.651764" lon="104.095116">
        <time>2026-04-19T14:31:38Z</time>
      </trkpt>
      <trkpt lat="30.651781" lon="104.09505">
        <time>2026-04-19T14:31:39Z</time>
      </trkpt>
      <trkpt lat="30.651798" lon="104.09498">
        <time>2026-04-19T14:31:40Z</time>
      </trkpt>
      <trkpt lat="30.65182" lon="104.09491">
        <time>2026-04-19T14:31:41Z</time>
      </trkpt>
      <trkpt lat="30.651836" lon="104.09484">
        <time>2026-04-19T14:31:42Z</time>
      </trkpt>
      <trkpt lat="30.65186" lon="104.09477">
        <time>2026-04-19T14:31:43Z</time>
      </trkpt>
      <trkpt lat="30.651896" lon="104.09473">
        <time>2026-04-19T14:31:44Z</time>
      </trkpt>
      <trkpt lat="30.651934" lon="104.09467">
        <time>2026-04-19T14:31:45Z</time>
      </trkpt>
      <trkpt lat="30.651964" lon="104.09463">
        <time>2026-04-19T14:31:46Z</time>
      </trkpt>
      <trkpt lat="30.651995" lon="104.094574">
        <time>2026-04-19T14:31:47Z</time>
      </trkpt>
      <trkpt lat="30.652023" lon="104.09451">
        <time>2026-04-19T14:31:48Z</time>
      </trkpt>
      <trkpt lat="30.652052" lon="104.09445">
        <time>2026-04-19T14:31:49Z</time>
      </trkpt>
      <trkpt lat="30.652082" lon="104.09439">
        <time>2026-04-19T14:31:50Z</time>
      </trkpt>
      <trkpt lat="30.652107" lon="104.09434">
        <time>2026-04-19T14:31:51Z</time>
      </trkpt>
      <trkpt lat="30.652132" lon="104.094284">
        <time>2026-04-19T14:31:52Z</time>
      </trkpt>
      <trkpt lat="30.652164" lon="104.09422">
        <time>2026-04-19T14:31:53Z</time>
      </trkpt>
      <trkpt lat="30.652182" lon="104.09418">
        <time>2026-04-19T14:31:54Z</time>
      </trkpt>
      <trkpt lat="30.652208" lon="104.094124">
        <time>2026-04-19T14:31:55Z</time>
      </trkpt>
      <trkpt lat="30.652237" lon="104.09407">
        <time>2026-04-19T14:31:56Z</time>
      </trkpt>
      <trkpt lat="30.65227" lon="104.094025">
        <time>2026-04-19T14:31:57Z</time>
      </trkpt>
      <trkpt lat="30.652302" lon="104.09399">
        <time>2026-04-19T14:31:58Z</time>
      </trkpt>
      <trkpt lat="30.65234" lon="104.09395">
        <time>2026-04-19T14:31:59Z</time>
      </trkpt>
      <trkpt lat="30.652376" lon="104.09393">
        <time>2026-04-19T14:32:00Z</time>
      </trkpt>
      <trkpt lat="30.65242" lon="104.09392">
        <time>2026-04-19T14:32:01Z</time>
      </trkpt>
      <trkpt lat="30.652456" lon="104.0939">
        <time>2026-04-19T14:32:02Z</time>
      </trkpt>
      <trkpt lat="30.652496" lon="104.09389">
        <time>2026-04-19T14:32:03Z</time>
      </trkpt>
      <trkpt lat="30.652538" lon="104.09387">
        <time>2026-04-19T14:32:04Z</time>
      </trkpt>
      <trkpt lat="30.65259" lon="104.09387">
        <time>2026-04-19T14:32:05Z</time>
      </trkpt>
      <trkpt lat="30.652636" lon="104.09387">
        <time>2026-04-19T14:32:06Z</time>
      </trkpt>
      <trkpt lat="30.652683" lon="104.0939">
        <time>2026-04-19T14:32:07Z</time>
      </trkpt>
      <trkpt lat="30.652727" lon="104.093925">
        <time>2026-04-19T14:32:08Z</time>
      </trkpt>
      <trkpt lat="30.652775" lon="104.09395">
        <time>2026-04-19T14:32:09Z</time>
      </trkpt>
      <trkpt lat="30.652819" lon="104.09396">
        <time>2026-04-19T14:32:10Z</time>
      </trkpt>
      <trkpt lat="30.652864" lon="104.093994">
        <time>2026-04-19T14:32:11Z</time>
      </trkpt>
      <trkpt lat="30.652912" lon="104.094025">
        <time>2026-04-19T14:32:12Z</time>
      </trkpt>
      <trkpt lat="30.652962" lon="104.09405">
        <time>2026-04-19T14:32:13Z</time>
      </trkpt>
      <trkpt lat="30.65301" lon="104.09408">
        <time>2026-04-19T14:32:14Z</time>
      </trkpt>
      <trkpt lat="30.653057" lon="104.09411">
        <time>2026-04-19T14:32:15Z</time>
      </trkpt>
      <trkpt lat="30.653109" lon="104.09414">
        <time>2026-04-19T14:32:16Z</time>
      </trkpt>
      <trkpt lat="30.653156" lon="104.09416">
        <time>2026-04-19T14:32:17Z</time>
      </trkpt>
      <trkpt lat="30.653208" lon="104.094185">
        <time>2026-04-19T14:32:18Z</time>
      </trkpt>
      <trkpt lat="30.65326" lon="104.09422">
        <time>2026-04-19T14:32:19Z</time>
      </trkpt>
      <trkpt lat="30.653307" lon="104.09425">
        <time>2026-04-19T14:32:20Z</time>
      </trkpt>
      <trkpt lat="30.653358" lon="104.094284">
        <time>2026-04-19T14:32:21Z</time>
      </trkpt>
      <trkpt lat="30.653408" lon="104.094315">
        <time>2026-04-19T14:32:22Z</time>
      </trkpt>
      <trkpt lat="30.653454" lon="104.09434">
        <time>2026-04-19T14:32:23Z</time>
      </trkpt>
      <trkpt lat="30.653502" lon="104.09437">
        <time>2026-04-19T14:32:24Z</time>
      </trkpt>
      <trkpt lat="30.653553" lon="104.094406">
        <time>2026-04-19T14:32:25Z</time>
      </trkpt>
      <trkpt lat="30.653605" lon="104.094444">
        <time>2026-04-19T14:32:26Z</time>
      </trkpt>
      <trkpt lat="30.653658" lon="104.094475">
        <time>2026-04-19T14:32:27Z</time>
      </trkpt>
      <trkpt lat="30.65371" lon="104.094505">
        <time>2026-04-19T14:32:28Z</time>
      </trkpt>
      <trkpt lat="30.65376" lon="104.094536">
        <time>2026-04-19T14:32:29Z</time>
      </trkpt>
      <trkpt lat="30.653814" lon="104.09457">
        <time>2026-04-19T14:32:30Z</time>
      </trkpt>
      <trkpt lat="30.653868" lon="104.0946">
        <time>2026-04-19T14:32:31Z</time>
      </trkpt>
      <trkpt lat="30.653925" lon="104.09463">
        <time>2026-04-19T14:32:32Z</time>
      </trkpt>
      <trkpt lat="30.653982" lon="104.09466">
        <time>2026-04-19T14:32:33Z</time>
      </trkpt>
      <trkpt lat="30.654036" lon="104.09469">
        <time>2026-04-19T14:32:34Z</time>
      </trkpt>
      <trkpt lat="30.654087" lon="104.09471">
        <time>2026-04-19T14:32:35Z</time>
      </trkpt>
      <trkpt lat="30.65414" lon="104.09475">
        <time>2026-04-19T14:32:36Z</time>
      </trkpt>
      <trkpt lat="30.654198" lon="104.09477">
        <time>2026-04-19T14:32:37Z</time>
      </trkpt>
      <trkpt lat="30.654251" lon="104.09481">
        <time>2026-04-19T14:32:38Z</time>
      </trkpt>
      <trkpt lat="30.654303" lon="104.09484">
        <time>2026-04-19T14:32:39Z</time>
      </trkpt>
      <trkpt lat="30.654354" lon="104.09487">
        <time>2026-04-19T14:32:40Z</time>
      </trkpt>
      <trkpt lat="30.654406" lon="104.09489">
        <time>2026-04-19T14:32:41Z</time>
      </trkpt>
      <trkpt lat="30.654455" lon="104.09492">
        <time>2026-04-19T14:32:42Z</time>
      </trkpt>
      <trkpt lat="30.65451" lon="104.09495">
        <time>2026-04-19T14:32:43Z</time>
      </trkpt>
      <trkpt lat="30.654564" lon="104.09498">
        <time>2026-04-19T14:32:44Z</time>
      </trkpt>
      <trkpt lat="30.654617" lon="104.09501">
        <time>2026-04-19T14:32:45Z</time>
      </trkpt>
      <trkpt lat="30.654667" lon="104.09505">
        <time>2026-04-19T14:32:46Z</time>
      </trkpt>
      <trkpt lat="30.654716" lon="104.095085">
        <time>2026-04-19T14:32:47Z</time>
      </trkpt>
      <trkpt lat="30.654768" lon="104.09511">
        <time>2026-04-19T14:32:48Z</time>
      </trkpt>
      <trkpt lat="30.654818" lon="104.09514">
        <time>2026-04-19T14:32:49Z</time>
      </trkpt>
      <trkpt lat="30.654867" lon="104.09517">
        <time>2026-04-19T14:32:50Z</time>
      </trkpt>
      <trkpt lat="30.654919" lon="104.0952">
        <time>2026-04-19T14:32:51Z</time>
      </trkpt>
      <trkpt lat="30.654974" lon="104.09523">
        <time>2026-04-19T14:32:52Z</time>
      </trkpt>
      <trkpt lat="30.655027" lon="104.09527">
        <time>2026-04-19T14:32:53Z</time>
      </trkpt>
      <trkpt lat="30.655079" lon="104.0953">
        <time>2026-04-19T14:32:54Z</time>
      </trkpt>
      <trkpt lat="30.65513" lon="104.09532">
        <time>2026-04-19T14:32:55Z</time>
      </trkpt>
      <trkpt lat="30.655188" lon="104.09536">
        <time>2026-04-19T14:32:56Z</time>
      </trkpt>
      <trkpt lat="30.655241" lon="104.09539">
        <time>2026-04-19T14:32:57Z</time>
      </trkpt>
      <trkpt lat="30.655294" lon="104.09542">
        <time>2026-04-19T14:32:58Z</time>
      </trkpt>
      <trkpt lat="30.655346" lon="104.09546">
        <time>2026-04-19T14:32:59Z</time>
      </trkpt>
      <trkpt lat="30.6554" lon="104.09549">
        <time>2026-04-19T14:33:00Z</time>
      </trkpt>
      <trkpt lat="30.655457" lon="104.09553">
        <time>2026-04-19T14:33:01Z</time>
      </trkpt>
      <trkpt lat="30.655518" lon="104.095566">
        <time>2026-04-19T14:33:02Z</time>
      </trkpt>
      <trkpt lat="30.655573" lon="104.095604">
        <time>2026-04-19T14:33:03Z</time>
      </trkpt>
      <trkpt lat="30.655634" lon="104.09564">
        <time>2026-04-19T14:33:04Z</time>
      </trkpt>
      <trkpt lat="30.655691" lon="104.09568">
        <time>2026-04-19T14:33:05Z</time>
      </trkpt>
      <trkpt lat="30.655745" lon="104.0957">
        <time>2026-04-19T14:33:06Z</time>
      </trkpt>
      <trkpt lat="30.6558" lon="104.09573">
        <time>2026-04-19T14:33:07Z</time>
      </trkpt>
      <trkpt lat="30.65585" lon="104.09576">
        <time>2026-04-19T14:33:08Z</time>
      </trkpt>
      <trkpt lat="30.655901" lon="104.09579">
        <time>2026-04-19T14:33:09Z</time>
      </trkpt>
      <trkpt lat="30.655947" lon="104.09582">
        <time>2026-04-19T14:33:10Z</time>
      </trkpt>
      <trkpt lat="30.655993" lon="104.09584">
        <time>2026-04-19T14:33:11Z</time>
      </trkpt>
      <trkpt lat="30.656033" lon="104.09587">
        <time>2026-04-19T14:33:12Z</time>
      </trkpt>
      <trkpt lat="30.656065" lon="104.09589">
        <time>2026-04-19T14:33:13Z</time>
      </trkpt>
      <trkpt lat="30.656094" lon="104.0959">
        <time>2026-04-19T14:33:14Z</time>
      </trkpt>
      <trkpt lat="30.65612" lon="104.09593">
        <time>2026-04-19T14:33:15Z</time>
      </trkpt>
      <trkpt lat="30.656136" lon="104.09597">
        <time>2026-04-19T14:33:16Z</time>
      </trkpt>
      <trkpt lat="30.656145" lon="104.09601">
        <time>2026-04-19T14:33:17Z</time>
      </trkpt>
      <trkpt lat="30.65614" lon="104.09605">
        <time>2026-04-19T14:33:18Z</time>
      </trkpt>
      <trkpt lat="30.656122" lon="104.09609">
        <time>2026-04-19T14:33:19Z</time>
      </trkpt>
      <trkpt lat="30.656096" lon="104.096146">
        <time>2026-04-19T14:33:20Z</time>
      </trkpt>
      <trkpt lat="30.656076" lon="104.09619">
        <time>2026-04-19T14:33:21Z</time>
      </trkpt>
      <trkpt lat="30.65607" lon="104.096245">
        <time>2026-04-19T14:33:22Z</time>
      </trkpt>
      <trkpt lat="30.65604" lon="104.09629">
        <time>2026-04-19T14:33:23Z</time>
      </trkpt>
      <trkpt lat="30.656015" lon="104.09635">
        <time>2026-04-19T14:33:24Z</time>
      </trkpt>
      <trkpt lat="30.655981" lon="104.096405">
        <time>2026-04-19T14:33:25Z</time>
      </trkpt>
      <trkpt lat="30.655975" lon="104.096466">
        <time>2026-04-19T14:33:26Z</time>
      </trkpt>
      <trkpt lat="30.655947" lon="104.09653">
        <time>2026-04-19T14:33:27Z</time>
      </trkpt>
      <trkpt lat="30.655918" lon="104.09658">
        <time>2026-04-19T14:33:28Z</time>
      </trkpt>
      <trkpt lat="30.655886" lon="104.09663">
        <time>2026-04-19T14:33:29Z</time>
      </trkpt>
      <trkpt lat="30.655853" lon="104.09668">
        <time>2026-04-19T14:33:30Z</time>
      </trkpt>
      <trkpt lat="30.655872" lon="104.09675">
        <time>2026-04-19T14:33:31Z</time>
      </trkpt>
      <trkpt lat="30.655844" lon="104.096794">
        <time>2026-04-19T14:33:32Z</time>
      </trkpt>
      <trkpt lat="30.655815" lon="104.09685">
        <time>2026-04-19T14:33:33Z</time>
      </trkpt>
      <trkpt lat="30.655777" lon="104.0969">
        <time>2026-04-19T14:33:34Z</time>
      </trkpt>
      <trkpt lat="30.655745" lon="104.096954">
        <time>2026-04-19T14:33:35Z</time>
      </trkpt>
      <trkpt lat="30.655716" lon="104.097015">
        <time>2026-04-19T14:33:36Z</time>
      </trkpt>
      <trkpt lat="30.655685" lon="104.09708">
        <time>2026-04-19T14:33:37Z</time>
      </trkpt>
      <trkpt lat="30.655657" lon="104.09713">
        <time>2026-04-19T14:33:38Z</time>
      </trkpt>
      <trkpt lat="30.655624" lon="104.09719">
        <time>2026-04-19T14:33:39Z</time>
      </trkpt>
      <trkpt lat="30.655596" lon="104.09725">
        <time>2026-04-19T14:33:40Z</time>
      </trkpt>
      <trkpt lat="30.655563" lon="104.09731">
        <time>2026-04-19T14:33:41Z</time>
      </trkpt>
      <trkpt lat="30.655533" lon="104.09737">
        <time>2026-04-19T14:33:42Z</time>
      </trkpt>
      <trkpt lat="30.655504" lon="104.09743">
        <time>2026-04-19T14:33:43Z</time>
      </trkpt>
      <trkpt lat="30.655474" lon="104.097496">
        <time>2026-04-19T14:33:44Z</time>
      </trkpt>
      <trkpt lat="30.655443" lon="104.09756">
        <time>2026-04-19T14:33:45Z</time>
      </trkpt>
      <trkpt lat="30.655422" lon="104.097626">
        <time>2026-04-19T14:33:46Z</time>
      </trkpt>
      <trkpt lat="30.65539" lon="104.0977">
        <time>2026-04-19T14:33:47Z</time>
      </trkpt>
      <trkpt lat="30.65536" lon="104.09776">
        <time>2026-04-19T14:33:48Z</time>
      </trkpt>
      <trkpt lat="30.655329" lon="104.097824">
        <time>2026-04-19T14:33:49Z</time>
      </trkpt>
      <trkpt lat="30.655302" lon="104.097885">
        <time>2026-04-19T14:33:50Z</time>
      </trkpt>
      <trkpt lat="30.65526" lon="104.097946">
        <time>2026-04-19T14:33:51Z</time>
      </trkpt>
      <trkpt lat="30.655231" lon="104.09801">
        <time>2026-04-19T14:33:52Z</time>
      </trkpt>
      <trkpt lat="30.655203" lon="104.09807">
        <time>2026-04-19T14:33:53Z</time>
      </trkpt>
      <trkpt lat="30.655174" lon="104.09813">
        <time>2026-04-19T14:33:54Z</time>
      </trkpt>
      <trkpt lat="30.655148" lon="104.09819">
        <time>2026-04-19T14:33:55Z</time>
      </trkpt>
      <trkpt lat="30.655132" lon="104.09825">
        <time>2026-04-19T14:33:56Z</time>
      </trkpt>
      <trkpt lat="30.655106" lon="104.098305">
        <time>2026-04-19T14:33:57Z</time>
      </trkpt>
      <trkpt lat="30.65508" lon="104.098366">
        <time>2026-04-19T14:33:58Z</time>
      </trkpt>
      <trkpt lat="30.655058" lon="104.09843">
        <time>2026-04-19T14:33:59Z</time>
      </trkpt>
      <trkpt lat="30.655024" lon="104.09849">
        <time>2026-04-19T14:34:00Z</time>
      </trkpt>
      <trkpt lat="30.654999" lon="104.09854">
        <time>2026-04-19T14:34:01Z</time>
      </trkpt>
      <trkpt lat="30.654972" lon="104.0986">
        <time>2026-04-19T14:34:02Z</time>
      </trkpt>
      <trkpt lat="30.65495" lon="104.098656">
        <time>2026-04-19T14:34:03Z</time>
      </trkpt>
      <trkpt lat="30.654917" lon="104.09872">
        <time>2026-04-19T14:34:04Z</time>
      </trkpt>
      <trkpt lat="30.654888" lon="104.09877">
        <time>2026-04-19T14:34:05Z</time>
      </trkpt>
      <trkpt lat="30.654856" lon="104.09882">
        <time>2026-04-19T14:34:06Z</time>
      </trkpt>
      <trkpt lat="30.654833" lon="104.09889">
        <time>2026-04-19T14:34:07Z</time>
      </trkpt>
      <trkpt lat="30.654806" lon="104.098946">
        <time>2026-04-19T14:34:08Z</time>
      </trkpt>
      <trkpt lat="30.654776" lon="104.09901">
        <time>2026-04-19T14:34:09Z</time>
      </trkpt>
      <trkpt lat="30.654755" lon="104.09906">
        <time>2026-04-19T14:34:10Z</time>
      </trkpt>
      <trkpt lat="30.65473" lon="104.09911">
        <time>2026-04-19T14:34:11Z</time>
      </trkpt>
      <trkpt lat="30.654709" lon="104.099174">
        <time>2026-04-19T14:34:12Z</time>
      </trkpt>
      <trkpt lat="30.654678" lon="104.09923">
        <time>2026-04-19T14:34:13Z</time>
      </trkpt>
      <trkpt lat="30.654655" lon="104.09928">
        <time>2026-04-19T14:34:14Z</time>
      </trkpt>
      <trkpt lat="30.654625" lon="104.099335">
        <time>2026-04-19T14:34:15Z</time>
      </trkpt>
      <trkpt lat="30.654594" lon="104.099396">
        <time>2026-04-19T14:34:16Z</time>
      </trkpt>
      <trkpt lat="30.654564" lon="104.09945">
        <time>2026-04-19T14:34:17Z</time>
      </trkpt>
      <trkpt lat="30.654535" lon="104.0995">
        <time>2026-04-19T14:34:18Z</time>
      </trkpt>
      <trkpt lat="30.65451" lon="104.099556">
        <time>2026-04-19T14:34:19Z</time>
      </trkpt>
      <trkpt lat="30.654484" lon="104.0996">
        <time>2026-04-19T14:34:20Z</time>
      </trkpt>
      <trkpt lat="30.654453" lon="104.099655">
        <time>2026-04-19T14:34:21Z</time>
      </trkpt>
      <trkpt lat="30.654432" lon="104.09971">
        <time>2026-04-19T14:34:22Z</time>
      </trkpt>
      <trkpt lat="30.654408" lon="104.099754">
        <time>2026-04-19T14:34:23Z</time>
      </trkpt>
      <trkpt lat="30.654388" lon="104.09981">
        <time>2026-04-19T14:34:24Z</time>
      </trkpt>
      <trkpt lat="30.654377" lon="104.099846">
        <time>2026-04-19T14:34:25Z</time>
      </trkpt>
      <trkpt lat="30.65435" lon="104.099884">
        <time>2026-04-19T14:34:26Z</time>
      </trkpt>
      <trkpt lat="30.654335" lon="104.09992">
        <time>2026-04-19T14:34:27Z</time>
      </trkpt>
      <trkpt lat="30.65431" lon="104.09995">
        <time>2026-04-19T14:34:28Z</time>
      </trkpt>
      <trkpt lat="30.65429" lon="104.09998">
        <time>2026-04-19T14:34:29Z</time>
      </trkpt>
      <trkpt lat="30.654278" lon="104.10001">
        <time>2026-04-19T14:34:30Z</time>
      </trkpt>
      <trkpt lat="30.65427" lon="104.100044">
        <time>2026-04-19T14:34:31Z</time>
      </trkpt>
      <trkpt lat="30.65427" lon="104.10006">
        <time>2026-04-19T14:34:32Z</time>
      </trkpt>
      <trkpt lat="30.65427" lon="104.10007">
        <time>2026-04-19T14:34:33Z</time>
      </trkpt>
      <trkpt lat="30.65427" lon="104.10007">
        <time>2026-04-19T14:34:34Z</time>
      </trkpt>
      <trkpt lat="30.65427" lon="104.10007">
        <time>2026-04-19T14:34:35Z</time>
      </trkpt>
      <trkpt lat="30.654268" lon="104.10007">
        <time>2026-04-19T14:34:36Z</time>
      </trkpt>
      <trkpt lat="30.654268" lon="104.10006">
        <time>2026-04-19T14:34:37Z</time>
      </trkpt>
      <trkpt lat="30.654266" lon="104.10006">
        <time>2026-04-19T14:34:38Z</time>
      </trkpt>
      <trkpt lat="30.654266" lon="104.10006">
        <time>2026-04-19T14:34:39Z</time>
      </trkpt>
      <trkpt lat="30.654266" lon="104.10006">
        <time>2026-04-19T14:34:40Z</time>
      </trkpt>
      <trkpt lat="30.654264" lon="104.10006">
        <time>2026-04-19T14:34:41Z</time>
      </trkpt>
      <trkpt lat="30.654264" lon="104.10006">
        <time>2026-04-19T14:34:42Z</time>
      </trkpt>
      <trkpt lat="30.654264" lon="104.10006">
        <time>2026-04-19T14:34:43Z</time>
      </trkpt>
      <trkpt lat="30.654263" lon="104.10006">
        <time>2026-04-19T14:34:44Z</time>
      </trkpt>
      <trkpt lat="30.654263" lon="104.10006">
        <time>2026-04-19T14:34:45Z</time>
      </trkpt>
      <trkpt lat="30.654263" lon="104.10006">
        <time>2026-04-19T14:34:46Z</time>
      </trkpt>
      <trkpt lat="30.654263" lon="104.10006">
        <time>2026-04-19T14:34:47Z</time>
      </trkpt>
      <trkpt lat="30.654263" lon="104.10006">
        <time>2026-04-19T14:34:48Z</time>
      </trkpt>
      <trkpt lat="30.654263" lon="104.10006">
        <time>2026-04-19T14:34:49Z</time>
      </trkpt>
      <trkpt lat="30.654263" lon="104.10006">
        <time>2026-04-19T14:34:50Z</time>
      </trkpt>
      <trkpt lat="30.654263" lon="104.10006">
        <time>2026-04-19T14:34:51Z</time>
      </trkpt>
      <trkpt lat="30.654263" lon="104.10006">
        <time>2026-04-19T14:34:52Z</time>
      </trkpt>
      <trkpt lat="30.654263" lon="104.10006">
        <time>2026-04-19T14:34:53Z</time>
      </trkpt>
      <trkpt lat="30.654263" lon="104.10006">
        <time>2026-04-19T14:34:54Z</time>
      </trkpt>
      <trkpt lat="30.654263" lon="104.10006">
        <time>2026-04-19T14:34:55Z</time>
      </trkpt>
      <trkpt lat="30.654263" lon="104.10006">
        <time>2026-04-19T14:34:56Z</time>
      </trkpt>
      <trkpt lat="30.654263" lon="104.10006">
        <time>2026-04-19T14:34:57Z</time>
      </trkpt>
      <trkpt lat="30.654257" lon="104.10007">
        <time>2026-04-19T14:34:58Z</time>
      </trkpt>
      <trkpt lat="30.654255" lon="104.10006">
        <time>2026-04-19T14:34:59Z</time>
      </trkpt>
      <trkpt lat="30.65425" lon="104.10006">
        <time>2026-04-19T14:35:00Z</time>
      </trkpt>
      <trkpt lat="30.654245" lon="104.10006">
        <time>2026-04-19T14:35:01Z</time>
      </trkpt>
      <trkpt lat="30.654251" lon="104.10006">
        <time>2026-04-19T14:35:02Z</time>
      </trkpt>
      <trkpt lat="30.654253" lon="104.10006">
        <time>2026-04-19T14:35:03Z</time>
      </trkpt>
      <trkpt lat="30.654255" lon="104.10006">
        <time>2026-04-19T14:35:04Z</time>
      </trkpt>
      <trkpt lat="30.654255" lon="104.10006">
        <time>2026-04-19T14:35:05Z</time>
      </trkpt>
      <trkpt lat="30.654253" lon="104.10006">
        <time>2026-04-19T14:35:06Z</time>
      </trkpt>
      <trkpt lat="30.654251" lon="104.10006">
        <time>2026-04-19T14:35:07Z</time>
      </trkpt>
      <trkpt lat="30.65425" lon="104.10006">
        <time>2026-04-19T14:35:08Z</time>
      </trkpt>
      <trkpt lat="30.65425" lon="104.10005">
        <time>2026-04-19T14:35:09Z</time>
      </trkpt>
      <trkpt lat="30.65425" lon="104.10006">
        <time>2026-04-19T14:35:10Z</time>
      </trkpt>
      <trkpt lat="30.654247" lon="104.10006">
        <time>2026-04-19T14:35:11Z</time>
      </trkpt>
      <trkpt lat="30.654247" lon="104.10006">
        <time>2026-04-19T14:35:12Z</time>
      </trkpt>
      <trkpt lat="30.654247" lon="104.10006">
        <time>2026-04-19T14:35:13Z</time>
      </trkpt>
      <trkpt lat="30.654245" lon="104.10005">
        <time>2026-04-19T14:35:14Z</time>
      </trkpt>
      <trkpt lat="30.654242" lon="104.10006">
        <time>2026-04-19T14:35:15Z</time>
      </trkpt>
      <trkpt lat="30.654234" lon="104.10007">
        <time>2026-04-19T14:35:16Z</time>
      </trkpt>
      <trkpt lat="30.654232" lon="104.10008">
        <time>2026-04-19T14:35:17Z</time>
      </trkpt>
      <trkpt lat="30.654238" lon="104.1001">
        <time>2026-04-19T14:35:18Z</time>
      </trkpt>
      <trkpt lat="30.654253" lon="104.10012">
        <time>2026-04-19T14:35:19Z</time>
      </trkpt>
      <trkpt lat="30.654272" lon="104.10014">
        <time>2026-04-19T14:35:20Z</time>
      </trkpt>
      <trkpt lat="30.654293" lon="104.10016">
        <time>2026-04-19T14:35:21Z</time>
      </trkpt>
      <trkpt lat="30.654312" lon="104.10019">
        <time>2026-04-19T14:35:22Z</time>
      </trkpt>
      <trkpt lat="30.654324" lon="104.10022">
        <time>2026-04-19T14:35:23Z</time>
      </trkpt>
      <trkpt lat="30.654331" lon="104.10025">
        <time>2026-04-19T14:35:24Z</time>
      </trkpt>
      <trkpt lat="30.654337" lon="104.10028">
        <time>2026-04-19T14:35:25Z</time>
      </trkpt>
      <trkpt lat="30.654346" lon="104.10032">
        <time>2026-04-19T14:35:26Z</time>
      </trkpt>
      <trkpt lat="30.654358" lon="104.10035">
        <time>2026-04-19T14:35:27Z</time>
      </trkpt>
      <trkpt lat="30.654373" lon="104.10038">
        <time>2026-04-19T14:35:28Z</time>
      </trkpt>
      <trkpt lat="30.654398" lon="104.1004">
        <time>2026-04-19T14:35:29Z</time>
      </trkpt>
      <trkpt lat="30.654427" lon="104.100426">
        <time>2026-04-19T14:35:30Z</time>
      </trkpt>
      <trkpt lat="30.654455" lon="104.10044">
        <time>2026-04-19T14:35:31Z</time>
      </trkpt>
      <trkpt lat="30.654484" lon="104.10046">
        <time>2026-04-19T14:35:32Z</time>
      </trkpt>
      <trkpt lat="30.654514" lon="104.10047">
        <time>2026-04-19T14:35:33Z</time>
      </trkpt>
      <trkpt lat="30.654549" lon="104.10048">
        <time>2026-04-19T14:35:34Z</time>
      </trkpt>
      <trkpt lat="30.654585" lon="104.100494">
        <time>2026-04-19T14:35:35Z</time>
      </trkpt>
      <trkpt lat="30.654615" lon="104.10052">
        <time>2026-04-19T14:35:36Z</time>
      </trkpt>
      <trkpt lat="30.654648" lon="104.100525">
        <time>2026-04-19T14:35:37Z</time>
      </trkpt>
      <trkpt lat="30.654678" lon="104.10054">
        <time>2026-04-19T14:35:38Z</time>
      </trkpt>
      <trkpt lat="30.654709" lon="104.100555">
        <time>2026-04-19T14:35:39Z</time>
      </trkpt>
      <trkpt lat="30.654737" lon="104.10057">
        <time>2026-04-19T14:35:40Z</time>
      </trkpt>
      <trkpt lat="30.654766" lon="104.1006">
        <time>2026-04-19T14:35:41Z</time>
      </trkpt>
      <trkpt lat="30.654795" lon="104.10062">
        <time>2026-04-19T14:35:42Z</time>
      </trkpt>
      <trkpt lat="30.654821" lon="104.10064">
        <time>2026-04-19T14:35:43Z</time>
      </trkpt>
      <trkpt lat="30.654854" lon="104.10066">
        <time>2026-04-19T14:35:44Z</time>
      </trkpt>
      <trkpt lat="30.654884" lon="104.100685">
        <time>2026-04-19T14:35:45Z</time>
      </trkpt>
      <trkpt lat="30.654913" lon="104.10071">
        <time>2026-04-19T14:35:46Z</time>
      </trkpt>
      <trkpt lat="30.654943" lon="104.10072">
        <time>2026-04-19T14:35:47Z</time>
      </trkpt>
      <trkpt lat="30.654974" lon="104.100746">
        <time>2026-04-19T14:35:48Z</time>
      </trkpt>
      <trkpt lat="30.655" lon="104.10077">
        <time>2026-04-19T14:35:49Z</time>
      </trkpt>
      <trkpt lat="30.65503" lon="104.100784">
        <time>2026-04-19T14:35:50Z</time>
      </trkpt>
      <trkpt lat="30.655058" lon="104.10081">
        <time>2026-04-19T14:35:51Z</time>
      </trkpt>
      <trkpt lat="30.655087" lon="104.10082">
        <time>2026-04-19T14:35:52Z</time>
      </trkpt>
      <trkpt lat="30.655115" lon="104.10084">
        <time>2026-04-19T14:35:53Z</time>
      </trkpt>
      <trkpt lat="30.655142" lon="104.10085">
        <time>2026-04-19T14:35:54Z</time>
      </trkpt>
      <trkpt lat="30.655165" lon="104.10087">
        <time>2026-04-19T14:35:55Z</time>
      </trkpt>
      <trkpt lat="30.65519" lon="104.10088">
        <time>2026-04-19T14:35:56Z</time>
      </trkpt>
      <trkpt lat="30.655212" lon="104.10091">
        <time>2026-04-19T14:35:57Z</time>
      </trkpt>
      <trkpt lat="30.655237" lon="104.10092">
        <time>2026-04-19T14:35:58Z</time>
      </trkpt>
      <trkpt lat="30.655262" lon="104.10093">
        <time>2026-04-19T14:35:59Z</time>
      </trkpt>
      <trkpt lat="30.655289" lon="104.10093">
        <time>2026-04-19T14:36:00Z</time>
      </trkpt>
      <trkpt lat="30.655313" lon="104.10093">
        <time>2026-04-19T14:36:01Z</time>
      </trkpt>
      <trkpt lat="30.655323" lon="104.10093">
        <time>2026-04-19T14:36:02Z</time>
      </trkpt>
      <trkpt lat="30.65533" lon="104.10091">
        <time>2026-04-19T14:36:03Z</time>
      </trkpt>
      <trkpt lat="30.655334" lon="104.100876">
        <time>2026-04-19T14:36:04Z</time>
      </trkpt>
      <trkpt lat="30.655338" lon="104.10086">
        <time>2026-04-19T14:36:05Z</time>
      </trkpt>
      <trkpt lat="30.655334" lon="104.10083">
        <time>2026-04-19T14:36:06Z</time>
      </trkpt>
      <trkpt lat="30.655338" lon="104.10079">
        <time>2026-04-19T14:36:07Z</time>
      </trkpt>
      <trkpt lat="30.655348" lon="104.10076">
        <time>2026-04-19T14:36:08Z</time>
      </trkpt>
      <trkpt lat="30.65536" lon="104.10073">
        <time>2026-04-19T14:36:09Z</time>
      </trkpt>
      <trkpt lat="30.655369" lon="104.1007">
        <time>2026-04-19T14:36:10Z</time>
      </trkpt>
      <trkpt lat="30.655382" lon="104.10067">
        <time>2026-04-19T14:36:11Z</time>
      </trkpt>
      <trkpt lat="30.655394" lon="104.10064">
        <time>2026-04-19T14:36:12Z</time>
      </trkpt>
      <trkpt lat="30.655407" lon="104.10061">
        <time>2026-04-19T14:36:13Z</time>
      </trkpt>
      <trkpt lat="30.655416" lon="104.10058">
        <time>2026-04-19T14:36:14Z</time>
      </trkpt>
      <trkpt lat="30.65543" lon="104.10055">
        <time>2026-04-19T14:36:15Z</time>
      </trkpt>
      <trkpt lat="30.655443" lon="104.10052">
        <time>2026-04-19T14:36:16Z</time>
      </trkpt>
      <trkpt lat="30.655462" lon="104.100494">
        <time>2026-04-19T14:36:17Z</time>
      </trkpt>
      <trkpt lat="30.655493" lon="104.10048">
        <time>2026-04-19T14:36:18Z</time>
      </trkpt>
      <trkpt lat="30.655525" lon="104.10049">
        <time>2026-04-19T14:36:19Z</time>
      </trkpt>
      <trkpt lat="30.65555" lon="104.10051">
        <time>2026-04-19T14:36:20Z</time>
      </trkpt>
      <trkpt lat="30.655577" lon="104.10053">
        <time>2026-04-19T14:36:21Z</time>
      </trkpt>
      <trkpt lat="30.655603" lon="104.100555">
        <time>2026-04-19T14:36:22Z</time>
      </trkpt>
      <trkpt lat="30.655636" lon="104.10058">
        <time>2026-04-19T14:36:23Z</time>
      </trkpt>
      <trkpt lat="30.65569" lon="104.10062">
        <time>2026-04-19T14:36:24Z</time>
      </trkpt>
      <trkpt lat="30.655731" lon="104.10064">
        <time>2026-04-19T14:36:25Z</time>
      </trkpt>
      <trkpt lat="30.655767" lon="104.10067">
        <time>2026-04-19T14:36:26Z</time>
      </trkpt>
      <trkpt lat="30.655819" lon="104.100685">
        <time>2026-04-19T14:36:27Z</time>
      </trkpt>
      <trkpt lat="30.655857" lon="104.10071">
        <time>2026-04-19T14:36:28Z</time>
      </trkpt>
      <trkpt lat="30.655905" lon="104.10074">
        <time>2026-04-19T14:36:29Z</time>
      </trkpt>
      <trkpt lat="30.655952" lon="104.10076">
        <time>2026-04-19T14:36:30Z</time>
      </trkpt>
      <trkpt lat="30.656" lon="104.10079">
        <time>2026-04-19T14:36:31Z</time>
      </trkpt>
      <trkpt lat="30.656054" lon="104.10082">
        <time>2026-04-19T14:36:32Z</time>
      </trkpt>
      <trkpt lat="30.6561" lon="104.10085">
        <time>2026-04-19T14:36:33Z</time>
      </trkpt>
      <trkpt lat="30.656137" lon="104.10088">
        <time>2026-04-19T14:36:34Z</time>
      </trkpt>
      <trkpt lat="30.65618" lon="104.10091">
        <time>2026-04-19T14:36:35Z</time>
      </trkpt>
      <trkpt lat="30.656227" lon="104.100914">
        <time>2026-04-19T14:36:36Z</time>
      </trkpt>
      <trkpt lat="30.656279" lon="104.10097">
        <time>2026-04-19T14:36:37Z</time>
      </trkpt>
      <trkpt lat="30.656315" lon="104.10099">
        <time>2026-04-19T14:36:38Z</time>
      </trkpt>
      <trkpt lat="30.656364" lon="104.10101">
        <time>2026-04-19T14:36:39Z</time>
      </trkpt>
      <trkpt lat="30.656406" lon="104.101036">
        <time>2026-04-19T14:36:40Z</time>
      </trkpt>
      <trkpt lat="30.656446" lon="104.10107">
        <time>2026-04-19T14:36:41Z</time>
      </trkpt>
      <trkpt lat="30.656487" lon="104.10109">
        <time>2026-04-19T14:36:42Z</time>
      </trkpt>
      <trkpt lat="30.656513" lon="104.10112">
        <time>2026-04-19T14:36:43Z</time>
      </trkpt>
      <trkpt lat="30.656553" lon="104.10115">
        <time>2026-04-19T14:36:44Z</time>
      </trkpt>
      <trkpt lat="30.656603" lon="104.10117">
        <time>2026-04-19T14:36:45Z</time>
      </trkpt>
      <trkpt lat="30.656647" lon="104.1012">
        <time>2026-04-19T14:36:46Z</time>
      </trkpt>
      <trkpt lat="30.656683" lon="104.10123">
        <time>2026-04-19T14:36:47Z</time>
      </trkpt>
      <trkpt lat="30.656712" lon="104.10125">
        <time>2026-04-19T14:36:48Z</time>
      </trkpt>
      <trkpt lat="30.656736" lon="104.101265">
        <time>2026-04-19T14:36:49Z</time>
      </trkpt>
      <trkpt lat="30.656761" lon="104.10127">
        <time>2026-04-19T14:36:50Z</time>
      </trkpt>
      <trkpt lat="30.656776" lon="104.10127">
        <time>2026-04-19T14:36:51Z</time>
      </trkpt>
      <trkpt lat="30.656784" lon="104.10128">
        <time>2026-04-19T14:36:52Z</time>
      </trkpt>
      <trkpt lat="30.656782" lon="104.10129">
        <time>2026-04-19T14:36:53Z</time>
      </trkpt>
      <trkpt lat="30.656776" lon="104.1013">
        <time>2026-04-19T14:36:54Z</time>
      </trkpt>
      <trkpt lat="30.656776" lon="104.1013">
        <time>2026-04-19T14:36:55Z</time>
      </trkpt>
      <trkpt lat="30.656778" lon="104.101295">
        <time>2026-04-19T14:36:56Z</time>
      </trkpt>
      <trkpt lat="30.656782" lon="104.10129">
        <time>2026-04-19T14:36:57Z</time>
      </trkpt>
      <trkpt lat="30.656786" lon="104.10128">
        <time>2026-04-19T14:36:58Z</time>
      </trkpt>
      <trkpt lat="30.656786" lon="104.10127">
        <time>2026-04-19T14:36:59Z</time>
      </trkpt>
      <trkpt lat="30.656786" lon="104.10127">
        <time>2026-04-19T14:37:00Z</time>
      </trkpt>
      <trkpt lat="30.656788" lon="104.10127">
        <time>2026-04-19T14:37:01Z</time>
      </trkpt>
      <trkpt lat="30.656788" lon="104.10127">
        <time>2026-04-19T14:37:02Z</time>
      </trkpt>
      <trkpt lat="30.65679" lon="104.10127">
        <time>2026-04-19T14:37:03Z</time>
      </trkpt>
      <trkpt lat="30.656792" lon="104.10127">
        <time>2026-04-19T14:37:04Z</time>
      </trkpt>
      <trkpt lat="30.656792" lon="104.10127">
        <time>2026-04-19T14:37:05Z</time>
      </trkpt>
      <trkpt lat="30.65679" lon="104.10127">
        <time>2026-04-19T14:37:06Z</time>
      </trkpt>
      <trkpt lat="30.656792" lon="104.10127">
        <time>2026-04-19T14:37:07Z</time>
      </trkpt>
      <trkpt lat="30.656792" lon="104.10127">
        <time>2026-04-19T14:37:08Z</time>
      </trkpt>
      <trkpt lat="30.656792" lon="104.10127">
        <time>2026-04-19T14:37:09Z</time>
      </trkpt>
      <trkpt lat="30.656792" lon="104.10127">
        <time>2026-04-19T14:37:10Z</time>
      </trkpt>
      <trkpt lat="30.65679" lon="104.10127">
        <time>2026-04-19T14:37:11Z</time>
      </trkpt>
      <trkpt lat="30.65679" lon="104.10127">
        <time>2026-04-19T14:37:12Z</time>
      </trkpt>
      <trkpt lat="30.65679" lon="104.10127">
        <time>2026-04-19T14:37:13Z</time>
      </trkpt>
      <trkpt lat="30.65679" lon="104.10127">
        <time>2026-04-19T14:37:14Z</time>
      </trkpt>
      <trkpt lat="30.65679" lon="104.10127">
        <time>2026-04-19T14:37:15Z</time>
      </trkpt>
      <trkpt lat="30.65679" lon="104.10127">
        <time>2026-04-19T14:37:16Z</time>
      </trkpt>
    </trkseg>
  </trk>
</gpx>