<?xml version="1.0" encoding="UTF-8"?>
<gpx version="1.1" creator="Go GPS Converter">
  <trk>
    <name>GPS Track</name>
    <trkseg>
      <trkpt lat="30.653074" lon="104.20214">
        <time>2025-08-24T06:41:28Z</time>
      </trkpt>
      <trkpt lat="30.653162" lon="104.20207">
        <time>2025-08-24T06:41:30Z</time>
      </trkpt>
      <trkpt lat="30.653202" lon="104.20204">
        <time>2025-08-24T06:41:31Z</time>
      </trkpt>
      <trkpt lat="30.653261" lon="104.20204">
        <time>2025-08-24T06:41:32Z</time>
      </trkpt>
      <trkpt lat="30.653313" lon="104.20202">
        <time>2025-08-24T06:41:33Z</time>
      </trkpt>
      <trkpt lat="30.653364" lon="104.20198">
        <time>2025-08-24T06:41:34Z</time>
      </trkpt>
      <trkpt lat="30.653423" lon="104.20195">
        <time>2025-08-24T06:41:35Z</time>
      </trkpt>
      <trkpt lat="30.653496" lon="104.20193">
        <time>2025-08-24T06:41:36Z</time>
      </trkpt>
      <trkpt lat="30.653559" lon="104.201904">
        <time>2025-08-24T06:41:37Z</time>
      </trkpt>
      <trkpt lat="30.653631" lon="104.20189">
        <time>2025-08-24T06:41:38Z</time>
      </trkpt>
      <trkpt lat="30.653696" lon="104.20187">
        <time>2025-08-24T06:41:39Z</time>
      </trkpt>
      <trkpt lat="30.653765" lon="104.20186">
        <time>2025-08-24T06:41:40Z</time>
      </trkpt>
      <trkpt lat="30.653831" lon="104.20185">
        <time>2025-08-24T06:41:41Z</time>
      </trkpt>
      <trkpt lat="30.653898" lon="104.20185">
        <time>2025-08-24T06:41:42Z</time>
      </trkpt>
      <trkpt lat="30.65396" lon="104.20185">
        <time>2025-08-24T06:41:43Z</time>
      </trkpt>
      <trkpt lat="30.654022" lon="104.20185">
        <time>2025-08-24T06:41:44Z</time>
      </trkpt>
      <trkpt lat="30.65408" lon="104.20185">
        <time>2025-08-24T06:41:45Z</time>
      </trkpt>
      <trkpt lat="30.654135" lon="104.20186">
        <time>2025-08-24T06:41:46Z</time>
      </trkpt>
      <trkpt lat="30.654192" lon="104.201866">
        <time>2025-08-24T06:41:47Z</time>
      </trkpt>
      <trkpt lat="30.654243" lon="104.20188">
        <time>2025-08-24T06:41:48Z</time>
      </trkpt>
      <trkpt lat="30.654295" lon="104.20189">
        <time>2025-08-24T06:41:49Z</time>
      </trkpt>
      <trkpt lat="30.654343" lon="104.20191">
        <time>2025-08-24T06:41:50Z</time>
      </trkpt>
      <trkpt lat="30.654388" lon="104.201935">
        <time>2025-08-24T06:41:51Z</time>
      </trkpt>
      <trkpt lat="30.654434" lon="104.20195">
        <time>2025-08-24T06:41:52Z</time>
      </trkpt>
      <trkpt lat="30.65448" lon="104.20197">
        <time>2025-08-24T06:41:53Z</time>
      </trkpt>
      <trkpt lat="30.654526" lon="104.201996">
        <time>2025-08-24T06:41:54Z</time>
      </trkpt>
      <trkpt lat="30.654572" lon="104.20203">
        <time>2025-08-24T06:41:55Z</time>
      </trkpt>
      <trkpt lat="30.654613" lon="104.20205">
        <time>2025-08-24T06:41:56Z</time>
      </trkpt>
      <trkpt lat="30.654652" lon="104.20207">
        <time>2025-08-24T06:41:57Z</time>
      </trkpt>
      <trkpt lat="30.654688" lon="104.202095">
        <time>2025-08-24T06:41:58Z</time>
      </trkpt>
      <trkpt lat="30.65472" lon="104.20212">
        <time>2025-08-24T06:41:59Z</time>
      </trkpt>
      <trkpt lat="30.65475" lon="104.20214">
        <time>2025-08-24T06:42:00Z</time>
      </trkpt>
      <trkpt lat="30.65478" lon="104.20216">
        <time>2025-08-24T06:42:01Z</time>
      </trkpt>
      <trkpt lat="30.654806" lon="104.20219">
        <time>2025-08-24T06:42:02Z</time>
      </trkpt>
      <trkpt lat="30.654835" lon="104.2022">
        <time>2025-08-24T06:42:03Z</time>
      </trkpt>
      <trkpt lat="30.654863" lon="104.20222">
        <time>2025-08-24T06:42:04Z</time>
      </trkpt>
      <trkpt lat="30.65489" lon="104.20223">
        <time>2025-08-24T06:42:05Z</time>
      </trkpt>
      <trkpt lat="30.654917" lon="104.202255">
        <time>2025-08-24T06:42:06Z</time>
      </trkpt>
      <trkpt lat="30.654942" lon="104.20228">
        <time>2025-08-24T06:42:07Z</time>
      </trkpt>
      <trkpt lat="30.654966" lon="104.2023">
        <time>2025-08-24T06:42:08Z</time>
      </trkpt>
      <trkpt lat="30.654993" lon="104.202324">
        <time>2025-08-24T06:42:09Z</time>
      </trkpt>
      <trkpt lat="30.655022" lon="104.20235">
        <time>2025-08-24T06:42:10Z</time>
      </trkpt>
      <trkpt lat="30.65505" lon="104.20237">
        <time>2025-08-24T06:42:11Z</time>
      </trkpt>
      <trkpt lat="30.65508" lon="104.20239">
        <time>2025-08-24T06:42:12Z</time>
      </trkpt>
      <trkpt lat="30.655113" lon="104.202415">
        <time>2025-08-24T06:42:13Z</time>
      </trkpt>
      <trkpt lat="30.655144" lon="104.20244">
        <time>2025-08-24T06:42:14Z</time>
      </trkpt>
      <trkpt lat="30.655176" lon="104.20245">
        <time>2025-08-24T06:42:15Z</time>
      </trkpt>
      <trkpt lat="30.655209" lon="104.202484">
        <time>2025-08-24T06:42:16Z</time>
      </trkpt>
      <trkpt lat="30.655245" lon="104.20251">
        <time>2025-08-24T06:42:17Z</time>
      </trkpt>
      <trkpt lat="30.655283" lon="104.20254">
        <time>2025-08-24T06:42:18Z</time>
      </trkpt>
      <trkpt lat="30.655321" lon="104.20256">
        <time>2025-08-24T06:42:19Z</time>
      </trkpt>
      <trkpt lat="30.65536" lon="104.20259">
        <time>2025-08-24T06:42:20Z</time>
      </trkpt>
      <trkpt lat="30.655403" lon="104.20262">
        <time>2025-08-24T06:42:21Z</time>
      </trkpt>
      <trkpt lat="30.655443" lon="104.20265">
        <time>2025-08-24T06:42:22Z</time>
      </trkpt>
      <trkpt lat="30.655485" lon="104.20268">
        <time>2025-08-24T06:42:23Z</time>
      </trkpt>
      <trkpt lat="30.655527" lon="104.20271">
        <time>2025-08-24T06:42:24Z</time>
      </trkpt>
      <trkpt lat="30.65557" lon="104.20274">
        <time>2025-08-24T06:42:25Z</time>
      </trkpt>
      <trkpt lat="30.655615" lon="104.202774">
        <time>2025-08-24T06:42:26Z</time>
      </trkpt>
      <trkpt lat="30.655659" lon="104.20281">
        <time>2025-08-24T06:42:27Z</time>
      </trkpt>
      <trkpt lat="30.655706" lon="104.20284">
        <time>2025-08-24T06:42:28Z</time>
      </trkpt>
      <trkpt lat="30.655754" lon="104.20287">
        <time>2025-08-24T06:42:29Z</time>
      </trkpt>
      <trkpt lat="30.655802" lon="104.202896">
        <time>2025-08-24T06:42:30Z</time>
      </trkpt>
      <trkpt lat="30.655891" lon="104.20293">
        <time>2025-08-24T06:42:31Z</time>
      </trkpt>
      <trkpt lat="30.655941" lon="104.20296">
        <time>2025-08-24T06:42:32Z</time>
      </trkpt>
      <trkpt lat="30.655989" lon="104.20299">
        <time>2025-08-24T06:42:33Z</time>
      </trkpt>
      <trkpt lat="30.656036" lon="104.20301">
        <time>2025-08-24T06:42:34Z</time>
      </trkpt>
      <trkpt lat="30.656092" lon="104.20304">
        <time>2025-08-24T06:42:35Z</time>
      </trkpt>
      <trkpt lat="30.656145" lon="104.203064">
        <time>2025-08-24T06:42:36Z</time>
      </trkpt>
      <trkpt lat="30.6562" lon="104.20309">
        <time>2025-08-24T06:42:37Z</time>
      </trkpt>
      <trkpt lat="30.656256" lon="104.20311">
        <time>2025-08-24T06:42:38Z</time>
      </trkpt>
      <trkpt lat="30.656313" lon="104.20314">
        <time>2025-08-24T06:42:39Z</time>
      </trkpt>
      <trkpt lat="30.656372" lon="104.20316">
        <time>2025-08-24T06:42:40Z</time>
      </trkpt>
      <trkpt lat="30.656433" lon="104.20318">
        <time>2025-08-24T06:42:41Z</time>
      </trkpt>
      <trkpt lat="30.656492" lon="104.2032">
        <time>2025-08-24T06:42:42Z</time>
      </trkpt>
      <trkpt lat="30.656555" lon="104.203224">
        <time>2025-08-24T06:42:43Z</time>
      </trkpt>
      <trkpt lat="30.656614" lon="104.20324">
        <time>2025-08-24T06:42:44Z</time>
      </trkpt>
      <trkpt lat="30.656675" lon="104.203255">
        <time>2025-08-24T06:42:45Z</time>
      </trkpt>
      <trkpt lat="30.656734" lon="104.20327">
        <time>2025-08-24T06:42:46Z</time>
      </trkpt>
      <trkpt lat="30.656792" lon="104.203285">
        <time>2025-08-24T06:42:47Z</time>
      </trkpt>
      <trkpt lat="30.65685" lon="104.2033">
        <time>2025-08-24T06:42:48Z</time>
      </trkpt>
      <trkpt lat="30.656908" lon="104.20331">
        <time>2025-08-24T06:42:49Z</time>
      </trkpt>
      <trkpt lat="30.656965" lon="104.203316">
        <time>2025-08-24T06:42:50Z</time>
      </trkpt>
      <trkpt lat="30.65702" lon="104.20332">
        <time>2025-08-24T06:42:51Z</time>
      </trkpt>
      <trkpt lat="30.657074" lon="104.20333">
        <time>2025-08-24T06:42:52Z</time>
      </trkpt>
      <trkpt lat="30.657125" lon="104.20334">
        <time>2025-08-24T06:42:53Z</time>
      </trkpt>
      <trkpt lat="30.657173" lon="104.20335">
        <time>2025-08-24T06:42:54Z</time>
      </trkpt>
      <trkpt lat="30.657223" lon="104.20335">
        <time>2025-08-24T06:42:55Z</time>
      </trkpt>
      <trkpt lat="30.657272" lon="104.20335">
        <time>2025-08-24T06:42:56Z</time>
      </trkpt>
      <trkpt lat="30.65732" lon="104.20335">
        <time>2025-08-24T06:42:57Z</time>
      </trkpt>
      <trkpt lat="30.657364" lon="104.203354">
        <time>2025-08-24T06:42:58Z</time>
      </trkpt>
      <trkpt lat="30.657408" lon="104.203354">
        <time>2025-08-24T06:42:59Z</time>
      </trkpt>
      <trkpt lat="30.65745" lon="104.203354">
        <time>2025-08-24T06:43:00Z</time>
      </trkpt>
      <trkpt lat="30.657488" lon="104.203354">
        <time>2025-08-24T06:43:01Z</time>
      </trkpt>
      <trkpt lat="30.657528" lon="104.203354">
        <time>2025-08-24T06:43:02Z</time>
      </trkpt>
      <trkpt lat="30.657574" lon="104.20335">
        <time>2025-08-24T06:43:03Z</time>
      </trkpt>
      <trkpt lat="30.657616" lon="104.20335">
        <time>2025-08-24T06:43:04Z</time>
      </trkpt>
      <trkpt lat="30.657658" lon="104.20335">
        <time>2025-08-24T06:43:05Z</time>
      </trkpt>
      <trkpt lat="30.657701" lon="104.20335">
        <time>2025-08-24T06:43:06Z</time>
      </trkpt>
      <trkpt lat="30.657745" lon="104.20335">
        <time>2025-08-24T06:43:07Z</time>
      </trkpt>
      <trkpt lat="30.657793" lon="104.20334">
        <time>2025-08-24T06:43:08Z</time>
      </trkpt>
      <trkpt lat="30.65784" lon="104.20333">
        <time>2025-08-24T06:43:09Z</time>
      </trkpt>
      <trkpt lat="30.657887" lon="104.20332">
        <time>2025-08-24T06:43:10Z</time>
      </trkpt>
      <trkpt lat="30.657932" lon="104.203316">
        <time>2025-08-24T06:43:11Z</time>
      </trkpt>
      <trkpt lat="30.657974" lon="104.20331">
        <time>2025-08-24T06:43:12Z</time>
      </trkpt>
      <trkpt lat="30.65802" lon="104.203285">
        <time>2025-08-24T06:43:13Z</time>
      </trkpt>
      <trkpt lat="30.658064" lon="104.20327">
        <time>2025-08-24T06:43:14Z</time>
      </trkpt>
      <trkpt lat="30.658108" lon="104.203255">
        <time>2025-08-24T06:43:15Z</time>
      </trkpt>
      <trkpt lat="30.65815" lon="104.20325">
        <time>2025-08-24T06:43:16Z</time>
      </trkpt>
      <trkpt lat="30.658192" lon="104.20323">
        <time>2025-08-24T06:43:17Z</time>
      </trkpt>
      <trkpt lat="30.658236" lon="104.203224">
        <time>2025-08-24T06:43:18Z</time>
      </trkpt>
      <trkpt lat="30.658276" lon="104.20322">
        <time>2025-08-24T06:43:19Z</time>
      </trkpt>
      <trkpt lat="30.658327" lon="104.2032">
        <time>2025-08-24T06:43:20Z</time>
      </trkpt>
      <trkpt lat="30.658375" lon="104.20319">
        <time>2025-08-24T06:43:21Z</time>
      </trkpt>
      <trkpt lat="30.65842" lon="104.20318">
        <time>2025-08-24T06:43:22Z</time>
      </trkpt>
      <trkpt lat="30.658472" lon="104.20317">
        <time>2025-08-24T06:43:23Z</time>
      </trkpt>
      <trkpt lat="30.658506" lon="104.20317">
        <time>2025-08-24T06:43:24Z</time>
      </trkpt>
      <trkpt lat="30.658564" lon="104.203156">
        <time>2025-08-24T06:43:25Z</time>
      </trkpt>
      <trkpt lat="30.658592" lon="104.203125">
        <time>2025-08-24T06:43:26Z</time>
      </trkpt>
      <trkpt lat="30.658646" lon="104.2031">
        <time>2025-08-24T06:43:27Z</time>
      </trkpt>
      <trkpt lat="30.65869" lon="104.20309">
        <time>2025-08-24T06:43:28Z</time>
      </trkpt>
      <trkpt lat="30.658733" lon="104.203064">
        <time>2025-08-24T06:43:29Z</time>
      </trkpt>
      <trkpt lat="30.658773" lon="104.20303">
        <time>2025-08-24T06:43:30Z</time>
      </trkpt>
      <trkpt lat="30.65881" lon="104.20301">
        <time>2025-08-24T06:43:31Z</time>
      </trkpt>
      <trkpt lat="30.658857" lon="104.20299">
        <time>2025-08-24T06:43:32Z</time>
      </trkpt>
      <trkpt lat="30.6589" lon="104.202965">
        <time>2025-08-24T06:43:33Z</time>
      </trkpt>
      <trkpt lat="30.658943" lon="104.20294">
        <time>2025-08-24T06:43:34Z</time>
      </trkpt>
      <trkpt lat="30.658987" lon="104.20292">
        <time>2025-08-24T06:43:35Z</time>
      </trkpt>
      <trkpt lat="30.65903" lon="104.202896">
        <time>2025-08-24T06:43:36Z</time>
      </trkpt>
      <trkpt lat="30.659067" lon="104.20287">
        <time>2025-08-24T06:43:37Z</time>
      </trkpt>
      <trkpt lat="30.659117" lon="104.20285">
        <time>2025-08-24T06:43:38Z</time>
      </trkpt>
      <trkpt lat="30.65916" lon="104.20282">
        <time>2025-08-24T06:43:39Z</time>
      </trkpt>
      <trkpt lat="30.659204" lon="104.2028">
        <time>2025-08-24T06:43:40Z</time>
      </trkpt>
      <trkpt lat="30.659246" lon="104.202774">
        <time>2025-08-24T06:43:41Z</time>
      </trkpt>
      <trkpt lat="30.659285" lon="104.20275">
        <time>2025-08-24T06:43:42Z</time>
      </trkpt>
      <trkpt lat="30.659319" lon="104.20273">
        <time>2025-08-24T06:43:43Z</time>
      </trkpt>
      <trkpt lat="30.659346" lon="104.20271">
        <time>2025-08-24T06:43:44Z</time>
      </trkpt>
      <trkpt lat="30.659372" lon="104.2027">
        <time>2025-08-24T06:43:45Z</time>
      </trkpt>
      <trkpt lat="30.659393" lon="104.20268">
        <time>2025-08-24T06:43:46Z</time>
      </trkpt>
      <trkpt lat="30.659409" lon="104.20267">
        <time>2025-08-24T06:43:47Z</time>
      </trkpt>
      <trkpt lat="30.659424" lon="104.202644">
        <time>2025-08-24T06:43:48Z</time>
      </trkpt>
      <trkpt lat="30.659437" lon="104.20262">
        <time>2025-08-24T06:43:49Z</time>
      </trkpt>
      <trkpt lat="30.659445" lon="104.20258">
        <time>2025-08-24T06:43:50Z</time>
      </trkpt>
      <trkpt lat="30.65945" lon="104.20255">
        <time>2025-08-24T06:43:51Z</time>
      </trkpt>
      <trkpt lat="30.659452" lon="104.202515">
        <time>2025-08-24T06:43:52Z</time>
      </trkpt>
      <trkpt lat="30.659456" lon="104.20247">
        <time>2025-08-24T06:43:53Z</time>
      </trkpt>
      <trkpt lat="30.659462" lon="104.20243">
        <time>2025-08-24T06:43:54Z</time>
      </trkpt>
      <trkpt lat="30.659466" lon="104.202385">
        <time>2025-08-24T06:43:55Z</time>
      </trkpt>
      <trkpt lat="30.659468" lon="104.20235">
        <time>2025-08-24T06:43:56Z</time>
      </trkpt>
      <trkpt lat="30.65947" lon="104.2023">
        <time>2025-08-24T06:43:57Z</time>
      </trkpt>
      <trkpt lat="30.659473" lon="104.20225">
        <time>2025-08-24T06:43:58Z</time>
      </trkpt>
      <trkpt lat="30.659473" lon="104.202194">
        <time>2025-08-24T06:43:59Z</time>
      </trkpt>
      <trkpt lat="30.659481" lon="104.20214">
        <time>2025-08-24T06:44:00Z</time>
      </trkpt>
      <trkpt lat="30.659487" lon="104.20208">
        <time>2025-08-24T06:44:01Z</time>
      </trkpt>
      <trkpt lat="30.659496" lon="104.20202">
        <time>2025-08-24T06:44:02Z</time>
      </trkpt>
      <trkpt lat="30.6595" lon="104.20195">
        <time>2025-08-24T06:44:03Z</time>
      </trkpt>
      <trkpt lat="30.659506" lon="104.20188">
        <time>2025-08-24T06:44:04Z</time>
      </trkpt>
      <trkpt lat="30.659515" lon="104.20181">
        <time>2025-08-24T06:44:05Z</time>
      </trkpt>
      <trkpt lat="30.659527" lon="104.20174">
        <time>2025-08-24T06:44:06Z</time>
      </trkpt>
      <trkpt lat="30.65954" lon="104.20166">
        <time>2025-08-24T06:44:07Z</time>
      </trkpt>
      <trkpt lat="30.659552" lon="104.201584">
        <time>2025-08-24T06:44:08Z</time>
      </trkpt>
      <trkpt lat="30.65956" lon="104.20151">
        <time>2025-08-24T06:44:09Z</time>
      </trkpt>
      <trkpt lat="30.65957" lon="104.20144">
        <time>2025-08-24T06:44:10Z</time>
      </trkpt>
      <trkpt lat="30.659578" lon="104.20136">
        <time>2025-08-24T06:44:11Z</time>
      </trkpt>
      <trkpt lat="30.659597" lon="104.20129">
        <time>2025-08-24T06:44:12Z</time>
      </trkpt>
      <trkpt lat="30.659607" lon="104.201225">
        <time>2025-08-24T06:44:13Z</time>
      </trkpt>
      <trkpt lat="30.659615" lon="104.20118">
        <time>2025-08-24T06:44:14Z</time>
      </trkpt>
      <trkpt lat="30.659618" lon="104.20114">
        <time>2025-08-24T06:44:15Z</time>
      </trkpt>
      <trkpt lat="30.659622" lon="104.2011">
        <time>2025-08-24T06:44:16Z</time>
      </trkpt>
      <trkpt lat="30.659628" lon="104.20108">
        <time>2025-08-24T06:44:17Z</time>
      </trkpt>
      <trkpt lat="30.659628" lon="104.20108">
        <time>2025-08-24T06:44:18Z</time>
      </trkpt>
      <trkpt lat="30.659626" lon="104.20107">
        <time>2025-08-24T06:44:19Z</time>
      </trkpt>
      <trkpt lat="30.659632" lon="104.20105">
        <time>2025-08-24T06:44:20Z</time>
      </trkpt>
      <trkpt lat="30.659634" lon="104.201035">
        <time>2025-08-24T06:44:21Z</time>
      </trkpt>
      <trkpt lat="30.659637" lon="104.201004">
        <time>2025-08-24T06:44:22Z</time>
      </trkpt>
      <trkpt lat="30.659637" lon="104.20097">
        <time>2025-08-24T06:44:23Z</time>
      </trkpt>
      <trkpt lat="30.65964" lon="104.20094">
        <time>2025-08-24T06:44:24Z</time>
      </trkpt>
      <trkpt lat="30.659643" lon="104.200905">
        <time>2025-08-24T06:44:25Z</time>
      </trkpt>
      <trkpt lat="30.659647" lon="104.200874">
        <time>2025-08-24T06:44:26Z</time>
      </trkpt>
      <trkpt lat="30.659655" lon="104.20084">
        <time>2025-08-24T06:44:27Z</time>
      </trkpt>
      <trkpt lat="30.659658" lon="104.200806">
        <time>2025-08-24T06:44:28Z</time>
      </trkpt>
      <trkpt lat="30.659658" lon="104.200775">
        <time>2025-08-24T06:44:29Z</time>
      </trkpt>
      <trkpt lat="30.65966" lon="104.20074">
        <time>2025-08-24T06:44:30Z</time>
      </trkpt>
      <trkpt lat="30.659664" lon="104.20071">
        <time>2025-08-24T06:44:31Z</time>
      </trkpt>
      <trkpt lat="30.659662" lon="104.200676">
        <time>2025-08-24T06:44:32Z</time>
      </trkpt>
      <trkpt lat="30.659657" lon="104.200645">
        <time>2025-08-24T06:44:33Z</time>
      </trkpt>
      <trkpt lat="30.65965" lon="104.20062">
        <time>2025-08-24T06:44:34Z</time>
      </trkpt>
      <trkpt lat="30.659649" lon="104.2006">
        <time>2025-08-24T06:44:35Z</time>
      </trkpt>
      <trkpt lat="30.659643" lon="104.20057">
        <time>2025-08-24T06:44:36Z</time>
      </trkpt>
      <trkpt lat="30.65964" lon="104.20055">
        <time>2025-08-24T06:44:37Z</time>
      </trkpt>
      <trkpt lat="30.65964" lon="104.200516">
        <time>2025-08-24T06:44:38Z</time>
      </trkpt>
      <trkpt lat="30.659637" lon="104.20049">
        <time>2025-08-24T06:44:39Z</time>
      </trkpt>
      <trkpt lat="30.659636" lon="104.20046">
        <time>2025-08-24T06:44:40Z</time>
      </trkpt>
      <trkpt lat="30.659641" lon="104.20044">
        <time>2025-08-24T06:44:41Z</time>
      </trkpt>
      <trkpt lat="30.659647" lon="104.20042">
        <time>2025-08-24T06:44:42Z</time>
      </trkpt>
      <trkpt lat="30.659643" lon="104.20039">
        <time>2025-08-24T06:44:43Z</time>
      </trkpt>
      <trkpt lat="30.659643" lon="104.20037">
        <time>2025-08-24T06:44:44Z</time>
      </trkpt>
      <trkpt lat="30.659643" lon="104.20035">
        <time>2025-08-24T06:44:45Z</time>
      </trkpt>
      <trkpt lat="30.659645" lon="104.200325">
        <time>2025-08-24T06:44:46Z</time>
      </trkpt>
      <trkpt lat="30.65965" lon="104.2003">
        <time>2025-08-24T06:44:47Z</time>
      </trkpt>
      <trkpt lat="30.659653" lon="104.20028">
        <time>2025-08-24T06:44:48Z</time>
      </trkpt>
      <trkpt lat="30.659658" lon="104.200264">
        <time>2025-08-24T06:44:49Z</time>
      </trkpt>
      <trkpt lat="30.659668" lon="104.20024">
        <time>2025-08-24T06:44:50Z</time>
      </trkpt>
      <trkpt lat="30.659678" lon="104.20022">
        <time>2025-08-24T06:44:51Z</time>
      </trkpt>
      <trkpt lat="30.659683" lon="104.2002">
        <time>2025-08-24T06:44:52Z</time>
      </trkpt>
      <trkpt lat="30.659689" lon="104.20018">
        <time>2025-08-24T06:44:53Z</time>
      </trkpt>
      <trkpt lat="30.659695" lon="104.200165">
        <time>2025-08-24T06:44:54Z</time>
      </trkpt>
      <trkpt lat="30.659702" lon="104.20015">
        <time>2025-08-24T06:44:55Z</time>
      </trkpt>
      <trkpt lat="30.659708" lon="104.200134">
        <time>2025-08-24T06:44:56Z</time>
      </trkpt>
      <trkpt lat="30.659714" lon="104.20012">
        <time>2025-08-24T06:44:57Z</time>
      </trkpt>
      <trkpt lat="30.659716" lon="104.2001">
        <time>2025-08-24T06:44:58Z</time>
      </trkpt>
      <trkpt lat="30.659716" lon="104.20008">
        <time>2025-08-24T06:44:59Z</time>
      </trkpt>
      <trkpt lat="30.659714" lon="104.20006">
        <time>2025-08-24T06:45:00Z</time>
      </trkpt>
      <trkpt lat="30.659712" lon="104.20004">
        <time>2025-08-24T06:45:01Z</time>
      </trkpt>
      <trkpt lat="30.65971" lon="104.20002">
        <time>2025-08-24T06:45:02Z</time>
      </trkpt>
      <trkpt lat="30.65971" lon="104.2">
        <time>2025-08-24T06:45:03Z</time>
      </trkpt>
      <trkpt lat="30.65971" lon="104.199974">
        <time>2025-08-24T06:45:04Z</time>
      </trkpt>
      <trkpt lat="30.659706" lon="104.19995">
        <time>2025-08-24T06:45:05Z</time>
      </trkpt>
      <trkpt lat="30.6597" lon="104.19993">
        <time>2025-08-24T06:45:06Z</time>
      </trkpt>
      <trkpt lat="30.659706" lon="104.1999">
        <time>2025-08-24T06:45:07Z</time>
      </trkpt>
      <trkpt lat="30.659718" lon="104.199875">
        <time>2025-08-24T06:45:08Z</time>
      </trkpt>
      <trkpt lat="30.659729" lon="104.19985">
        <time>2025-08-24T06:45:09Z</time>
      </trkpt>
      <trkpt lat="30.659742" lon="104.19983">
        <time>2025-08-24T06:45:10Z</time>
      </trkpt>
      <trkpt lat="30.65976" lon="104.199814">
        <time>2025-08-24T06:45:11Z</time>
      </trkpt>
      <trkpt lat="30.659782" lon="104.1998">
        <time>2025-08-24T06:45:12Z</time>
      </trkpt>
      <trkpt lat="30.659811" lon="104.19979">
        <time>2025-08-24T06:45:13Z</time>
      </trkpt>
      <trkpt lat="30.659836" lon="104.19979">
        <time>2025-08-24T06:45:14Z</time>
      </trkpt>
      <trkpt lat="30.659857" lon="104.1998">
        <time>2025-08-24T06:45:15Z</time>
      </trkpt>
      <trkpt lat="30.659876" lon="104.1998">
        <time>2025-08-24T06:45:16Z</time>
      </trkpt>
      <trkpt lat="30.659893" lon="104.1998">
        <time>2025-08-24T06:45:17Z</time>
      </trkpt>
      <trkpt lat="30.659908" lon="104.19981">
        <time>2025-08-24T06:45:18Z</time>
      </trkpt>
      <trkpt lat="30.659918" lon="104.19981">
        <time>2025-08-24T06:45:19Z</time>
      </trkpt>
      <trkpt lat="30.659925" lon="104.19981">
        <time>2025-08-24T06:45:20Z</time>
      </trkpt>
      <trkpt lat="30.659931" lon="104.19981">
        <time>2025-08-24T06:45:21Z</time>
      </trkpt>
      <trkpt lat="30.65993" lon="104.1998">
        <time>2025-08-24T06:45:22Z</time>
      </trkpt>
      <trkpt lat="30.65993" lon="104.1998">
        <time>2025-08-24T06:45:23Z</time>
      </trkpt>
      <trkpt lat="30.65993" lon="104.1998">
        <time>2025-08-24T06:45:24Z</time>
      </trkpt>
      <trkpt lat="30.659927" lon="104.1998">
        <time>2025-08-24T06:45:25Z</time>
      </trkpt>
      <trkpt lat="30.659916" lon="104.19979">
        <time>2025-08-24T06:45:26Z</time>
      </trkpt>
      <trkpt lat="30.6599" lon="104.19979">
        <time>2025-08-24T06:45:27Z</time>
      </trkpt>
      <trkpt lat="30.659887" lon="104.19979">
        <time>2025-08-24T06:45:28Z</time>
      </trkpt>
      <trkpt lat="30.659874" lon="104.19979">
        <time>2025-08-24T06:45:29Z</time>
      </trkpt>
      <trkpt lat="30.659859" lon="104.19978">
        <time>2025-08-24T06:45:30Z</time>
      </trkpt>
      <trkpt lat="30.659845" lon="104.19979">
        <time>2025-08-24T06:45:31Z</time>
      </trkpt>
      <trkpt lat="30.65983" lon="104.19979">
        <time>2025-08-24T06:45:32Z</time>
      </trkpt>
      <trkpt lat="30.659815" lon="104.19979">
        <time>2025-08-24T06:45:33Z</time>
      </trkpt>
      <trkpt lat="30.659798" lon="104.1998">
        <time>2025-08-24T06:45:34Z</time>
      </trkpt>
      <trkpt lat="30.659782" lon="104.19981">
        <time>2025-08-24T06:45:35Z</time>
      </trkpt>
      <trkpt lat="30.659771" lon="104.19982">
        <time>2025-08-24T06:45:36Z</time>
      </trkpt>
      <trkpt lat="30.659761" lon="104.19983">
        <time>2025-08-24T06:45:37Z</time>
      </trkpt>
      <trkpt lat="30.659748" lon="104.199844">
        <time>2025-08-24T06:45:38Z</time>
      </trkpt>
      <trkpt lat="30.659737" lon="104.19986">
        <time>2025-08-24T06:45:39Z</time>
      </trkpt>
      <trkpt lat="30.659725" lon="104.19987">
        <time>2025-08-24T06:45:40Z</time>
      </trkpt>
      <trkpt lat="30.659714" lon="104.19988">
        <time>2025-08-24T06:45:41Z</time>
      </trkpt>
      <trkpt lat="30.659704" lon="104.19989">
        <time>2025-08-24T06:45:42Z</time>
      </trkpt>
      <trkpt lat="30.659697" lon="104.199905">
        <time>2025-08-24T06:45:43Z</time>
      </trkpt>
      <trkpt lat="30.659693" lon="104.19991">
        <time>2025-08-24T06:45:44Z</time>
      </trkpt>
      <trkpt lat="30.65969" lon="104.19993">
        <time>2025-08-24T06:45:45Z</time>
      </trkpt>
      <trkpt lat="30.65969" lon="104.19994">
        <time>2025-08-24T06:45:46Z</time>
      </trkpt>
      <trkpt lat="30.65969" lon="104.19995">
        <time>2025-08-24T06:45:47Z</time>
      </trkpt>
      <trkpt lat="30.65969" lon="104.19997">
        <time>2025-08-24T06:45:48Z</time>
      </trkpt>
      <trkpt lat="30.659693" lon="104.19998">
        <time>2025-08-24T06:45:49Z</time>
      </trkpt>
      <trkpt lat="30.65969" lon="104.19999">
        <time>2025-08-24T06:45:50Z</time>
      </trkpt>
      <trkpt lat="30.65969" lon="104.2">
        <time>2025-08-24T06:45:51Z</time>
      </trkpt>
      <trkpt lat="30.659695" lon="104.200005">
        <time>2025-08-24T06:45:52Z</time>
      </trkpt>
      <trkpt lat="30.659695" lon="104.20002">
        <time>2025-08-24T06:45:53Z</time>
      </trkpt>
      <trkpt lat="30.659698" lon="104.20002">
        <time>2025-08-24T06:45:54Z</time>
      </trkpt>
      <trkpt lat="30.659714" lon="104.20002">
        <time>2025-08-24T06:45:55Z</time>
      </trkpt>
      <trkpt lat="30.659723" lon="104.20001">
        <time>2025-08-24T06:45:56Z</time>
      </trkpt>
      <trkpt lat="30.659725" lon="104.200005">
        <time>2025-08-24T06:45:57Z</time>
      </trkpt>
      <trkpt lat="30.659727" lon="104.200005">
        <time>2025-08-24T06:45:58Z</time>
      </trkpt>
      <trkpt lat="30.659737" lon="104.20001">
        <time>2025-08-24T06:45:59Z</time>
      </trkpt>
      <trkpt lat="30.659752" lon="104.200005">
        <time>2025-08-24T06:46:00Z</time>
      </trkpt>
      <trkpt lat="30.659765" lon="104.200005">
        <time>2025-08-24T06:46:01Z</time>
      </trkpt>
      <trkpt lat="30.659775" lon="104.200005">
        <time>2025-08-24T06:46:02Z</time>
      </trkpt>
      <trkpt lat="30.65978" lon="104.19999">
        <time>2025-08-24T06:46:03Z</time>
      </trkpt>
      <trkpt lat="30.659784" lon="104.19998">
        <time>2025-08-24T06:46:04Z</time>
      </trkpt>
      <trkpt lat="30.659805" lon="104.2">
        <time>2025-08-24T06:46:05Z</time>
      </trkpt>
      <trkpt lat="30.65981" lon="104.200005">
        <time>2025-08-24T06:46:06Z</time>
      </trkpt>
      <trkpt lat="30.659796" lon="104.200005">
        <time>2025-08-24T06:46:07Z</time>
      </trkpt>
      <trkpt lat="30.65978" lon="104.20001">
        <time>2025-08-24T06:46:08Z</time>
      </trkpt>
      <trkpt lat="30.65977" lon="104.20002">
        <time>2025-08-24T06:46:09Z</time>
      </trkpt>
      <trkpt lat="30.659761" lon="104.20002">
        <time>2025-08-24T06:46:10Z</time>
      </trkpt>
      <trkpt lat="30.659748" lon="104.20003">
        <time>2025-08-24T06:46:11Z</time>
      </trkpt>
      <trkpt lat="30.659737" lon="104.200035">
        <time>2025-08-24T06:46:12Z</time>
      </trkpt>
      <trkpt lat="30.659725" lon="104.20004">
        <time>2025-08-24T06:46:13Z</time>
      </trkpt>
      <trkpt lat="30.659714" lon="104.20006">
        <time>2025-08-24T06:46:14Z</time>
      </trkpt>
      <trkpt lat="30.659706" lon="104.200066">
        <time>2025-08-24T06:46:15Z</time>
      </trkpt>
      <trkpt lat="30.6597" lon="104.20008">
        <time>2025-08-24T06:46:16Z</time>
      </trkpt>
      <trkpt lat="30.659695" lon="104.20009">
        <time>2025-08-24T06:46:17Z</time>
      </trkpt>
      <trkpt lat="30.659685" lon="104.200096">
        <time>2025-08-24T06:46:18Z</time>
      </trkpt>
      <trkpt lat="30.65967" lon="104.2001">
        <time>2025-08-24T06:46:19Z</time>
      </trkpt>
      <trkpt lat="30.659649" lon="104.200096">
        <time>2025-08-24T06:46:20Z</time>
      </trkpt>
      <trkpt lat="30.659637" lon="104.20008">
        <time>2025-08-24T06:46:21Z</time>
      </trkpt>
      <trkpt lat="30.659634" lon="104.20006">
        <time>2025-08-24T06:46:22Z</time>
      </trkpt>
      <trkpt lat="30.659645" lon="104.20003">
        <time>2025-08-24T06:46:23Z</time>
      </trkpt>
      <trkpt lat="30.659653" lon="104.2">
        <time>2025-08-24T06:46:24Z</time>
      </trkpt>
      <trkpt lat="30.659658" lon="104.199974">
        <time>2025-08-24T06:46:25Z</time>
      </trkpt>
      <trkpt lat="30.65966" lon="104.19996">
        <time>2025-08-24T06:46:26Z</time>
      </trkpt>
      <trkpt lat="30.659658" lon="104.19994">
        <time>2025-08-24T06:46:27Z</time>
      </trkpt>
      <trkpt lat="30.659653" lon="104.19993">
        <time>2025-08-24T06:46:28Z</time>
      </trkpt>
      <trkpt lat="30.659641" lon="104.19992">
        <time>2025-08-24T06:46:29Z</time>
      </trkpt>
      <trkpt lat="30.659628" lon="104.19992">
        <time>2025-08-24T06:46:30Z</time>
      </trkpt>
      <trkpt lat="30.659616" lon="104.19991">
        <time>2025-08-24T06:46:31Z</time>
      </trkpt>
      <trkpt lat="30.659605" lon="104.199905">
        <time>2025-08-24T06:46:32Z</time>
      </trkpt>
      <trkpt lat="30.659594" lon="104.199905">
        <time>2025-08-24T06:46:33Z</time>
      </trkpt>
      <trkpt lat="30.65958" lon="104.199905">
        <time>2025-08-24T06:46:34Z</time>
      </trkpt>
      <trkpt lat="30.659569" lon="104.19991">
        <time>2025-08-24T06:46:35Z</time>
      </trkpt>
      <trkpt lat="30.659557" lon="104.19991">
        <time>2025-08-24T06:46:36Z</time>
      </trkpt>
      <trkpt lat="30.659546" lon="104.199905">
        <time>2025-08-24T06:46:37Z</time>
      </trkpt>
      <trkpt lat="30.659534" lon="104.1999">
        <time>2025-08-24T06:46:38Z</time>
      </trkpt>
      <trkpt lat="30.659525" lon="104.19989">
        <time>2025-08-24T06:46:39Z</time>
      </trkpt>
      <trkpt lat="30.659512" lon="104.199875">
        <time>2025-08-24T06:46:40Z</time>
      </trkpt>
      <trkpt lat="30.659502" lon="104.19987">
        <time>2025-08-24T06:46:41Z</time>
      </trkpt>
      <trkpt lat="30.659492" lon="104.19986">
        <time>2025-08-24T06:46:42Z</time>
      </trkpt>
      <trkpt lat="30.659481" lon="104.19985">
        <time>2025-08-24T06:46:43Z</time>
      </trkpt>
      <trkpt lat="30.659468" lon="104.199844">
        <time>2025-08-24T06:46:44Z</time>
      </trkpt>
      <trkpt lat="30.659454" lon="104.19984">
        <time>2025-08-24T06:46:45Z</time>
      </trkpt>
      <trkpt lat="30.659445" lon="104.19982">
        <time>2025-08-24T06:46:46Z</time>
      </trkpt>
      <trkpt lat="30.65944" lon="104.199814">
        <time>2025-08-24T06:46:47Z</time>
      </trkpt>
      <trkpt lat="30.659433" lon="104.1998">
        <time>2025-08-24T06:46:48Z</time>
      </trkpt>
      <trkpt lat="30.65943" lon="104.19979">
        <time>2025-08-24T06:46:49Z</time>
      </trkpt>
      <trkpt lat="30.659422" lon="104.199776">
        <time>2025-08-24T06:46:50Z</time>
      </trkpt>
      <trkpt lat="30.659412" lon="104.199776">
        <time>2025-08-24T06:46:51Z</time>
      </trkpt>
      <trkpt lat="30.659405" lon="104.199776">
        <time>2025-08-24T06:46:52Z</time>
      </trkpt>
      <trkpt lat="30.659399" lon="104.1998">
        <time>2025-08-24T06:46:53Z</time>
      </trkpt>
      <trkpt lat="30.659399" lon="104.19981">
        <time>2025-08-24T06:46:54Z</time>
      </trkpt>
      <trkpt lat="30.659409" lon="104.19983">
        <time>2025-08-24T06:46:55Z</time>
      </trkpt>
      <trkpt lat="30.6594" lon="104.199814">
        <time>2025-08-24T06:46:56Z</time>
      </trkpt>
      <trkpt lat="30.659399" lon="104.19981">
        <time>2025-08-24T06:46:57Z</time>
      </trkpt>
      <trkpt lat="30.659399" lon="104.19981">
        <time>2025-08-24T06:46:58Z</time>
      </trkpt>
      <trkpt lat="30.659399" lon="104.19981">
        <time>2025-08-24T06:46:59Z</time>
      </trkpt>
      <trkpt lat="30.659399" lon="104.19981">
        <time>2025-08-24T06:47:00Z</time>
      </trkpt>
      <trkpt lat="30.659399" lon="104.19981">
        <time>2025-08-24T06:47:01Z</time>
      </trkpt>
      <trkpt lat="30.659399" lon="104.19981">
        <time>2025-08-24T06:47:02Z</time>
      </trkpt>
      <trkpt lat="30.659399" lon="104.19981">
        <time>2025-08-24T06:47:03Z</time>
      </trkpt>
      <trkpt lat="30.659399" lon="104.19981">
        <time>2025-08-24T06:47:04Z</time>
      </trkpt>
      <trkpt lat="30.659403" lon="104.19981">
        <time>2025-08-24T06:47:05Z</time>
      </trkpt>
      <trkpt lat="30.659405" lon="104.1998">
        <time>2025-08-24T06:47:06Z</time>
      </trkpt>
      <trkpt lat="30.659407" lon="104.19981">
        <time>2025-08-24T06:47:07Z</time>
      </trkpt>
      <trkpt lat="30.659399" lon="104.19981">
        <time>2025-08-24T06:47:08Z</time>
      </trkpt>
      <trkpt lat="30.65939" lon="104.19981">
        <time>2025-08-24T06:47:09Z</time>
      </trkpt>
      <trkpt lat="30.65938" lon="104.1998">
        <time>2025-08-24T06:47:10Z</time>
      </trkpt>
      <trkpt lat="30.659369" lon="104.1998">
        <time>2025-08-24T06:47:11Z</time>
      </trkpt>
      <trkpt lat="30.65936" lon="104.1998">
        <time>2025-08-24T06:47:12Z</time>
      </trkpt>
      <trkpt lat="30.659351" lon="104.19979">
        <time>2025-08-24T06:47:13Z</time>
      </trkpt>
      <trkpt lat="30.659344" lon="104.19979">
        <time>2025-08-24T06:47:14Z</time>
      </trkpt>
      <trkpt lat="30.659336" lon="104.19978">
        <time>2025-08-24T06:47:15Z</time>
      </trkpt>
      <trkpt lat="30.659328" lon="104.199776">
        <time>2025-08-24T06:47:16Z</time>
      </trkpt>
      <trkpt lat="30.659328" lon="104.199776">
        <time>2025-08-24T06:47:17Z</time>
      </trkpt>
      <trkpt lat="30.659323" lon="104.199776">
        <time>2025-08-24T06:47:18Z</time>
      </trkpt>
      <trkpt lat="30.659323" lon="104.199776">
        <time>2025-08-24T06:47:19Z</time>
      </trkpt>
      <trkpt lat="30.659323" lon="104.199776">
        <time>2025-08-24T06:47:20Z</time>
      </trkpt>
      <trkpt lat="30.659323" lon="104.199776">
        <time>2025-08-24T06:47:21Z</time>
      </trkpt>
      <trkpt lat="30.659323" lon="104.199776">
        <time>2025-08-24T06:47:22Z</time>
      </trkpt>
      <trkpt lat="30.659332" lon="104.199776">
        <time>2025-08-24T06:47:23Z</time>
      </trkpt>
      <trkpt lat="30.659344" lon="104.199776">
        <time>2025-08-24T06:47:24Z</time>
      </trkpt>
      <trkpt lat="30.659348" lon="104.199776">
        <time>2025-08-24T06:47:25Z</time>
      </trkpt>
      <trkpt lat="30.65935" lon="104.199776">
        <time>2025-08-24T06:47:26Z</time>
      </trkpt>
      <trkpt lat="30.659351" lon="104.199776">
        <time>2025-08-24T06:47:27Z</time>
      </trkpt>
      <trkpt lat="30.659351" lon="104.199776">
        <time>2025-08-24T06:47:28Z</time>
      </trkpt>
      <trkpt lat="30.659353" lon="104.19978">
        <time>2025-08-24T06:47:29Z</time>
      </trkpt>
      <trkpt lat="30.659363" lon="104.19978">
        <time>2025-08-24T06:47:30Z</time>
      </trkpt>
      <trkpt lat="30.659376" lon="104.19978">
        <time>2025-08-24T06:47:31Z</time>
      </trkpt>
      <trkpt lat="30.659388" lon="104.19979">
        <time>2025-08-24T06:47:32Z</time>
      </trkpt>
      <trkpt lat="30.6594" lon="104.19979">
        <time>2025-08-24T06:47:33Z</time>
      </trkpt>
      <trkpt lat="30.659412" lon="104.1998">
        <time>2025-08-24T06:47:34Z</time>
      </trkpt>
      <trkpt lat="30.659422" lon="104.19981">
        <time>2025-08-24T06:47:35Z</time>
      </trkpt>
      <trkpt lat="30.659431" lon="104.199814">
        <time>2025-08-24T06:47:36Z</time>
      </trkpt>
      <trkpt lat="30.65944" lon="104.19982">
        <time>2025-08-24T06:47:37Z</time>
      </trkpt>
      <trkpt lat="30.659449" lon="104.19983">
        <time>2025-08-24T06:47:38Z</time>
      </trkpt>
      <trkpt lat="30.659456" lon="104.19984">
        <time>2025-08-24T06:47:39Z</time>
      </trkpt>
      <trkpt lat="30.659464" lon="104.199844">
        <time>2025-08-24T06:47:40Z</time>
      </trkpt>
      <trkpt lat="30.659473" lon="104.199844">
        <time>2025-08-24T06:47:41Z</time>
      </trkpt>
      <trkpt lat="30.659483" lon="104.19985">
        <time>2025-08-24T06:47:42Z</time>
      </trkpt>
      <trkpt lat="30.659492" lon="104.19985">
        <time>2025-08-24T06:47:43Z</time>
      </trkpt>
      <trkpt lat="30.6595" lon="104.19986">
        <time>2025-08-24T06:47:44Z</time>
      </trkpt>
      <trkpt lat="30.659512" lon="104.19984">
        <time>2025-08-24T06:47:45Z</time>
      </trkpt>
      <trkpt lat="30.659523" lon="104.199844">
        <time>2025-08-24T06:47:46Z</time>
      </trkpt>
      <trkpt lat="30.659565" lon="104.199875">
        <time>2025-08-24T06:47:47Z</time>
      </trkpt>
      <trkpt lat="30.659576" lon="104.19988">
        <time>2025-08-24T06:47:48Z</time>
      </trkpt>
      <trkpt lat="30.659586" lon="104.19988">
        <time>2025-08-24T06:47:49Z</time>
      </trkpt>
      <trkpt lat="30.65959" lon="104.19989">
        <time>2025-08-24T06:47:50Z</time>
      </trkpt>
      <trkpt lat="30.659595" lon="104.19989">
        <time>2025-08-24T06:47:51Z</time>
      </trkpt>
      <trkpt lat="30.659605" lon="104.19989">
        <time>2025-08-24T06:47:52Z</time>
      </trkpt>
      <trkpt lat="30.659615" lon="104.1999">
        <time>2025-08-24T06:47:53Z</time>
      </trkpt>
      <trkpt lat="30.659624" lon="104.1999">
        <time>2025-08-24T06:47:54Z</time>
      </trkpt>
      <trkpt lat="30.659636" lon="104.1999">
        <time>2025-08-24T06:47:55Z</time>
      </trkpt>
      <trkpt lat="30.659649" lon="104.199905">
        <time>2025-08-24T06:47:56Z</time>
      </trkpt>
      <trkpt lat="30.65966" lon="104.199905">
        <time>2025-08-24T06:47:57Z</time>
      </trkpt>
      <trkpt lat="30.659672" lon="104.19991">
        <time>2025-08-24T06:47:58Z</time>
      </trkpt>
      <trkpt lat="30.659681" lon="104.19992">
        <time>2025-08-24T06:47:59Z</time>
      </trkpt>
      <trkpt lat="30.65969" lon="104.19993">
        <time>2025-08-24T06:48:00Z</time>
      </trkpt>
      <trkpt lat="30.659697" lon="104.199936">
        <time>2025-08-24T06:48:01Z</time>
      </trkpt>
      <trkpt lat="30.6597" lon="104.19995">
        <time>2025-08-24T06:48:02Z</time>
      </trkpt>
      <trkpt lat="30.6597" lon="104.19997">
        <time>2025-08-24T06:48:03Z</time>
      </trkpt>
      <trkpt lat="30.659697" lon="104.19998">
        <time>2025-08-24T06:48:04Z</time>
      </trkpt>
      <trkpt lat="30.659695" lon="104.2">
        <time>2025-08-24T06:48:05Z</time>
      </trkpt>
      <trkpt lat="30.659693" lon="104.20001">
        <time>2025-08-24T06:48:06Z</time>
      </trkpt>
      <trkpt lat="30.659693" lon="104.20003">
        <time>2025-08-24T06:48:07Z</time>
      </trkpt>
      <trkpt lat="30.65969" lon="104.20004">
        <time>2025-08-24T06:48:08Z</time>
      </trkpt>
      <trkpt lat="30.659687" lon="104.20006">
        <time>2025-08-24T06:48:09Z</time>
      </trkpt>
      <trkpt lat="30.659687" lon="104.20007">
        <time>2025-08-24T06:48:10Z</time>
      </trkpt>
      <trkpt lat="30.659687" lon="104.200096">
        <time>2025-08-24T06:48:11Z</time>
      </trkpt>
      <trkpt lat="30.659685" lon="104.20011">
        <time>2025-08-24T06:48:12Z</time>
      </trkpt>
      <trkpt lat="30.659685" lon="104.20013">
        <time>2025-08-24T06:48:13Z</time>
      </trkpt>
      <trkpt lat="30.659685" lon="104.20014">
        <time>2025-08-24T06:48:14Z</time>
      </trkpt>
      <trkpt lat="30.659681" lon="104.20016">
        <time>2025-08-24T06:48:15Z</time>
      </trkpt>
      <trkpt lat="30.659678" lon="104.20017">
        <time>2025-08-24T06:48:16Z</time>
      </trkpt>
      <trkpt lat="30.659676" lon="104.20019">
        <time>2025-08-24T06:48:17Z</time>
      </trkpt>
      <trkpt lat="30.659676" lon="104.2002">
        <time>2025-08-24T06:48:18Z</time>
      </trkpt>
      <trkpt lat="30.659685" lon="104.20022">
        <time>2025-08-24T06:48:19Z</time>
      </trkpt>
      <trkpt lat="30.659695" lon="104.200226">
        <time>2025-08-24T06:48:20Z</time>
      </trkpt>
      <trkpt lat="30.659704" lon="104.20024">
        <time>2025-08-24T06:48:21Z</time>
      </trkpt>
      <trkpt lat="30.659714" lon="104.20025">
        <time>2025-08-24T06:48:22Z</time>
      </trkpt>
      <trkpt lat="30.659723" lon="104.20026">
        <time>2025-08-24T06:48:23Z</time>
      </trkpt>
      <trkpt lat="30.659725" lon="104.20026">
        <time>2025-08-24T06:48:24Z</time>
      </trkpt>
      <trkpt lat="30.659723" lon="104.20026">
        <time>2025-08-24T06:48:25Z</time>
      </trkpt>
      <trkpt lat="30.659723" lon="104.20026">
        <time>2025-08-24T06:48:26Z</time>
      </trkpt>
      <trkpt lat="30.659723" lon="104.20026">
        <time>2025-08-24T06:48:27Z</time>
      </trkpt>
      <trkpt lat="30.65972" lon="104.20026">
        <time>2025-08-24T06:48:28Z</time>
      </trkpt>
      <trkpt lat="30.659718" lon="104.20026">
        <time>2025-08-24T06:48:29Z</time>
      </trkpt>
      <trkpt lat="30.659737" lon="104.20027">
        <time>2025-08-24T06:48:30Z</time>
      </trkpt>
      <trkpt lat="30.659754" lon="104.20028">
        <time>2025-08-24T06:48:31Z</time>
      </trkpt>
      <trkpt lat="30.659761" lon="104.20028">
        <time>2025-08-24T06:48:32Z</time>
      </trkpt>
      <trkpt lat="30.659752" lon="104.20029">
        <time>2025-08-24T06:48:33Z</time>
      </trkpt>
      <trkpt lat="30.659742" lon="104.200294">
        <time>2025-08-24T06:48:34Z</time>
      </trkpt>
      <trkpt lat="30.659737" lon="104.2003">
        <time>2025-08-24T06:48:35Z</time>
      </trkpt>
      <trkpt lat="30.659746" lon="104.20032">
        <time>2025-08-24T06:48:36Z</time>
      </trkpt>
      <trkpt lat="30.65974" lon="104.200325">
        <time>2025-08-24T06:48:37Z</time>
      </trkpt>
      <trkpt lat="30.659735" lon="104.20034">
        <time>2025-08-24T06:48:38Z</time>
      </trkpt>
      <trkpt lat="30.65973" lon="104.200356">
        <time>2025-08-24T06:48:39Z</time>
      </trkpt>
      <trkpt lat="30.659727" lon="104.20037">
        <time>2025-08-24T06:48:40Z</time>
      </trkpt>
      <trkpt lat="30.659721" lon="104.200386">
        <time>2025-08-24T06:48:41Z</time>
      </trkpt>
      <trkpt lat="30.659716" lon="104.20039">
        <time>2025-08-24T06:48:42Z</time>
      </trkpt>
      <trkpt lat="30.659712" lon="104.20041">
        <time>2025-08-24T06:48:43Z</time>
      </trkpt>
      <trkpt lat="30.659706" lon="104.200424">
        <time>2025-08-24T06:48:44Z</time>
      </trkpt>
      <trkpt lat="30.659702" lon="104.20044">
        <time>2025-08-24T06:48:45Z</time>
      </trkpt>
      <trkpt lat="30.659697" lon="104.200455">
        <time>2025-08-24T06:48:46Z</time>
      </trkpt>
      <trkpt lat="30.65969" lon="104.20047">
        <time>2025-08-24T06:48:47Z</time>
      </trkpt>
      <trkpt lat="30.659687" lon="104.200485">
        <time>2025-08-24T06:48:48Z</time>
      </trkpt>
      <trkpt lat="30.659683" lon="104.2005">
        <time>2025-08-24T06:48:49Z</time>
      </trkpt>
      <trkpt lat="30.65968" lon="104.200516">
        <time>2025-08-24T06:48:50Z</time>
      </trkpt>
      <trkpt lat="30.659674" lon="104.20053">
        <time>2025-08-24T06:48:51Z</time>
      </trkpt>
      <trkpt lat="30.659668" lon="104.20055">
        <time>2025-08-24T06:48:52Z</time>
      </trkpt>
      <trkpt lat="30.659662" lon="104.20056">
        <time>2025-08-24T06:48:53Z</time>
      </trkpt>
      <trkpt lat="30.659658" lon="104.20058">
        <time>2025-08-24T06:48:54Z</time>
      </trkpt>
      <trkpt lat="30.659655" lon="104.20059">
        <time>2025-08-24T06:48:55Z</time>
      </trkpt>
      <trkpt lat="30.65965" lon="104.20061">
        <time>2025-08-24T06:48:56Z</time>
      </trkpt>
      <trkpt lat="30.659649" lon="104.20062">
        <time>2025-08-24T06:48:57Z</time>
      </trkpt>
      <trkpt lat="30.659649" lon="104.20064">
        <time>2025-08-24T06:48:58Z</time>
      </trkpt>
      <trkpt lat="30.659645" lon="104.20065">
        <time>2025-08-24T06:48:59Z</time>
      </trkpt>
      <trkpt lat="30.659641" lon="104.20067">
        <time>2025-08-24T06:49:00Z</time>
      </trkpt>
      <trkpt lat="30.659636" lon="104.20068">
        <time>2025-08-24T06:49:01Z</time>
      </trkpt>
      <trkpt lat="30.659634" lon="104.20069">
        <time>2025-08-24T06:49:02Z</time>
      </trkpt>
      <trkpt lat="30.65963" lon="104.20071">
        <time>2025-08-24T06:49:03Z</time>
      </trkpt>
      <trkpt lat="30.659626" lon="104.20072">
        <time>2025-08-24T06:49:04Z</time>
      </trkpt>
      <trkpt lat="30.659622" lon="104.20074">
        <time>2025-08-24T06:49:05Z</time>
      </trkpt>
      <trkpt lat="30.659618" lon="104.20075">
        <time>2025-08-24T06:49:06Z</time>
      </trkpt>
      <trkpt lat="30.659616" lon="104.20077">
        <time>2025-08-24T06:49:07Z</time>
      </trkpt>
      <trkpt lat="30.659615" lon="104.20078">
        <time>2025-08-24T06:49:08Z</time>
      </trkpt>
      <trkpt lat="30.659613" lon="104.2008">
        <time>2025-08-24T06:49:09Z</time>
      </trkpt>
      <trkpt lat="30.65961" lon="104.20081">
        <time>2025-08-24T06:49:10Z</time>
      </trkpt>
      <trkpt lat="30.659607" lon="104.20083">
        <time>2025-08-24T06:49:11Z</time>
      </trkpt>
      <trkpt lat="30.659603" lon="104.20084">
        <time>2025-08-24T06:49:12Z</time>
      </trkpt>
      <trkpt lat="30.659601" lon="104.20086">
        <time>2025-08-24T06:49:13Z</time>
      </trkpt>
      <trkpt lat="30.659597" lon="104.200874">
        <time>2025-08-24T06:49:14Z</time>
      </trkpt>
      <trkpt lat="30.659595" lon="104.20089">
        <time>2025-08-24T06:49:15Z</time>
      </trkpt>
      <trkpt lat="30.65959" lon="104.200905">
        <time>2025-08-24T06:49:16Z</time>
      </trkpt>
      <trkpt lat="30.659588" lon="104.20092">
        <time>2025-08-24T06:49:17Z</time>
      </trkpt>
      <trkpt lat="30.659582" lon="104.200935">
        <time>2025-08-24T06:49:18Z</time>
      </trkpt>
      <trkpt lat="30.659576" lon="104.20094">
        <time>2025-08-24T06:49:19Z</time>
      </trkpt>
      <trkpt lat="30.659575" lon="104.20096">
        <time>2025-08-24T06:49:20Z</time>
      </trkpt>
      <trkpt lat="30.659569" lon="104.20097">
        <time>2025-08-24T06:49:21Z</time>
      </trkpt>
      <trkpt lat="30.659567" lon="104.20099">
        <time>2025-08-24T06:49:22Z</time>
      </trkpt>
      <trkpt lat="30.659563" lon="104.201004">
        <time>2025-08-24T06:49:23Z</time>
      </trkpt>
      <trkpt lat="30.65956" lon="104.20102">
        <time>2025-08-24T06:49:24Z</time>
      </trkpt>
      <trkpt lat="30.659555" lon="104.201035">
        <time>2025-08-24T06:49:25Z</time>
      </trkpt>
      <trkpt lat="30.659554" lon="104.20104">
        <time>2025-08-24T06:49:26Z</time>
      </trkpt>
      <trkpt lat="30.659552" lon="104.20106">
        <time>2025-08-24T06:49:27Z</time>
      </trkpt>
      <trkpt lat="30.65955" lon="104.20107">
        <time>2025-08-24T06:49:28Z</time>
      </trkpt>
      <trkpt lat="30.659546" lon="104.20109">
        <time>2025-08-24T06:49:29Z</time>
      </trkpt>
      <trkpt lat="30.659544" lon="104.2011">
        <time>2025-08-24T06:49:30Z</time>
      </trkpt>
      <trkpt lat="30.659542" lon="104.20112">
        <time>2025-08-24T06:49:31Z</time>
      </trkpt>
      <trkpt lat="30.65954" lon="104.201126">
        <time>2025-08-24T06:49:32Z</time>
      </trkpt>
      <trkpt lat="30.65954" lon="104.20114">
        <time>2025-08-24T06:49:33Z</time>
      </trkpt>
      <trkpt lat="30.659538" lon="104.20116">
        <time>2025-08-24T06:49:34Z</time>
      </trkpt>
      <trkpt lat="30.659536" lon="104.20117">
        <time>2025-08-24T06:49:35Z</time>
      </trkpt>
      <trkpt lat="30.659534" lon="104.20119">
        <time>2025-08-24T06:49:36Z</time>
      </trkpt>
      <trkpt lat="30.65953" lon="104.2012">
        <time>2025-08-24T06:49:37Z</time>
      </trkpt>
      <trkpt lat="30.659529" lon="104.20122">
        <time>2025-08-24T06:49:38Z</time>
      </trkpt>
      <trkpt lat="30.659525" lon="104.201225">
        <time>2025-08-24T06:49:39Z</time>
      </trkpt>
      <trkpt lat="30.659521" lon="104.20124">
        <time>2025-08-24T06:49:40Z</time>
      </trkpt>
      <trkpt lat="30.65952" lon="104.201256">
        <time>2025-08-24T06:49:41Z</time>
      </trkpt>
      <trkpt lat="30.659517" lon="104.20127">
        <time>2025-08-24T06:49:42Z</time>
      </trkpt>
      <trkpt lat="30.659515" lon="104.20129">
        <time>2025-08-24T06:49:43Z</time>
      </trkpt>
      <trkpt lat="30.659513" lon="104.2013">
        <time>2025-08-24T06:49:44Z</time>
      </trkpt>
      <trkpt lat="30.659512" lon="104.20132">
        <time>2025-08-24T06:49:45Z</time>
      </trkpt>
      <trkpt lat="30.65951" lon="104.20133">
        <time>2025-08-24T06:49:46Z</time>
      </trkpt>
      <trkpt lat="30.659508" lon="104.20134">
        <time>2025-08-24T06:49:47Z</time>
      </trkpt>
      <trkpt lat="30.659506" lon="104.201355">
        <time>2025-08-24T06:49:48Z</time>
      </trkpt>
      <trkpt lat="30.659504" lon="104.20137">
        <time>2025-08-24T06:49:49Z</time>
      </trkpt>
      <trkpt lat="30.6595" lon="104.201385">
        <time>2025-08-24T06:49:50Z</time>
      </trkpt>
      <trkpt lat="30.659496" lon="104.2014">
        <time>2025-08-24T06:49:51Z</time>
      </trkpt>
      <trkpt lat="30.659492" lon="104.201416">
        <time>2025-08-24T06:49:52Z</time>
      </trkpt>
      <trkpt lat="30.65949" lon="104.20143">
        <time>2025-08-24T06:49:53Z</time>
      </trkpt>
      <trkpt lat="30.659487" lon="104.20145">
        <time>2025-08-24T06:49:54Z</time>
      </trkpt>
      <trkpt lat="30.659485" lon="104.20146">
        <time>2025-08-24T06:49:55Z</time>
      </trkpt>
      <trkpt lat="30.659481" lon="104.20148">
        <time>2025-08-24T06:49:56Z</time>
      </trkpt>
      <trkpt lat="30.65948" lon="104.201485">
        <time>2025-08-24T06:49:57Z</time>
      </trkpt>
      <trkpt lat="30.65948" lon="104.2015">
        <time>2025-08-24T06:49:58Z</time>
      </trkpt>
      <trkpt lat="30.659477" lon="104.201515">
        <time>2025-08-24T06:49:59Z</time>
      </trkpt>
      <trkpt lat="30.659477" lon="104.20153">
        <time>2025-08-24T06:50:00Z</time>
      </trkpt>
      <trkpt lat="30.659475" lon="104.201546">
        <time>2025-08-24T06:50:01Z</time>
      </trkpt>
      <trkpt lat="30.659475" lon="104.20156">
        <time>2025-08-24T06:50:02Z</time>
      </trkpt>
      <trkpt lat="30.659472" lon="104.20158">
        <time>2025-08-24T06:50:03Z</time>
      </trkpt>
      <trkpt lat="30.65947" lon="104.20159">
        <time>2025-08-24T06:50:04Z</time>
      </trkpt>
      <trkpt lat="30.659466" lon="104.2016">
        <time>2025-08-24T06:50:05Z</time>
      </trkpt>
      <trkpt lat="30.659464" lon="104.201614">
        <time>2025-08-24T06:50:06Z</time>
      </trkpt>
      <trkpt lat="30.659462" lon="104.20163">
        <time>2025-08-24T06:50:07Z</time>
      </trkpt>
      <trkpt lat="30.65946" lon="104.201645">
        <time>2025-08-24T06:50:08Z</time>
      </trkpt>
      <trkpt lat="30.659458" lon="104.20165">
        <time>2025-08-24T06:50:09Z</time>
      </trkpt>
      <trkpt lat="30.659458" lon="104.20167">
        <time>2025-08-24T06:50:10Z</time>
      </trkpt>
      <trkpt lat="30.659456" lon="104.20168">
        <time>2025-08-24T06:50:11Z</time>
      </trkpt>
      <trkpt lat="30.659454" lon="104.2017">
        <time>2025-08-24T06:50:12Z</time>
      </trkpt>
      <trkpt lat="30.659452" lon="104.20171">
        <time>2025-08-24T06:50:13Z</time>
      </trkpt>
      <trkpt lat="30.65945" lon="104.20173">
        <time>2025-08-24T06:50:14Z</time>
      </trkpt>
      <trkpt lat="30.659449" lon="104.201744">
        <time>2025-08-24T06:50:15Z</time>
      </trkpt>
      <trkpt lat="30.659449" lon="104.20176">
        <time>2025-08-24T06:50:16Z</time>
      </trkpt>
      <trkpt lat="30.659449" lon="104.201775">
        <time>2025-08-24T06:50:17Z</time>
      </trkpt>
      <trkpt lat="30.659449" lon="104.20179">
        <time>2025-08-24T06:50:18Z</time>
      </trkpt>
      <trkpt lat="30.659449" lon="104.2018">
        <time>2025-08-24T06:50:19Z</time>
      </trkpt>
      <trkpt lat="30.659447" lon="104.20181">
        <time>2025-08-24T06:50:20Z</time>
      </trkpt>
      <trkpt lat="30.659447" lon="104.20183">
        <time>2025-08-24T06:50:21Z</time>
      </trkpt>
      <trkpt lat="30.659445" lon="104.20184">
        <time>2025-08-24T06:50:22Z</time>
      </trkpt>
      <trkpt lat="30.659443" lon="104.20186">
        <time>2025-08-24T06:50:23Z</time>
      </trkpt>
      <trkpt lat="30.659441" lon="104.20187">
        <time>2025-08-24T06:50:24Z</time>
      </trkpt>
      <trkpt lat="30.65944" lon="104.20189">
        <time>2025-08-24T06:50:25Z</time>
      </trkpt>
      <trkpt lat="30.659437" lon="104.20191">
        <time>2025-08-24T06:50:26Z</time>
      </trkpt>
      <trkpt lat="30.659433" lon="104.20193">
        <time>2025-08-24T06:50:27Z</time>
      </trkpt>
      <trkpt lat="30.659433" lon="104.20194">
        <time>2025-08-24T06:50:28Z</time>
      </trkpt>
      <trkpt lat="30.659431" lon="104.20196">
        <time>2025-08-24T06:50:29Z</time>
      </trkpt>
      <trkpt lat="30.659431" lon="104.20197">
        <time>2025-08-24T06:50:30Z</time>
      </trkpt>
      <trkpt lat="30.65943" lon="104.20199">
        <time>2025-08-24T06:50:31Z</time>
      </trkpt>
      <trkpt lat="30.659426" lon="104.202">
        <time>2025-08-24T06:50:32Z</time>
      </trkpt>
      <trkpt lat="30.659422" lon="104.20202">
        <time>2025-08-24T06:50:33Z</time>
      </trkpt>
      <trkpt lat="30.65942" lon="104.202034">
        <time>2025-08-24T06:50:34Z</time>
      </trkpt>
      <trkpt lat="30.659416" lon="104.20204">
        <time>2025-08-24T06:50:35Z</time>
      </trkpt>
      <trkpt lat="30.659418" lon="104.20206">
        <time>2025-08-24T06:50:36Z</time>
      </trkpt>
      <trkpt lat="30.65942" lon="104.20207">
        <time>2025-08-24T06:50:37Z</time>
      </trkpt>
      <trkpt lat="30.659424" lon="104.20209">
        <time>2025-08-24T06:50:38Z</time>
      </trkpt>
      <trkpt lat="30.659428" lon="104.2021">
        <time>2025-08-24T06:50:39Z</time>
      </trkpt>
      <trkpt lat="30.659433" lon="104.20211">
        <time>2025-08-24T06:50:40Z</time>
      </trkpt>
      <trkpt lat="30.659437" lon="104.202126">
        <time>2025-08-24T06:50:41Z</time>
      </trkpt>
      <trkpt lat="30.659445" lon="104.20214">
        <time>2025-08-24T06:50:42Z</time>
      </trkpt>
      <trkpt lat="30.659452" lon="104.202156">
        <time>2025-08-24T06:50:43Z</time>
      </trkpt>
      <trkpt lat="30.659464" lon="104.20216">
        <time>2025-08-24T06:50:44Z</time>
      </trkpt>
      <trkpt lat="30.659475" lon="104.20218">
        <time>2025-08-24T06:50:45Z</time>
      </trkpt>
      <trkpt lat="30.659485" lon="104.20219">
        <time>2025-08-24T06:50:46Z</time>
      </trkpt>
      <trkpt lat="30.659492" lon="104.2022">
        <time>2025-08-24T06:50:47Z</time>
      </trkpt>
      <trkpt lat="30.6595" lon="104.20222">
        <time>2025-08-24T06:50:48Z</time>
      </trkpt>
      <trkpt lat="30.659508" lon="104.202225">
        <time>2025-08-24T06:50:49Z</time>
      </trkpt>
      <trkpt lat="30.659515" lon="104.20223">
        <time>2025-08-24T06:50:50Z</time>
      </trkpt>
      <trkpt lat="30.659523" lon="104.20225">
        <time>2025-08-24T06:50:51Z</time>
      </trkpt>
      <trkpt lat="30.65953" lon="104.202255">
        <time>2025-08-24T06:50:52Z</time>
      </trkpt>
      <trkpt lat="30.659536" lon="104.20227">
        <time>2025-08-24T06:50:53Z</time>
      </trkpt>
      <trkpt lat="30.65954" lon="104.202286">
        <time>2025-08-24T06:50:54Z</time>
      </trkpt>
      <trkpt lat="30.659542" lon="104.2023">
        <time>2025-08-24T06:50:55Z</time>
      </trkpt>
      <trkpt lat="30.659548" lon="104.20231">
        <time>2025-08-24T06:50:56Z</time>
      </trkpt>
      <trkpt lat="30.659554" lon="104.202324">
        <time>2025-08-24T06:50:57Z</time>
      </trkpt>
      <trkpt lat="30.659554" lon="104.20234">
        <time>2025-08-24T06:50:58Z</time>
      </trkpt>
      <trkpt lat="30.659555" lon="104.20235">
        <time>2025-08-24T06:50:59Z</time>
      </trkpt>
      <trkpt lat="30.659555" lon="104.20236">
        <time>2025-08-24T06:51:00Z</time>
      </trkpt>
      <trkpt lat="30.659555" lon="104.20238">
        <time>2025-08-24T06:51:01Z</time>
      </trkpt>
      <trkpt lat="30.659555" lon="104.202385">
        <time>2025-08-24T06:51:02Z</time>
      </trkpt>
      <trkpt lat="30.65956" lon="104.20239">
        <time>2025-08-24T06:51:03Z</time>
      </trkpt>
      <trkpt lat="30.659563" lon="104.20241">
        <time>2025-08-24T06:51:04Z</time>
      </trkpt>
      <trkpt lat="30.659567" lon="104.202415">
        <time>2025-08-24T06:51:05Z</time>
      </trkpt>
      <trkpt lat="30.65957" lon="104.20243">
        <time>2025-08-24T06:51:06Z</time>
      </trkpt>
      <trkpt lat="30.659578" lon="104.20244">
        <time>2025-08-24T06:51:07Z</time>
      </trkpt>
      <trkpt lat="30.659584" lon="104.202446">
        <time>2025-08-24T06:51:08Z</time>
      </trkpt>
      <trkpt lat="30.659594" lon="104.20245">
        <time>2025-08-24T06:51:09Z</time>
      </trkpt>
      <trkpt lat="30.659605" lon="104.20245">
        <time>2025-08-24T06:51:10Z</time>
      </trkpt>
      <trkpt lat="30.659615" lon="104.20245">
        <time>2025-08-24T06:51:11Z</time>
      </trkpt>
      <trkpt lat="30.659626" lon="104.20245">
        <time>2025-08-24T06:51:12Z</time>
      </trkpt>
      <trkpt lat="30.659636" lon="104.202446">
        <time>2025-08-24T06:51:13Z</time>
      </trkpt>
      <trkpt lat="30.659647" lon="104.202446">
        <time>2025-08-24T06:51:14Z</time>
      </trkpt>
      <trkpt lat="30.659657" lon="104.202446">
        <time>2025-08-24T06:51:15Z</time>
      </trkpt>
      <trkpt lat="30.659668" lon="104.202446">
        <time>2025-08-24T06:51:16Z</time>
      </trkpt>
      <trkpt lat="30.659678" lon="104.20244">
        <time>2025-08-24T06:51:17Z</time>
      </trkpt>
      <trkpt lat="30.659687" lon="104.20243">
        <time>2025-08-24T06:51:18Z</time>
      </trkpt>
      <trkpt lat="30.659698" lon="104.20242">
        <time>2025-08-24T06:51:19Z</time>
      </trkpt>
      <trkpt lat="30.65971" lon="104.202415">
        <time>2025-08-24T06:51:20Z</time>
      </trkpt>
      <trkpt lat="30.659723" lon="104.20241">
        <time>2025-08-24T06:51:21Z</time>
      </trkpt>
      <trkpt lat="30.659735" lon="104.2024">
        <time>2025-08-24T06:51:22Z</time>
      </trkpt>
      <trkpt lat="30.659746" lon="104.2024">
        <time>2025-08-24T06:51:23Z</time>
      </trkpt>
      <trkpt lat="30.65976" lon="104.20239">
        <time>2025-08-24T06:51:24Z</time>
      </trkpt>
      <trkpt lat="30.659771" lon="104.202385">
        <time>2025-08-24T06:51:25Z</time>
      </trkpt>
      <trkpt lat="30.659782" lon="104.20238">
        <time>2025-08-24T06:51:26Z</time>
      </trkpt>
      <trkpt lat="30.659794" lon="104.20237">
        <time>2025-08-24T06:51:27Z</time>
      </trkpt>
      <trkpt lat="30.659805" lon="104.20237">
        <time>2025-08-24T06:51:28Z</time>
      </trkpt>
      <trkpt lat="30.659815" lon="104.20236">
        <time>2025-08-24T06:51:29Z</time>
      </trkpt>
      <trkpt lat="30.659826" lon="104.202354">
        <time>2025-08-24T06:51:30Z</time>
      </trkpt>
      <trkpt lat="30.659836" lon="104.202354">
        <time>2025-08-24T06:51:31Z</time>
      </trkpt>
      <trkpt lat="30.659847" lon="104.20235">
        <time>2025-08-24T06:51:32Z</time>
      </trkpt>
      <trkpt lat="30.659857" lon="104.20235">
        <time>2025-08-24T06:51:33Z</time>
      </trkpt>
      <trkpt lat="30.659868" lon="104.20234">
        <time>2025-08-24T06:51:34Z</time>
      </trkpt>
      <trkpt lat="30.659878" lon="104.20233">
        <time>2025-08-24T06:51:35Z</time>
      </trkpt>
      <trkpt lat="30.65989" lon="104.202324">
        <time>2025-08-24T06:51:36Z</time>
      </trkpt>
      <trkpt lat="30.6599" lon="104.202324">
        <time>2025-08-24T06:51:37Z</time>
      </trkpt>
      <trkpt lat="30.659912" lon="104.20232">
        <time>2025-08-24T06:51:38Z</time>
      </trkpt>
      <trkpt lat="30.659924" lon="104.20232">
        <time>2025-08-24T06:51:39Z</time>
      </trkpt>
      <trkpt lat="30.659937" lon="104.20232">
        <time>2025-08-24T06:51:40Z</time>
      </trkpt>
      <trkpt lat="30.659948" lon="104.20231">
        <time>2025-08-24T06:51:41Z</time>
      </trkpt>
      <trkpt lat="30.65996" lon="104.20231">
        <time>2025-08-24T06:51:42Z</time>
      </trkpt>
      <trkpt lat="30.659971" lon="104.2023">
        <time>2025-08-24T06:51:43Z</time>
      </trkpt>
      <trkpt lat="30.659983" lon="104.2023">
        <time>2025-08-24T06:51:44Z</time>
      </trkpt>
      <trkpt lat="30.659994" lon="104.20229">
        <time>2025-08-24T06:51:45Z</time>
      </trkpt>
      <trkpt lat="30.660006" lon="104.202286">
        <time>2025-08-24T06:51:46Z</time>
      </trkpt>
      <trkpt lat="30.660017" lon="104.202286">
        <time>2025-08-24T06:51:47Z</time>
      </trkpt>
      <trkpt lat="30.66003" lon="104.20228">
        <time>2025-08-24T06:51:48Z</time>
      </trkpt>
      <trkpt lat="30.66004" lon="104.20228">
        <time>2025-08-24T06:51:49Z</time>
      </trkpt>
      <trkpt lat="30.660053" lon="104.20227">
        <time>2025-08-24T06:51:50Z</time>
      </trkpt>
      <trkpt lat="30.660065" lon="104.20227">
        <time>2025-08-24T06:51:51Z</time>
      </trkpt>
      <trkpt lat="30.660078" lon="104.20226">
        <time>2025-08-24T06:51:52Z</time>
      </trkpt>
      <trkpt lat="30.66009" lon="104.20226">
        <time>2025-08-24T06:51:53Z</time>
      </trkpt>
      <trkpt lat="30.6601" lon="104.20226">
        <time>2025-08-24T06:51:54Z</time>
      </trkpt>
      <trkpt lat="30.660112" lon="104.20226">
        <time>2025-08-24T06:51:55Z</time>
      </trkpt>
      <trkpt lat="30.660126" lon="104.202255">
        <time>2025-08-24T06:51:56Z</time>
      </trkpt>
      <trkpt lat="30.66014" lon="104.20225">
        <time>2025-08-24T06:51:57Z</time>
      </trkpt>
      <trkpt lat="30.660152" lon="104.20225">
        <time>2025-08-24T06:51:58Z</time>
      </trkpt>
      <trkpt lat="30.660166" lon="104.20224">
        <time>2025-08-24T06:51:59Z</time>
      </trkpt>
      <trkpt lat="30.660177" lon="104.20224">
        <time>2025-08-24T06:52:00Z</time>
      </trkpt>
      <trkpt lat="30.660189" lon="104.20223">
        <time>2025-08-24T06:52:01Z</time>
      </trkpt>
      <trkpt lat="30.660202" lon="104.20223">
        <time>2025-08-24T06:52:02Z</time>
      </trkpt>
      <trkpt lat="30.660213" lon="104.202225">
        <time>2025-08-24T06:52:03Z</time>
      </trkpt>
      <trkpt lat="30.660227" lon="104.202225">
        <time>2025-08-24T06:52:04Z</time>
      </trkpt>
      <trkpt lat="30.660238" lon="104.202225">
        <time>2025-08-24T06:52:05Z</time>
      </trkpt>
      <trkpt lat="30.66025" lon="104.20222">
        <time>2025-08-24T06:52:06Z</time>
      </trkpt>
      <trkpt lat="30.660261" lon="104.20222">
        <time>2025-08-24T06:52:07Z</time>
      </trkpt>
      <trkpt lat="30.660273" lon="104.20221">
        <time>2025-08-24T06:52:08Z</time>
      </trkpt>
      <trkpt lat="30.660286" lon="104.20221">
        <time>2025-08-24T06:52:09Z</time>
      </trkpt>
      <trkpt lat="30.660297" lon="104.2022">
        <time>2025-08-24T06:52:10Z</time>
      </trkpt>
      <trkpt lat="30.660309" lon="104.2022">
        <time>2025-08-24T06:52:11Z</time>
      </trkpt>
      <trkpt lat="30.660318" lon="104.202194">
        <time>2025-08-24T06:52:12Z</time>
      </trkpt>
      <trkpt lat="30.660328" lon="104.202194">
        <time>2025-08-24T06:52:13Z</time>
      </trkpt>
      <trkpt lat="30.660337" lon="104.202194">
        <time>2025-08-24T06:52:14Z</time>
      </trkpt>
      <trkpt lat="30.660349" lon="104.202194">
        <time>2025-08-24T06:52:15Z</time>
      </trkpt>
      <trkpt lat="30.660362" lon="104.202194">
        <time>2025-08-24T06:52:16Z</time>
      </trkpt>
      <trkpt lat="30.660376" lon="104.202194">
        <time>2025-08-24T06:52:17Z</time>
      </trkpt>
      <trkpt lat="30.660389" lon="104.2022">
        <time>2025-08-24T06:52:18Z</time>
      </trkpt>
      <trkpt lat="30.6604" lon="104.2022">
        <time>2025-08-24T06:52:19Z</time>
      </trkpt>
      <trkpt lat="30.660414" lon="104.20221">
        <time>2025-08-24T06:52:20Z</time>
      </trkpt>
      <trkpt lat="30.66043" lon="104.20221">
        <time>2025-08-24T06:52:21Z</time>
      </trkpt>
      <trkpt lat="30.660446" lon="104.20221">
        <time>2025-08-24T06:52:22Z</time>
      </trkpt>
      <trkpt lat="30.660461" lon="104.20221">
        <time>2025-08-24T06:52:23Z</time>
      </trkpt>
      <trkpt lat="30.660475" lon="104.20221">
        <time>2025-08-24T06:52:24Z</time>
      </trkpt>
      <trkpt lat="30.66049" lon="104.2022">
        <time>2025-08-24T06:52:25Z</time>
      </trkpt>
      <trkpt lat="30.660503" lon="104.2022">
        <time>2025-08-24T06:52:26Z</time>
      </trkpt>
      <trkpt lat="30.660517" lon="104.20221">
        <time>2025-08-24T06:52:27Z</time>
      </trkpt>
      <trkpt lat="30.66053" lon="104.20222">
        <time>2025-08-24T06:52:28Z</time>
      </trkpt>
      <trkpt lat="30.660545" lon="104.20223">
        <time>2025-08-24T06:52:29Z</time>
      </trkpt>
      <trkpt lat="30.660557" lon="104.20224">
        <time>2025-08-24T06:52:30Z</time>
      </trkpt>
      <trkpt lat="30.660574" lon="104.20225">
        <time>2025-08-24T06:52:31Z</time>
      </trkpt>
      <trkpt lat="30.660587" lon="104.202255">
        <time>2025-08-24T06:52:32Z</time>
      </trkpt>
      <trkpt lat="30.660603" lon="104.202255">
        <time>2025-08-24T06:52:33Z</time>
      </trkpt>
      <trkpt lat="30.660616" lon="104.202255">
        <time>2025-08-24T06:52:34Z</time>
      </trkpt>
      <trkpt lat="30.660631" lon="104.20225">
        <time>2025-08-24T06:52:35Z</time>
      </trkpt>
      <trkpt lat="30.660648" lon="104.20224">
        <time>2025-08-24T06:52:36Z</time>
      </trkpt>
      <trkpt lat="30.660662" lon="104.20224">
        <time>2025-08-24T06:52:37Z</time>
      </trkpt>
      <trkpt lat="30.660675" lon="104.20223">
        <time>2025-08-24T06:52:38Z</time>
      </trkpt>
      <trkpt lat="30.660688" lon="104.202225">
        <time>2025-08-24T06:52:39Z</time>
      </trkpt>
      <trkpt lat="30.660704" lon="104.202225">
        <time>2025-08-24T06:52:40Z</time>
      </trkpt>
      <trkpt lat="30.660717" lon="104.202225">
        <time>2025-08-24T06:52:41Z</time>
      </trkpt>
      <trkpt lat="30.66073" lon="104.20222">
        <time>2025-08-24T06:52:42Z</time>
      </trkpt>
      <trkpt lat="30.660744" lon="104.20222">
        <time>2025-08-24T06:52:43Z</time>
      </trkpt>
      <trkpt lat="30.660757" lon="104.20222">
        <time>2025-08-24T06:52:44Z</time>
      </trkpt>
      <trkpt lat="30.66077" lon="104.202225">
        <time>2025-08-24T06:52:45Z</time>
      </trkpt>
      <trkpt lat="30.66078" lon="104.20224">
        <time>2025-08-24T06:52:46Z</time>
      </trkpt>
      <trkpt lat="30.660791" lon="104.20225">
        <time>2025-08-24T06:52:47Z</time>
      </trkpt>
      <trkpt lat="30.660807" lon="104.20225">
        <time>2025-08-24T06:52:48Z</time>
      </trkpt>
    </trkseg>
  </trk>
</gpx>