<?xml version="1.0" encoding="UTF-8"?>
<gpx version="1.1" creator="Go GPS Converter">
  <trk>
    <name>GPS Track</name>
    <trkseg>
      <trkpt lat="30.658026" lon="104.103165">
        <time>2026-05-07T00:22:00Z</time>
      </trkpt>
      <trkpt lat="30.657955" lon="104.103165">
        <time>2026-05-07T00:22:01Z</time>
      </trkpt>
      <trkpt lat="30.657925" lon="104.103165">
        <time>2026-05-07T00:22:02Z</time>
      </trkpt>
      <trkpt lat="30.657934" lon="104.10319">
        <time>2026-05-07T00:22:03Z</time>
      </trkpt>
      <trkpt lat="30.65788" lon="104.10323">
        <time>2026-05-07T00:22:04Z</time>
      </trkpt>
      <trkpt lat="30.657888" lon="104.10325">
        <time>2026-05-07T00:22:05Z</time>
      </trkpt>
      <trkpt lat="30.657896" lon="104.10327">
        <time>2026-05-07T00:22:06Z</time>
      </trkpt>
      <trkpt lat="30.657877" lon="104.10329">
        <time>2026-05-07T00:22:07Z</time>
      </trkpt>
      <trkpt lat="30.657852" lon="104.1033">
        <time>2026-05-07T00:22:08Z</time>
      </trkpt>
      <trkpt lat="30.657837" lon="104.10331">
        <time>2026-05-07T00:22:09Z</time>
      </trkpt>
      <trkpt lat="30.657825" lon="104.103325">
        <time>2026-05-07T00:22:10Z</time>
      </trkpt>
      <trkpt lat="30.657803" lon="104.103355">
        <time>2026-05-07T00:22:11Z</time>
      </trkpt>
      <trkpt lat="30.657782" lon="104.10338">
        <time>2026-05-07T00:22:12Z</time>
      </trkpt>
      <trkpt lat="30.657759" lon="104.1034">
        <time>2026-05-07T00:22:13Z</time>
      </trkpt>
      <trkpt lat="30.657743" lon="104.10342">
        <time>2026-05-07T00:22:14Z</time>
      </trkpt>
      <trkpt lat="30.657732" lon="104.10344">
        <time>2026-05-07T00:22:15Z</time>
      </trkpt>
      <trkpt lat="30.657736" lon="104.1035">
        <time>2026-05-07T00:22:16Z</time>
      </trkpt>
      <trkpt lat="30.657711" lon="104.10351">
        <time>2026-05-07T00:22:17Z</time>
      </trkpt>
      <trkpt lat="30.657688" lon="104.10352">
        <time>2026-05-07T00:22:18Z</time>
      </trkpt>
      <trkpt lat="30.65767" lon="104.10354">
        <time>2026-05-07T00:22:19Z</time>
      </trkpt>
      <trkpt lat="30.65766" lon="104.10357">
        <time>2026-05-07T00:22:20Z</time>
      </trkpt>
      <trkpt lat="30.657648" lon="104.1036">
        <time>2026-05-07T00:22:21Z</time>
      </trkpt>
      <trkpt lat="30.657642" lon="104.10363">
        <time>2026-05-07T00:22:22Z</time>
      </trkpt>
      <trkpt lat="30.657629" lon="104.10367">
        <time>2026-05-07T00:22:23Z</time>
      </trkpt>
      <trkpt lat="30.657612" lon="104.10369">
        <time>2026-05-07T00:22:24Z</time>
      </trkpt>
      <trkpt lat="30.65761" lon="104.103714">
        <time>2026-05-07T00:22:25Z</time>
      </trkpt>
      <trkpt lat="30.657621" lon="104.10374">
        <time>2026-05-07T00:22:26Z</time>
      </trkpt>
      <trkpt lat="30.657618" lon="104.10376">
        <time>2026-05-07T00:22:27Z</time>
      </trkpt>
      <trkpt lat="30.6576" lon="104.10378">
        <time>2026-05-07T00:22:28Z</time>
      </trkpt>
      <trkpt lat="30.657593" lon="104.103806">
        <time>2026-05-07T00:22:29Z</time>
      </trkpt>
      <trkpt lat="30.657578" lon="104.10382">
        <time>2026-05-07T00:22:30Z</time>
      </trkpt>
      <trkpt lat="30.65756" lon="104.10384">
        <time>2026-05-07T00:22:31Z</time>
      </trkpt>
      <trkpt lat="30.657541" lon="104.10386">
        <time>2026-05-07T00:22:32Z</time>
      </trkpt>
      <trkpt lat="30.657524" lon="104.10389">
        <time>2026-05-07T00:22:33Z</time>
      </trkpt>
      <trkpt lat="30.657507" lon="104.103935">
        <time>2026-05-07T00:22:34Z</time>
      </trkpt>
      <trkpt lat="30.657486" lon="104.10397">
        <time>2026-05-07T00:22:35Z</time>
      </trkpt>
      <trkpt lat="30.65747" lon="104.10412">
        <time>2026-05-07T00:22:36Z</time>
      </trkpt>
      <trkpt lat="30.657452" lon="104.104126">
        <time>2026-05-07T00:22:37Z</time>
      </trkpt>
      <trkpt lat="30.65742" lon="104.104126">
        <time>2026-05-07T00:22:38Z</time>
      </trkpt>
      <trkpt lat="30.657404" lon="104.10416">
        <time>2026-05-07T00:22:39Z</time>
      </trkpt>
      <trkpt lat="30.657393" lon="104.104195">
        <time>2026-05-07T00:22:40Z</time>
      </trkpt>
      <trkpt lat="30.657387" lon="104.104225">
        <time>2026-05-07T00:22:41Z</time>
      </trkpt>
      <trkpt lat="30.657387" lon="104.104256">
        <time>2026-05-07T00:22:42Z</time>
      </trkpt>
      <trkpt lat="30.657389" lon="104.10427">
        <time>2026-05-07T00:22:43Z</time>
      </trkpt>
      <trkpt lat="30.657381" lon="104.104294">
        <time>2026-05-07T00:22:44Z</time>
      </trkpt>
      <trkpt lat="30.657366" lon="104.1043">
        <time>2026-05-07T00:22:45Z</time>
      </trkpt>
      <trkpt lat="30.657349" lon="104.10432">
        <time>2026-05-07T00:22:46Z</time>
      </trkpt>
      <trkpt lat="30.657343" lon="104.10434">
        <time>2026-05-07T00:22:47Z</time>
      </trkpt>
      <trkpt lat="30.65734" lon="104.10436">
        <time>2026-05-07T00:22:48Z</time>
      </trkpt>
      <trkpt lat="30.657331" lon="104.104385">
        <time>2026-05-07T00:22:49Z</time>
      </trkpt>
      <trkpt lat="30.65734" lon="104.10439">
        <time>2026-05-07T00:22:50Z</time>
      </trkpt>
      <trkpt lat="30.657349" lon="104.10442">
        <time>2026-05-07T00:22:51Z</time>
      </trkpt>
      <trkpt lat="30.657364" lon="104.10453">
        <time>2026-05-07T00:22:52Z</time>
      </trkpt>
      <trkpt lat="30.657356" lon="104.10456">
        <time>2026-05-07T00:22:53Z</time>
      </trkpt>
      <trkpt lat="30.657343" lon="104.104576">
        <time>2026-05-07T00:22:54Z</time>
      </trkpt>
      <trkpt lat="30.657345" lon="104.10459">
        <time>2026-05-07T00:22:55Z</time>
      </trkpt>
      <trkpt lat="30.657335" lon="104.104614">
        <time>2026-05-07T00:22:56Z</time>
      </trkpt>
      <trkpt lat="30.65727" lon="104.10467">
        <time>2026-05-07T00:22:57Z</time>
      </trkpt>
      <trkpt lat="30.65729" lon="104.104706">
        <time>2026-05-07T00:22:58Z</time>
      </trkpt>
      <trkpt lat="30.657305" lon="104.10474">
        <time>2026-05-07T00:22:59Z</time>
      </trkpt>
      <trkpt lat="30.657307" lon="104.10475">
        <time>2026-05-07T00:23:00Z</time>
      </trkpt>
      <trkpt lat="30.65735" lon="104.10476">
        <time>2026-05-07T00:23:01Z</time>
      </trkpt>
      <trkpt lat="30.65738" lon="104.10478">
        <time>2026-05-07T00:23:02Z</time>
      </trkpt>
      <trkpt lat="30.657375" lon="104.10477">
        <time>2026-05-07T00:23:03Z</time>
      </trkpt>
      <trkpt lat="30.657394" lon="104.104805">
        <time>2026-05-07T00:23:04Z</time>
      </trkpt>
      <trkpt lat="30.657333" lon="104.10487">
        <time>2026-05-07T00:23:05Z</time>
      </trkpt>
      <trkpt lat="30.657406" lon="104.10491">
        <time>2026-05-07T00:23:06Z</time>
      </trkpt>
      <trkpt lat="30.6575" lon="104.10482">
        <time>2026-05-07T00:23:07Z</time>
      </trkpt>
      <trkpt lat="30.657536" lon="104.104836">
        <time>2026-05-07T00:23:08Z</time>
      </trkpt>
      <trkpt lat="30.657564" lon="104.10484">
        <time>2026-05-07T00:23:09Z</time>
      </trkpt>
      <trkpt lat="30.657585" lon="104.10486">
        <time>2026-05-07T00:23:10Z</time>
      </trkpt>
      <trkpt lat="30.657606" lon="104.104866">
        <time>2026-05-07T00:23:12Z</time>
      </trkpt>
      <trkpt lat="30.657627" lon="104.10488">
        <time>2026-05-07T00:23:13Z</time>
      </trkpt>
      <trkpt lat="30.65765" lon="104.10489">
        <time>2026-05-07T00:23:14Z</time>
      </trkpt>
      <trkpt lat="30.657677" lon="104.1049">
        <time>2026-05-07T00:23:15Z</time>
      </trkpt>
      <trkpt lat="30.657705" lon="104.104904">
        <time>2026-05-07T00:23:16Z</time>
      </trkpt>
      <trkpt lat="30.657734" lon="104.10491">
        <time>2026-05-07T00:23:17Z</time>
      </trkpt>
      <trkpt lat="30.657763" lon="104.10493">
        <time>2026-05-07T00:23:18Z</time>
      </trkpt>
      <trkpt lat="30.657785" lon="104.104935">
        <time>2026-05-07T00:23:19Z</time>
      </trkpt>
      <trkpt lat="30.657806" lon="104.104935">
        <time>2026-05-07T00:23:20Z</time>
      </trkpt>
      <trkpt lat="30.657825" lon="104.104935">
        <time>2026-05-07T00:23:21Z</time>
      </trkpt>
      <trkpt lat="30.657845" lon="104.104935">
        <time>2026-05-07T00:23:22Z</time>
      </trkpt>
      <trkpt lat="30.657864" lon="104.10493">
        <time>2026-05-07T00:23:23Z</time>
      </trkpt>
      <trkpt lat="30.657887" lon="104.10493">
        <time>2026-05-07T00:23:24Z</time>
      </trkpt>
      <trkpt lat="30.65791" lon="104.10492">
        <time>2026-05-07T00:23:25Z</time>
      </trkpt>
      <trkpt lat="30.657938" lon="104.10492">
        <time>2026-05-07T00:23:26Z</time>
      </trkpt>
      <trkpt lat="30.657972" lon="104.10492">
        <time>2026-05-07T00:23:27Z</time>
      </trkpt>
      <trkpt lat="30.658" lon="104.10492">
        <time>2026-05-07T00:23:28Z</time>
      </trkpt>
      <trkpt lat="30.658037" lon="104.10492">
        <time>2026-05-07T00:23:29Z</time>
      </trkpt>
      <trkpt lat="30.658068" lon="104.10492">
        <time>2026-05-07T00:23:30Z</time>
      </trkpt>
      <trkpt lat="30.658102" lon="104.10493">
        <time>2026-05-07T00:23:31Z</time>
      </trkpt>
      <trkpt lat="30.65813" lon="104.10493">
        <time>2026-05-07T00:23:32Z</time>
      </trkpt>
      <trkpt lat="30.658157" lon="104.104935">
        <time>2026-05-07T00:23:33Z</time>
      </trkpt>
      <trkpt lat="30.658184" lon="104.10494">
        <time>2026-05-07T00:23:34Z</time>
      </trkpt>
      <trkpt lat="30.658209" lon="104.10495">
        <time>2026-05-07T00:23:35Z</time>
      </trkpt>
      <trkpt lat="30.658234" lon="104.104965">
        <time>2026-05-07T00:23:36Z</time>
      </trkpt>
      <trkpt lat="30.658257" lon="104.10497">
        <time>2026-05-07T00:23:37Z</time>
      </trkpt>
      <trkpt lat="30.658278" lon="104.10498">
        <time>2026-05-07T00:23:38Z</time>
      </trkpt>
      <trkpt lat="30.6583" lon="104.10499">
        <time>2026-05-07T00:23:39Z</time>
      </trkpt>
      <trkpt lat="30.65832" lon="104.104996">
        <time>2026-05-07T00:23:40Z</time>
      </trkpt>
      <trkpt lat="30.658339" lon="104.104996">
        <time>2026-05-07T00:23:41Z</time>
      </trkpt>
      <trkpt lat="30.65836" lon="104.104996">
        <time>2026-05-07T00:23:42Z</time>
      </trkpt>
      <trkpt lat="30.658384" lon="104.104996">
        <time>2026-05-07T00:23:43Z</time>
      </trkpt>
      <trkpt lat="30.65841" lon="104.105">
        <time>2026-05-07T00:23:44Z</time>
      </trkpt>
      <trkpt lat="30.658436" lon="104.105">
        <time>2026-05-07T00:23:45Z</time>
      </trkpt>
      <trkpt lat="30.65846" lon="104.105">
        <time>2026-05-07T00:23:46Z</time>
      </trkpt>
      <trkpt lat="30.658487" lon="104.10501">
        <time>2026-05-07T00:23:47Z</time>
      </trkpt>
      <trkpt lat="30.658512" lon="104.10502">
        <time>2026-05-07T00:23:48Z</time>
      </trkpt>
      <trkpt lat="30.65854" lon="104.10503">
        <time>2026-05-07T00:23:49Z</time>
      </trkpt>
      <trkpt lat="30.65857" lon="104.105034">
        <time>2026-05-07T00:23:50Z</time>
      </trkpt>
      <trkpt lat="30.658602" lon="104.105034">
        <time>2026-05-07T00:23:51Z</time>
      </trkpt>
      <trkpt lat="30.658627" lon="104.10504">
        <time>2026-05-07T00:23:52Z</time>
      </trkpt>
      <trkpt lat="30.658648" lon="104.105034">
        <time>2026-05-07T00:23:53Z</time>
      </trkpt>
      <trkpt lat="30.658669" lon="104.10502">
        <time>2026-05-07T00:23:54Z</time>
      </trkpt>
      <trkpt lat="30.658695" lon="104.105">
        <time>2026-05-07T00:23:55Z</time>
      </trkpt>
      <trkpt lat="30.658722" lon="104.10498">
        <time>2026-05-07T00:23:56Z</time>
      </trkpt>
      <trkpt lat="30.658749" lon="104.10497">
        <time>2026-05-07T00:23:57Z</time>
      </trkpt>
      <trkpt lat="30.658772" lon="104.10496">
        <time>2026-05-07T00:23:58Z</time>
      </trkpt>
      <trkpt lat="30.658792" lon="104.10495">
        <time>2026-05-07T00:23:59Z</time>
      </trkpt>
      <trkpt lat="30.65881" lon="104.104935">
        <time>2026-05-07T00:24:00Z</time>
      </trkpt>
      <trkpt lat="30.658829" lon="104.10492">
        <time>2026-05-07T00:24:01Z</time>
      </trkpt>
      <trkpt lat="30.658848" lon="104.104904">
        <time>2026-05-07T00:24:02Z</time>
      </trkpt>
      <trkpt lat="30.65887" lon="104.10489">
        <time>2026-05-07T00:24:03Z</time>
      </trkpt>
      <trkpt lat="30.658892" lon="104.10488">
        <time>2026-05-07T00:24:04Z</time>
      </trkpt>
      <trkpt lat="30.658918" lon="104.10487">
        <time>2026-05-07T00:24:05Z</time>
      </trkpt>
      <trkpt lat="30.658947" lon="104.104866">
        <time>2026-05-07T00:24:06Z</time>
      </trkpt>
      <trkpt lat="30.658978" lon="104.10486">
        <time>2026-05-07T00:24:07Z</time>
      </trkpt>
      <trkpt lat="30.65901" lon="104.10484">
        <time>2026-05-07T00:24:08Z</time>
      </trkpt>
      <trkpt lat="30.659044" lon="104.104836">
        <time>2026-05-07T00:24:09Z</time>
      </trkpt>
      <trkpt lat="30.659075" lon="104.10482">
        <time>2026-05-07T00:24:10Z</time>
      </trkpt>
      <trkpt lat="30.659101" lon="104.1048">
        <time>2026-05-07T00:24:11Z</time>
      </trkpt>
      <trkpt lat="30.659124" lon="104.104774">
        <time>2026-05-07T00:24:12Z</time>
      </trkpt>
      <trkpt lat="30.659143" lon="104.10475">
        <time>2026-05-07T00:24:13Z</time>
      </trkpt>
      <trkpt lat="30.65916" lon="104.10473">
        <time>2026-05-07T00:24:14Z</time>
      </trkpt>
      <trkpt lat="30.659176" lon="104.10471">
        <time>2026-05-07T00:24:15Z</time>
      </trkpt>
      <trkpt lat="30.659191" lon="104.10469">
        <time>2026-05-07T00:24:16Z</time>
      </trkpt>
      <trkpt lat="30.65921" lon="104.10467">
        <time>2026-05-07T00:24:17Z</time>
      </trkpt>
      <trkpt lat="30.659231" lon="104.10464">
        <time>2026-05-07T00:24:18Z</time>
      </trkpt>
      <trkpt lat="30.659256" lon="104.104614">
        <time>2026-05-07T00:24:19Z</time>
      </trkpt>
      <trkpt lat="30.659283" lon="104.10459">
        <time>2026-05-07T00:24:20Z</time>
      </trkpt>
      <trkpt lat="30.659307" lon="104.10457">
        <time>2026-05-07T00:24:21Z</time>
      </trkpt>
      <trkpt lat="30.659332" lon="104.10455">
        <time>2026-05-07T00:24:22Z</time>
      </trkpt>
      <trkpt lat="30.659353" lon="104.10454">
        <time>2026-05-07T00:24:23Z</time>
      </trkpt>
      <trkpt lat="30.659374" lon="104.104515">
        <time>2026-05-07T00:24:24Z</time>
      </trkpt>
      <trkpt lat="30.659391" lon="104.1045">
        <time>2026-05-07T00:24:25Z</time>
      </trkpt>
      <trkpt lat="30.659412" lon="104.10448">
        <time>2026-05-07T00:24:26Z</time>
      </trkpt>
      <trkpt lat="30.659428" lon="104.10446">
        <time>2026-05-07T00:24:27Z</time>
      </trkpt>
      <trkpt lat="30.659443" lon="104.10444">
        <time>2026-05-07T00:24:28Z</time>
      </trkpt>
      <trkpt lat="30.659452" lon="104.10442">
        <time>2026-05-07T00:24:29Z</time>
      </trkpt>
      <trkpt lat="30.659464" lon="104.10441">
        <time>2026-05-07T00:24:30Z</time>
      </trkpt>
      <trkpt lat="30.659477" lon="104.104385">
        <time>2026-05-07T00:24:31Z</time>
      </trkpt>
      <trkpt lat="30.659494" lon="104.10437">
        <time>2026-05-07T00:24:32Z</time>
      </trkpt>
      <trkpt lat="30.65952" lon="104.104355">
        <time>2026-05-07T00:24:33Z</time>
      </trkpt>
      <trkpt lat="30.659544" lon="104.10435">
        <time>2026-05-07T00:24:34Z</time>
      </trkpt>
      <trkpt lat="30.659565" lon="104.10434">
        <time>2026-05-07T00:24:35Z</time>
      </trkpt>
      <trkpt lat="30.659586" lon="104.10434">
        <time>2026-05-07T00:24:36Z</time>
      </trkpt>
      <trkpt lat="30.659603" lon="104.10434">
        <time>2026-05-07T00:24:37Z</time>
      </trkpt>
      <trkpt lat="30.65962" lon="104.10434">
        <time>2026-05-07T00:24:38Z</time>
      </trkpt>
      <trkpt lat="30.659636" lon="104.104324">
        <time>2026-05-07T00:24:39Z</time>
      </trkpt>
      <trkpt lat="30.65965" lon="104.10432">
        <time>2026-05-07T00:24:40Z</time>
      </trkpt>
      <trkpt lat="30.659664" lon="104.1043">
        <time>2026-05-07T00:24:41Z</time>
      </trkpt>
      <trkpt lat="30.659683" lon="104.10429">
        <time>2026-05-07T00:24:42Z</time>
      </trkpt>
      <trkpt lat="30.659702" lon="104.10426">
        <time>2026-05-07T00:24:43Z</time>
      </trkpt>
      <trkpt lat="30.659718" lon="104.10424">
        <time>2026-05-07T00:24:44Z</time>
      </trkpt>
      <trkpt lat="30.659729" lon="104.104225">
        <time>2026-05-07T00:24:45Z</time>
      </trkpt>
      <trkpt lat="30.659737" lon="104.10421">
        <time>2026-05-07T00:24:46Z</time>
      </trkpt>
      <trkpt lat="30.659756" lon="104.10418">
        <time>2026-05-07T00:24:47Z</time>
      </trkpt>
      <trkpt lat="30.659763" lon="104.10416">
        <time>2026-05-07T00:24:48Z</time>
      </trkpt>
      <trkpt lat="30.659777" lon="104.104126">
        <time>2026-05-07T00:24:50Z</time>
      </trkpt>
      <trkpt lat="30.65978" lon="104.10411">
        <time>2026-05-07T00:24:51Z</time>
      </trkpt>
      <trkpt lat="30.659782" lon="104.104095">
        <time>2026-05-07T00:24:53Z</time>
      </trkpt>
      <trkpt lat="30.659784" lon="104.10407">
        <time>2026-05-07T00:24:54Z</time>
      </trkpt>
      <trkpt lat="30.659788" lon="104.10405">
        <time>2026-05-07T00:24:55Z</time>
      </trkpt>
      <trkpt lat="30.659794" lon="104.10403">
        <time>2026-05-07T00:24:56Z</time>
      </trkpt>
      <trkpt lat="30.659796" lon="104.104">
        <time>2026-05-07T00:24:57Z</time>
      </trkpt>
      <trkpt lat="30.659803" lon="104.103966">
        <time>2026-05-07T00:24:58Z</time>
      </trkpt>
      <trkpt lat="30.659807" lon="104.10394">
        <time>2026-05-07T00:24:59Z</time>
      </trkpt>
      <trkpt lat="30.659811" lon="104.10392">
        <time>2026-05-07T00:25:00Z</time>
      </trkpt>
      <trkpt lat="30.659817" lon="104.1039">
        <time>2026-05-07T00:25:01Z</time>
      </trkpt>
      <trkpt lat="30.659822" lon="104.10388">
        <time>2026-05-07T00:25:02Z</time>
      </trkpt>
      <trkpt lat="30.659826" lon="104.10387">
        <time>2026-05-07T00:25:03Z</time>
      </trkpt>
      <trkpt lat="30.659828" lon="104.10384">
        <time>2026-05-07T00:25:04Z</time>
      </trkpt>
      <trkpt lat="30.659832" lon="104.10383">
        <time>2026-05-07T00:25:05Z</time>
      </trkpt>
      <trkpt lat="30.659834" lon="104.103806">
        <time>2026-05-07T00:25:06Z</time>
      </trkpt>
      <trkpt lat="30.659832" lon="104.1038">
        <time>2026-05-07T00:25:07Z</time>
      </trkpt>
      <trkpt lat="30.659828" lon="104.103775">
        <time>2026-05-07T00:25:08Z</time>
      </trkpt>
      <trkpt lat="30.659822" lon="104.10375">
        <time>2026-05-07T00:25:09Z</time>
      </trkpt>
      <trkpt lat="30.65982" lon="104.10373">
        <time>2026-05-07T00:25:10Z</time>
      </trkpt>
      <trkpt lat="30.65982" lon="104.1037">
        <time>2026-05-07T00:25:11Z</time>
      </trkpt>
      <trkpt lat="30.659822" lon="104.10366">
        <time>2026-05-07T00:25:12Z</time>
      </trkpt>
      <trkpt lat="30.659822" lon="104.10363">
        <time>2026-05-07T00:25:13Z</time>
      </trkpt>
      <trkpt lat="30.659822" lon="104.10359">
        <time>2026-05-07T00:25:14Z</time>
      </trkpt>
      <trkpt lat="30.659817" lon="104.10356">
        <time>2026-05-07T00:25:15Z</time>
      </trkpt>
      <trkpt lat="30.659811" lon="104.10353">
        <time>2026-05-07T00:25:16Z</time>
      </trkpt>
      <trkpt lat="30.659807" lon="104.1035">
        <time>2026-05-07T00:25:17Z</time>
      </trkpt>
      <trkpt lat="30.659803" lon="104.10347">
        <time>2026-05-07T00:25:18Z</time>
      </trkpt>
      <trkpt lat="30.659801" lon="104.10344">
        <time>2026-05-07T00:25:19Z</time>
      </trkpt>
      <trkpt lat="30.6598" lon="104.10342">
        <time>2026-05-07T00:25:20Z</time>
      </trkpt>
      <trkpt lat="30.6598" lon="104.10339">
        <time>2026-05-07T00:25:21Z</time>
      </trkpt>
      <trkpt lat="30.659798" lon="104.10337">
        <time>2026-05-07T00:25:22Z</time>
      </trkpt>
      <trkpt lat="30.659798" lon="104.10335">
        <time>2026-05-07T00:25:23Z</time>
      </trkpt>
      <trkpt lat="30.659798" lon="104.10333">
        <time>2026-05-07T00:25:24Z</time>
      </trkpt>
      <trkpt lat="30.659798" lon="104.10332">
        <time>2026-05-07T00:25:25Z</time>
      </trkpt>
      <trkpt lat="30.659801" lon="104.1033">
        <time>2026-05-07T00:25:26Z</time>
      </trkpt>
      <trkpt lat="30.659805" lon="104.10328">
        <time>2026-05-07T00:25:27Z</time>
      </trkpt>
      <trkpt lat="30.65981" lon="104.10326">
        <time>2026-05-07T00:25:28Z</time>
      </trkpt>
      <trkpt lat="30.65981" lon="104.10323">
        <time>2026-05-07T00:25:29Z</time>
      </trkpt>
      <trkpt lat="30.659807" lon="104.10321">
        <time>2026-05-07T00:25:30Z</time>
      </trkpt>
      <trkpt lat="30.659807" lon="104.103195">
        <time>2026-05-07T00:25:31Z</time>
      </trkpt>
      <trkpt lat="30.65981" lon="104.10317">
        <time>2026-05-07T00:25:32Z</time>
      </trkpt>
      <trkpt lat="30.65981" lon="104.10316">
        <time>2026-05-07T00:25:33Z</time>
      </trkpt>
      <trkpt lat="30.659815" lon="104.10313">
        <time>2026-05-07T00:25:34Z</time>
      </trkpt>
      <trkpt lat="30.659822" lon="104.10311">
        <time>2026-05-07T00:25:35Z</time>
      </trkpt>
      <trkpt lat="30.659828" lon="104.10309">
        <time>2026-05-07T00:25:36Z</time>
      </trkpt>
      <trkpt lat="30.659832" lon="104.103065">
        <time>2026-05-07T00:25:37Z</time>
      </trkpt>
      <trkpt lat="30.65983" lon="104.10304">
        <time>2026-05-07T00:25:38Z</time>
      </trkpt>
      <trkpt lat="30.659828" lon="104.10302">
        <time>2026-05-07T00:25:39Z</time>
      </trkpt>
      <trkpt lat="30.659824" lon="104.103004">
        <time>2026-05-07T00:25:40Z</time>
      </trkpt>
      <trkpt lat="30.659822" lon="104.10299">
        <time>2026-05-07T00:25:41Z</time>
      </trkpt>
      <trkpt lat="30.659819" lon="104.102974">
        <time>2026-05-07T00:25:42Z</time>
      </trkpt>
      <trkpt lat="30.659815" lon="104.10296">
        <time>2026-05-07T00:25:43Z</time>
      </trkpt>
      <trkpt lat="30.659815" lon="104.102936">
        <time>2026-05-07T00:25:44Z</time>
      </trkpt>
      <trkpt lat="30.659819" lon="104.10291">
        <time>2026-05-07T00:25:45Z</time>
      </trkpt>
      <trkpt lat="30.659822" lon="104.1029">
        <time>2026-05-07T00:25:46Z</time>
      </trkpt>
      <trkpt lat="30.659824" lon="104.10288">
        <time>2026-05-07T00:25:47Z</time>
      </trkpt>
      <trkpt lat="30.659824" lon="104.10287">
        <time>2026-05-07T00:25:48Z</time>
      </trkpt>
      <trkpt lat="30.659822" lon="104.10285">
        <time>2026-05-07T00:25:49Z</time>
      </trkpt>
      <trkpt lat="30.659822" lon="104.10284">
        <time>2026-05-07T00:25:50Z</time>
      </trkpt>
      <trkpt lat="30.659819" lon="104.10282">
        <time>2026-05-07T00:25:51Z</time>
      </trkpt>
      <trkpt lat="30.659815" lon="104.102806">
        <time>2026-05-07T00:25:52Z</time>
      </trkpt>
      <trkpt lat="30.659811" lon="104.10278">
        <time>2026-05-07T00:25:53Z</time>
      </trkpt>
      <trkpt lat="30.65981" lon="104.10277">
        <time>2026-05-07T00:25:54Z</time>
      </trkpt>
      <trkpt lat="30.659807" lon="104.10275">
        <time>2026-05-07T00:25:55Z</time>
      </trkpt>
      <trkpt lat="30.659807" lon="104.10274">
        <time>2026-05-07T00:25:56Z</time>
      </trkpt>
      <trkpt lat="30.659807" lon="104.102715">
        <time>2026-05-07T00:25:57Z</time>
      </trkpt>
      <trkpt lat="30.659807" lon="104.1027">
        <time>2026-05-07T00:25:58Z</time>
      </trkpt>
      <trkpt lat="30.659807" lon="104.10269">
        <time>2026-05-07T00:25:59Z</time>
      </trkpt>
      <trkpt lat="30.65981" lon="104.10268">
        <time>2026-05-07T00:26:00Z</time>
      </trkpt>
      <trkpt lat="30.65981" lon="104.10266">
        <time>2026-05-07T00:26:01Z</time>
      </trkpt>
      <trkpt lat="30.659807" lon="104.102646">
        <time>2026-05-07T00:26:02Z</time>
      </trkpt>
      <trkpt lat="30.659803" lon="104.10262">
        <time>2026-05-07T00:26:03Z</time>
      </trkpt>
      <trkpt lat="30.6598" lon="104.10261">
        <time>2026-05-07T00:26:04Z</time>
      </trkpt>
      <trkpt lat="30.659798" lon="104.10259">
        <time>2026-05-07T00:26:05Z</time>
      </trkpt>
      <trkpt lat="30.659798" lon="104.10257">
        <time>2026-05-07T00:26:06Z</time>
      </trkpt>
      <trkpt lat="30.659796" lon="104.102554">
        <time>2026-05-07T00:26:07Z</time>
      </trkpt>
      <trkpt lat="30.659796" lon="104.10254">
        <time>2026-05-07T00:26:08Z</time>
      </trkpt>
      <trkpt lat="30.659792" lon="104.10253">
        <time>2026-05-07T00:26:09Z</time>
      </trkpt>
      <trkpt lat="30.659792" lon="104.10251">
        <time>2026-05-07T00:26:10Z</time>
      </trkpt>
      <trkpt lat="30.659792" lon="104.10249">
        <time>2026-05-07T00:26:11Z</time>
      </trkpt>
      <trkpt lat="30.659792" lon="104.10248">
        <time>2026-05-07T00:26:12Z</time>
      </trkpt>
      <trkpt lat="30.659792" lon="104.10246">
        <time>2026-05-07T00:26:13Z</time>
      </trkpt>
      <trkpt lat="30.65979" lon="104.10245">
        <time>2026-05-07T00:26:14Z</time>
      </trkpt>
      <trkpt lat="30.659792" lon="104.10243">
        <time>2026-05-07T00:26:15Z</time>
      </trkpt>
      <trkpt lat="30.659796" lon="104.10242">
        <time>2026-05-07T00:26:16Z</time>
      </trkpt>
      <trkpt lat="30.6598" lon="104.1024">
        <time>2026-05-07T00:26:17Z</time>
      </trkpt>
      <trkpt lat="30.659805" lon="104.10239">
        <time>2026-05-07T00:26:18Z</time>
      </trkpt>
      <trkpt lat="30.65981" lon="104.10238">
        <time>2026-05-07T00:26:19Z</time>
      </trkpt>
      <trkpt lat="30.659813" lon="104.10237">
        <time>2026-05-07T00:26:20Z</time>
      </trkpt>
      <trkpt lat="30.659819" lon="104.102356">
        <time>2026-05-07T00:26:21Z</time>
      </trkpt>
      <trkpt lat="30.659826" lon="104.10233">
        <time>2026-05-07T00:26:23Z</time>
      </trkpt>
      <trkpt lat="30.65983" lon="104.10232">
        <time>2026-05-07T00:26:24Z</time>
      </trkpt>
      <trkpt lat="30.659834" lon="104.1023">
        <time>2026-05-07T00:26:25Z</time>
      </trkpt>
      <trkpt lat="30.659838" lon="104.10229">
        <time>2026-05-07T00:26:26Z</time>
      </trkpt>
      <trkpt lat="30.659843" lon="104.10228">
        <time>2026-05-07T00:26:27Z</time>
      </trkpt>
      <trkpt lat="30.659845" lon="104.10228">
        <time>2026-05-07T00:26:29Z</time>
      </trkpt>
      <trkpt lat="30.659847" lon="104.102264">
        <time>2026-05-07T00:26:30Z</time>
      </trkpt>
      <trkpt lat="30.65985" lon="104.10226">
        <time>2026-05-07T00:26:31Z</time>
      </trkpt>
      <trkpt lat="30.659851" lon="104.102234">
        <time>2026-05-07T00:26:32Z</time>
      </trkpt>
      <trkpt lat="30.659853" lon="104.10223">
        <time>2026-05-07T00:26:33Z</time>
      </trkpt>
    </trkseg>
  </trk>
</gpx>