<?xml version="1.0" encoding="UTF-8"?>
<gpx version="1.1" creator="Go GPS Converter">
  <trk>
    <name>GPS Track</name>
    <trkseg>
      <trkpt lat="29.552132" lon="106.55184">
        <time>2025-04-30T13:08:32Z</time>
      </trkpt>
      <trkpt lat="29.552128" lon="106.55181">
        <time>2025-04-30T13:08:33Z</time>
      </trkpt>
      <trkpt lat="29.552118" lon="106.55181">
        <time>2025-04-30T13:08:34Z</time>
      </trkpt>
      <trkpt lat="29.552109" lon="106.55177">
        <time>2025-04-30T13:08:35Z</time>
      </trkpt>
      <trkpt lat="29.5521" lon="106.551735">
        <time>2025-04-30T13:08:36Z</time>
      </trkpt>
      <trkpt lat="29.552086" lon="106.5517">
        <time>2025-04-30T13:08:37Z</time>
      </trkpt>
      <trkpt lat="29.552069" lon="106.55167">
        <time>2025-04-30T13:08:38Z</time>
      </trkpt>
      <trkpt lat="29.552057" lon="106.551636">
        <time>2025-04-30T13:08:39Z</time>
      </trkpt>
      <trkpt lat="29.55205" lon="106.551605">
        <time>2025-04-30T13:08:40Z</time>
      </trkpt>
      <trkpt lat="29.552036" lon="106.551575">
        <time>2025-04-30T13:08:41Z</time>
      </trkpt>
      <trkpt lat="29.552015" lon="106.55155">
        <time>2025-04-30T13:08:42Z</time>
      </trkpt>
      <trkpt lat="29.552002" lon="106.55152">
        <time>2025-04-30T13:08:43Z</time>
      </trkpt>
      <trkpt lat="29.55199" lon="106.55149">
        <time>2025-04-30T13:08:44Z</time>
      </trkpt>
      <trkpt lat="29.551983" lon="106.55145">
        <time>2025-04-30T13:08:45Z</time>
      </trkpt>
      <trkpt lat="29.551971" lon="106.55143">
        <time>2025-04-30T13:08:46Z</time>
      </trkpt>
      <trkpt lat="29.551958" lon="106.55141">
        <time>2025-04-30T13:08:47Z</time>
      </trkpt>
      <trkpt lat="29.551943" lon="106.55137">
        <time>2025-04-30T13:08:48Z</time>
      </trkpt>
      <trkpt lat="29.551928" lon="106.55134">
        <time>2025-04-30T13:08:49Z</time>
      </trkpt>
      <trkpt lat="29.551914" lon="106.5513">
        <time>2025-04-30T13:08:50Z</time>
      </trkpt>
      <trkpt lat="29.5519" lon="106.55126">
        <time>2025-04-30T13:08:51Z</time>
      </trkpt>
      <trkpt lat="29.551891" lon="106.55123">
        <time>2025-04-30T13:08:52Z</time>
      </trkpt>
      <trkpt lat="29.551886" lon="106.55119">
        <time>2025-04-30T13:08:53Z</time>
      </trkpt>
      <trkpt lat="29.551878" lon="106.55116">
        <time>2025-04-30T13:08:54Z</time>
      </trkpt>
      <trkpt lat="29.55186" lon="106.55113">
        <time>2025-04-30T13:08:55Z</time>
      </trkpt>
      <trkpt lat="29.551853" lon="106.5511">
        <time>2025-04-30T13:08:56Z</time>
      </trkpt>
      <trkpt lat="29.551842" lon="106.55106">
        <time>2025-04-30T13:08:57Z</time>
      </trkpt>
      <trkpt lat="29.55183" lon="106.55104">
        <time>2025-04-30T13:08:58Z</time>
      </trkpt>
      <trkpt lat="29.551817" lon="106.55101">
        <time>2025-04-30T13:08:59Z</time>
      </trkpt>
      <trkpt lat="29.551807" lon="106.55097">
        <time>2025-04-30T13:09:00Z</time>
      </trkpt>
      <trkpt lat="29.5518" lon="106.55094">
        <time>2025-04-30T13:09:01Z</time>
      </trkpt>
      <trkpt lat="29.55179" lon="106.5509">
        <time>2025-04-30T13:09:02Z</time>
      </trkpt>
      <trkpt lat="29.551783" lon="106.550865">
        <time>2025-04-30T13:09:03Z</time>
      </trkpt>
      <trkpt lat="29.551775" lon="106.550835">
        <time>2025-04-30T13:09:04Z</time>
      </trkpt>
      <trkpt lat="29.55177" lon="106.550804">
        <time>2025-04-30T13:09:05Z</time>
      </trkpt>
      <trkpt lat="29.551756" lon="106.55077">
        <time>2025-04-30T13:09:06Z</time>
      </trkpt>
      <trkpt lat="29.551744" lon="106.55074">
        <time>2025-04-30T13:09:07Z</time>
      </trkpt>
      <trkpt lat="29.551744" lon="106.550705">
        <time>2025-04-30T13:09:08Z</time>
      </trkpt>
      <trkpt lat="29.551735" lon="106.55068">
        <time>2025-04-30T13:09:09Z</time>
      </trkpt>
      <trkpt lat="29.551733" lon="106.55066">
        <time>2025-04-30T13:09:10Z</time>
      </trkpt>
      <trkpt lat="29.551725" lon="106.55064">
        <time>2025-04-30T13:09:11Z</time>
      </trkpt>
      <trkpt lat="29.551706" lon="106.55061">
        <time>2025-04-30T13:09:12Z</time>
      </trkpt>
      <trkpt lat="29.551697" lon="106.55059">
        <time>2025-04-30T13:09:13Z</time>
      </trkpt>
      <trkpt lat="29.551685" lon="106.55055">
        <time>2025-04-30T13:09:14Z</time>
      </trkpt>
      <trkpt lat="29.551676" lon="106.55051">
        <time>2025-04-30T13:09:15Z</time>
      </trkpt>
      <trkpt lat="29.551662" lon="106.550476">
        <time>2025-04-30T13:09:16Z</time>
      </trkpt>
      <trkpt lat="29.551651" lon="106.550446">
        <time>2025-04-30T13:09:17Z</time>
      </trkpt>
      <trkpt lat="29.551641" lon="106.55042">
        <time>2025-04-30T13:09:18Z</time>
      </trkpt>
      <trkpt lat="29.55163" lon="106.550385">
        <time>2025-04-30T13:09:19Z</time>
      </trkpt>
      <trkpt lat="29.551615" lon="106.55036">
        <time>2025-04-30T13:09:20Z</time>
      </trkpt>
      <trkpt lat="29.551617" lon="106.55033">
        <time>2025-04-30T13:09:21Z</time>
      </trkpt>
      <trkpt lat="29.551615" lon="106.5503">
        <time>2025-04-30T13:09:22Z</time>
      </trkpt>
      <trkpt lat="29.551601" lon="106.55027">
        <time>2025-04-30T13:09:23Z</time>
      </trkpt>
      <trkpt lat="29.551592" lon="106.55024">
        <time>2025-04-30T13:09:24Z</time>
      </trkpt>
      <trkpt lat="29.551582" lon="106.55022">
        <time>2025-04-30T13:09:25Z</time>
      </trkpt>
      <trkpt lat="29.551573" lon="106.55019">
        <time>2025-04-30T13:09:26Z</time>
      </trkpt>
      <trkpt lat="29.551527" lon="106.550156">
        <time>2025-04-30T13:09:27Z</time>
      </trkpt>
      <trkpt lat="29.551497" lon="106.55013">
        <time>2025-04-30T13:09:28Z</time>
      </trkpt>
      <trkpt lat="29.551477" lon="106.55012">
        <time>2025-04-30T13:09:29Z</time>
      </trkpt>
      <trkpt lat="29.55146" lon="106.5501">
        <time>2025-04-30T13:09:30Z</time>
      </trkpt>
      <trkpt lat="29.551445" lon="106.55008">
        <time>2025-04-30T13:09:31Z</time>
      </trkpt>
      <trkpt lat="29.551432" lon="106.55006">
        <time>2025-04-30T13:09:32Z</time>
      </trkpt>
      <trkpt lat="29.551418" lon="106.55003">
        <time>2025-04-30T13:09:33Z</time>
      </trkpt>
      <trkpt lat="29.551407" lon="106.55">
        <time>2025-04-30T13:09:34Z</time>
      </trkpt>
      <trkpt lat="29.551395" lon="106.54998">
        <time>2025-04-30T13:09:35Z</time>
      </trkpt>
      <trkpt lat="29.551384" lon="106.54995">
        <time>2025-04-30T13:09:36Z</time>
      </trkpt>
      <trkpt lat="29.551373" lon="106.54992">
        <time>2025-04-30T13:09:37Z</time>
      </trkpt>
      <trkpt lat="29.551361" lon="106.54989">
        <time>2025-04-30T13:09:38Z</time>
      </trkpt>
      <trkpt lat="29.551352" lon="106.549866">
        <time>2025-04-30T13:09:39Z</time>
      </trkpt>
      <trkpt lat="29.551344" lon="106.549835">
        <time>2025-04-30T13:09:40Z</time>
      </trkpt>
      <trkpt lat="29.551334" lon="106.54981">
        <time>2025-04-30T13:09:41Z</time>
      </trkpt>
      <trkpt lat="29.551327" lon="106.54979">
        <time>2025-04-30T13:09:42Z</time>
      </trkpt>
      <trkpt lat="29.551317" lon="106.54976">
        <time>2025-04-30T13:09:43Z</time>
      </trkpt>
      <trkpt lat="29.551308" lon="106.54973">
        <time>2025-04-30T13:09:44Z</time>
      </trkpt>
      <trkpt lat="29.551298" lon="106.549706">
        <time>2025-04-30T13:09:45Z</time>
      </trkpt>
      <trkpt lat="29.551289" lon="106.54968">
        <time>2025-04-30T13:09:46Z</time>
      </trkpt>
      <trkpt lat="29.55128" lon="106.54966">
        <time>2025-04-30T13:09:47Z</time>
      </trkpt>
      <trkpt lat="29.55127" lon="106.54963">
        <time>2025-04-30T13:09:48Z</time>
      </trkpt>
      <trkpt lat="29.551258" lon="106.54961">
        <time>2025-04-30T13:09:49Z</time>
      </trkpt>
      <trkpt lat="29.551247" lon="106.549576">
        <time>2025-04-30T13:09:50Z</time>
      </trkpt>
      <trkpt lat="29.551235" lon="106.549545">
        <time>2025-04-30T13:09:51Z</time>
      </trkpt>
      <trkpt lat="29.551222" lon="106.54952">
        <time>2025-04-30T13:09:52Z</time>
      </trkpt>
      <trkpt lat="29.551208" lon="106.54949">
        <time>2025-04-30T13:09:53Z</time>
      </trkpt>
      <trkpt lat="29.551195" lon="106.54947">
        <time>2025-04-30T13:09:54Z</time>
      </trkpt>
      <trkpt lat="29.551182" lon="106.54944">
        <time>2025-04-30T13:09:55Z</time>
      </trkpt>
      <trkpt lat="29.551168" lon="106.549416">
        <time>2025-04-30T13:09:56Z</time>
      </trkpt>
      <trkpt lat="29.551157" lon="106.54939">
        <time>2025-04-30T13:09:57Z</time>
      </trkpt>
      <trkpt lat="29.551146" lon="106.54936">
        <time>2025-04-30T13:09:58Z</time>
      </trkpt>
      <trkpt lat="29.551134" lon="106.54933">
        <time>2025-04-30T13:09:59Z</time>
      </trkpt>
      <trkpt lat="29.551123" lon="106.5493">
        <time>2025-04-30T13:10:00Z</time>
      </trkpt>
      <trkpt lat="29.551111" lon="106.54927">
        <time>2025-04-30T13:10:01Z</time>
      </trkpt>
      <trkpt lat="29.551098" lon="106.54924">
        <time>2025-04-30T13:10:02Z</time>
      </trkpt>
      <trkpt lat="29.551086" lon="106.54921">
        <time>2025-04-30T13:10:03Z</time>
      </trkpt>
      <trkpt lat="29.551077" lon="106.54918">
        <time>2025-04-30T13:10:04Z</time>
      </trkpt>
      <trkpt lat="29.551065" lon="106.54915">
        <time>2025-04-30T13:10:05Z</time>
      </trkpt>
      <trkpt lat="29.551054" lon="106.54911">
        <time>2025-04-30T13:10:06Z</time>
      </trkpt>
      <trkpt lat="29.551043" lon="106.54908">
        <time>2025-04-30T13:10:07Z</time>
      </trkpt>
      <trkpt lat="29.55103" lon="106.54905">
        <time>2025-04-30T13:10:08Z</time>
      </trkpt>
      <trkpt lat="29.551016" lon="106.54902">
        <time>2025-04-30T13:10:09Z</time>
      </trkpt>
      <trkpt lat="29.55101" lon="106.54899">
        <time>2025-04-30T13:10:10Z</time>
      </trkpt>
      <trkpt lat="29.551012" lon="106.548965">
        <time>2025-04-30T13:10:11Z</time>
      </trkpt>
      <trkpt lat="29.551016" lon="106.548935">
        <time>2025-04-30T13:10:12Z</time>
      </trkpt>
      <trkpt lat="29.551025" lon="106.54892">
        <time>2025-04-30T13:10:13Z</time>
      </trkpt>
      <trkpt lat="29.551031" lon="106.5489">
        <time>2025-04-30T13:10:14Z</time>
      </trkpt>
      <trkpt lat="29.551035" lon="106.54888">
        <time>2025-04-30T13:10:15Z</time>
      </trkpt>
      <trkpt lat="29.551037" lon="106.54886">
        <time>2025-04-30T13:10:16Z</time>
      </trkpt>
      <trkpt lat="29.551037" lon="106.54884">
        <time>2025-04-30T13:10:17Z</time>
      </trkpt>
      <trkpt lat="29.55104" lon="106.54883">
        <time>2025-04-30T13:10:18Z</time>
      </trkpt>
      <trkpt lat="29.551043" lon="106.548805">
        <time>2025-04-30T13:10:19Z</time>
      </trkpt>
      <trkpt lat="29.551052" lon="106.54878">
        <time>2025-04-30T13:10:20Z</time>
      </trkpt>
      <trkpt lat="29.551056" lon="106.54876">
        <time>2025-04-30T13:10:21Z</time>
      </trkpt>
      <trkpt lat="29.551058" lon="106.54874">
        <time>2025-04-30T13:10:22Z</time>
      </trkpt>
      <trkpt lat="29.55106" lon="106.54871">
        <time>2025-04-30T13:10:23Z</time>
      </trkpt>
      <trkpt lat="29.551064" lon="106.5487">
        <time>2025-04-30T13:10:24Z</time>
      </trkpt>
      <trkpt lat="29.55107" lon="106.548676">
        <time>2025-04-30T13:10:25Z</time>
      </trkpt>
      <trkpt lat="29.551075" lon="106.54865">
        <time>2025-04-30T13:10:26Z</time>
      </trkpt>
      <trkpt lat="29.55108" lon="106.54863">
        <time>2025-04-30T13:10:27Z</time>
      </trkpt>
      <trkpt lat="29.551086" lon="106.54861">
        <time>2025-04-30T13:10:28Z</time>
      </trkpt>
      <trkpt lat="29.55109" lon="106.54858">
        <time>2025-04-30T13:10:29Z</time>
      </trkpt>
      <trkpt lat="29.551092" lon="106.54855">
        <time>2025-04-30T13:10:30Z</time>
      </trkpt>
      <trkpt lat="29.551092" lon="106.54852">
        <time>2025-04-30T13:10:31Z</time>
      </trkpt>
      <trkpt lat="29.55109" lon="106.54849">
        <time>2025-04-30T13:10:32Z</time>
      </trkpt>
      <trkpt lat="29.551088" lon="106.54846">
        <time>2025-04-30T13:10:33Z</time>
      </trkpt>
      <trkpt lat="29.551085" lon="106.54843">
        <time>2025-04-30T13:10:34Z</time>
      </trkpt>
      <trkpt lat="29.55108" lon="106.5484">
        <time>2025-04-30T13:10:35Z</time>
      </trkpt>
      <trkpt lat="29.551073" lon="106.54837">
        <time>2025-04-30T13:10:36Z</time>
      </trkpt>
      <trkpt lat="29.55107" lon="106.54834">
        <time>2025-04-30T13:10:37Z</time>
      </trkpt>
      <trkpt lat="29.551065" lon="106.54831">
        <time>2025-04-30T13:10:38Z</time>
      </trkpt>
      <trkpt lat="29.55106" lon="106.54829">
        <time>2025-04-30T13:10:39Z</time>
      </trkpt>
      <trkpt lat="29.551054" lon="106.54826">
        <time>2025-04-30T13:10:40Z</time>
      </trkpt>
      <trkpt lat="29.551046" lon="106.54823">
        <time>2025-04-30T13:10:41Z</time>
      </trkpt>
      <trkpt lat="29.551039" lon="106.54821">
        <time>2025-04-30T13:10:42Z</time>
      </trkpt>
      <trkpt lat="29.551031" lon="106.54819">
        <time>2025-04-30T13:10:43Z</time>
      </trkpt>
      <trkpt lat="29.55102" lon="106.54817">
        <time>2025-04-30T13:10:44Z</time>
      </trkpt>
      <trkpt lat="29.551006" lon="106.54815">
        <time>2025-04-30T13:10:45Z</time>
      </trkpt>
      <trkpt lat="29.550987" lon="106.54812">
        <time>2025-04-30T13:10:46Z</time>
      </trkpt>
      <trkpt lat="29.550962" lon="106.548096">
        <time>2025-04-30T13:10:47Z</time>
      </trkpt>
      <trkpt lat="29.550941" lon="106.54807">
        <time>2025-04-30T13:10:48Z</time>
      </trkpt>
      <trkpt lat="29.55092" lon="106.54805">
        <time>2025-04-30T13:10:49Z</time>
      </trkpt>
      <trkpt lat="29.550898" lon="106.54803">
        <time>2025-04-30T13:10:50Z</time>
      </trkpt>
      <trkpt lat="29.550877" lon="106.54801">
        <time>2025-04-30T13:10:51Z</time>
      </trkpt>
      <trkpt lat="29.550856" lon="106.54799">
        <time>2025-04-30T13:10:52Z</time>
      </trkpt>
      <trkpt lat="29.550835" lon="106.547966">
        <time>2025-04-30T13:10:53Z</time>
      </trkpt>
      <trkpt lat="29.550814" lon="106.54794">
        <time>2025-04-30T13:10:54Z</time>
      </trkpt>
      <trkpt lat="29.550795" lon="106.54793">
        <time>2025-04-30T13:10:55Z</time>
      </trkpt>
      <trkpt lat="29.550774" lon="106.54791">
        <time>2025-04-30T13:10:56Z</time>
      </trkpt>
      <trkpt lat="29.55075" lon="106.5479">
        <time>2025-04-30T13:10:57Z</time>
      </trkpt>
      <trkpt lat="29.550726" lon="106.54788">
        <time>2025-04-30T13:10:58Z</time>
      </trkpt>
      <trkpt lat="29.550705" lon="106.54787">
        <time>2025-04-30T13:10:59Z</time>
      </trkpt>
      <trkpt lat="29.550684" lon="106.54786">
        <time>2025-04-30T13:11:00Z</time>
      </trkpt>
      <trkpt lat="29.550661" lon="106.547844">
        <time>2025-04-30T13:11:01Z</time>
      </trkpt>
      <trkpt lat="29.550642" lon="106.54783">
        <time>2025-04-30T13:11:02Z</time>
      </trkpt>
      <trkpt lat="29.55062" lon="106.54782">
        <time>2025-04-30T13:11:03Z</time>
      </trkpt>
      <trkpt lat="29.550598" lon="106.547806">
        <time>2025-04-30T13:11:04Z</time>
      </trkpt>
      <trkpt lat="29.55058" lon="106.54779">
        <time>2025-04-30T13:11:05Z</time>
      </trkpt>
      <trkpt lat="29.550556" lon="106.547775">
        <time>2025-04-30T13:11:06Z</time>
      </trkpt>
      <trkpt lat="29.550533" lon="106.54777">
        <time>2025-04-30T13:11:07Z</time>
      </trkpt>
      <trkpt lat="29.550508" lon="106.54775">
        <time>2025-04-30T13:11:08Z</time>
      </trkpt>
      <trkpt lat="29.550486" lon="106.54774">
        <time>2025-04-30T13:11:09Z</time>
      </trkpt>
      <trkpt lat="29.55046" lon="106.54772">
        <time>2025-04-30T13:11:10Z</time>
      </trkpt>
      <trkpt lat="29.55044" lon="106.547714">
        <time>2025-04-30T13:11:11Z</time>
      </trkpt>
      <trkpt lat="29.550417" lon="106.5477">
        <time>2025-04-30T13:11:12Z</time>
      </trkpt>
      <trkpt lat="29.550394" lon="106.54768">
        <time>2025-04-30T13:11:13Z</time>
      </trkpt>
      <trkpt lat="29.550373" lon="106.547676">
        <time>2025-04-30T13:11:14Z</time>
      </trkpt>
      <trkpt lat="29.550348" lon="106.54766">
        <time>2025-04-30T13:11:15Z</time>
      </trkpt>
      <trkpt lat="29.550325" lon="106.54764">
        <time>2025-04-30T13:11:16Z</time>
      </trkpt>
      <trkpt lat="29.550303" lon="106.54763">
        <time>2025-04-30T13:11:17Z</time>
      </trkpt>
      <trkpt lat="29.550282" lon="106.547615">
        <time>2025-04-30T13:11:18Z</time>
      </trkpt>
      <trkpt lat="29.55026" lon="106.5476">
        <time>2025-04-30T13:11:19Z</time>
      </trkpt>
      <trkpt lat="29.550234" lon="106.54759">
        <time>2025-04-30T13:11:20Z</time>
      </trkpt>
      <trkpt lat="29.550207" lon="106.54757">
        <time>2025-04-30T13:11:21Z</time>
      </trkpt>
      <trkpt lat="29.550184" lon="106.547554">
        <time>2025-04-30T13:11:22Z</time>
      </trkpt>
      <trkpt lat="29.550163" lon="106.54753">
        <time>2025-04-30T13:11:23Z</time>
      </trkpt>
      <trkpt lat="29.550146" lon="106.54751">
        <time>2025-04-30T13:11:24Z</time>
      </trkpt>
      <trkpt lat="29.550129" lon="106.547485">
        <time>2025-04-30T13:11:25Z</time>
      </trkpt>
      <trkpt lat="29.550112" lon="106.54746">
        <time>2025-04-30T13:11:26Z</time>
      </trkpt>
      <trkpt lat="29.550093" lon="106.54744">
        <time>2025-04-30T13:11:27Z</time>
      </trkpt>
      <trkpt lat="29.550077" lon="106.547424">
        <time>2025-04-30T13:11:28Z</time>
      </trkpt>
      <trkpt lat="29.55006" lon="106.54741">
        <time>2025-04-30T13:11:29Z</time>
      </trkpt>
      <trkpt lat="29.550043" lon="106.547386">
        <time>2025-04-30T13:11:30Z</time>
      </trkpt>
      <trkpt lat="29.550024" lon="106.547356">
        <time>2025-04-30T13:11:31Z</time>
      </trkpt>
      <trkpt lat="29.550003" lon="106.54733">
        <time>2025-04-30T13:11:32Z</time>
      </trkpt>
      <trkpt lat="29.549986" lon="106.5473">
        <time>2025-04-30T13:11:33Z</time>
      </trkpt>
      <trkpt lat="29.549973" lon="106.54728">
        <time>2025-04-30T13:11:34Z</time>
      </trkpt>
      <trkpt lat="29.54996" lon="106.54726">
        <time>2025-04-30T13:11:35Z</time>
      </trkpt>
      <trkpt lat="29.549946" lon="106.54723">
        <time>2025-04-30T13:11:36Z</time>
      </trkpt>
      <trkpt lat="29.549932" lon="106.54722">
        <time>2025-04-30T13:11:37Z</time>
      </trkpt>
      <trkpt lat="29.549917" lon="106.547195">
        <time>2025-04-30T13:11:38Z</time>
      </trkpt>
      <trkpt lat="29.549906" lon="106.54717">
        <time>2025-04-30T13:11:39Z</time>
      </trkpt>
      <trkpt lat="29.549896" lon="106.54714">
        <time>2025-04-30T13:11:40Z</time>
      </trkpt>
      <trkpt lat="29.549887" lon="106.54712">
        <time>2025-04-30T13:11:41Z</time>
      </trkpt>
      <trkpt lat="29.549875" lon="106.5471">
        <time>2025-04-30T13:11:42Z</time>
      </trkpt>
      <trkpt lat="29.549862" lon="106.54707">
        <time>2025-04-30T13:11:43Z</time>
      </trkpt>
      <trkpt lat="29.549847" lon="106.54705">
        <time>2025-04-30T13:11:44Z</time>
      </trkpt>
      <trkpt lat="29.549833" lon="106.54702">
        <time>2025-04-30T13:11:45Z</time>
      </trkpt>
      <trkpt lat="29.549822" lon="106.547">
        <time>2025-04-30T13:11:46Z</time>
      </trkpt>
      <trkpt lat="29.549812" lon="106.54697">
        <time>2025-04-30T13:11:47Z</time>
      </trkpt>
      <trkpt lat="29.5498" lon="106.54694">
        <time>2025-04-30T13:11:48Z</time>
      </trkpt>
      <trkpt lat="29.549791" lon="106.54692">
        <time>2025-04-30T13:11:49Z</time>
      </trkpt>
      <trkpt lat="29.549782" lon="106.54689">
        <time>2025-04-30T13:11:50Z</time>
      </trkpt>
      <trkpt lat="29.54977" lon="106.54687">
        <time>2025-04-30T13:11:51Z</time>
      </trkpt>
      <trkpt lat="29.54976" lon="106.54684">
        <time>2025-04-30T13:11:52Z</time>
      </trkpt>
      <trkpt lat="29.549751" lon="106.546814">
        <time>2025-04-30T13:11:53Z</time>
      </trkpt>
      <trkpt lat="29.549744" lon="106.54679">
        <time>2025-04-30T13:11:54Z</time>
      </trkpt>
      <trkpt lat="29.549734" lon="106.54676">
        <time>2025-04-30T13:11:55Z</time>
      </trkpt>
      <trkpt lat="29.549728" lon="106.54673">
        <time>2025-04-30T13:11:56Z</time>
      </trkpt>
      <trkpt lat="29.54972" lon="106.54671">
        <time>2025-04-30T13:11:57Z</time>
      </trkpt>
      <trkpt lat="29.549717" lon="106.54668">
        <time>2025-04-30T13:11:58Z</time>
      </trkpt>
      <trkpt lat="29.54971" lon="106.54665">
        <time>2025-04-30T13:11:59Z</time>
      </trkpt>
      <trkpt lat="29.5497" lon="106.54662">
        <time>2025-04-30T13:12:00Z</time>
      </trkpt>
      <trkpt lat="29.54969" lon="106.54659">
        <time>2025-04-30T13:12:01Z</time>
      </trkpt>
      <trkpt lat="29.549683" lon="106.54656">
        <time>2025-04-30T13:12:02Z</time>
      </trkpt>
      <trkpt lat="29.549673" lon="106.54653">
        <time>2025-04-30T13:12:03Z</time>
      </trkpt>
      <trkpt lat="29.54967" lon="106.5465">
        <time>2025-04-30T13:12:04Z</time>
      </trkpt>
      <trkpt lat="29.549664" lon="106.54647">
        <time>2025-04-30T13:12:05Z</time>
      </trkpt>
      <trkpt lat="29.549658" lon="106.54645">
        <time>2025-04-30T13:12:06Z</time>
      </trkpt>
      <trkpt lat="29.549654" lon="106.546425">
        <time>2025-04-30T13:12:07Z</time>
      </trkpt>
      <trkpt lat="29.54965" lon="106.5464">
        <time>2025-04-30T13:12:08Z</time>
      </trkpt>
      <trkpt lat="29.549646" lon="106.54638">
        <time>2025-04-30T13:12:09Z</time>
      </trkpt>
      <trkpt lat="29.549643" lon="106.54635">
        <time>2025-04-30T13:12:10Z</time>
      </trkpt>
      <trkpt lat="29.549637" lon="106.546326">
        <time>2025-04-30T13:12:11Z</time>
      </trkpt>
      <trkpt lat="29.54963" lon="106.546295">
        <time>2025-04-30T13:12:12Z</time>
      </trkpt>
      <trkpt lat="29.54962" lon="106.546265">
        <time>2025-04-30T13:12:13Z</time>
      </trkpt>
      <trkpt lat="29.549614" lon="106.546234">
        <time>2025-04-30T13:12:14Z</time>
      </trkpt>
      <trkpt lat="29.549604" lon="106.5462">
        <time>2025-04-30T13:12:15Z</time>
      </trkpt>
      <trkpt lat="29.549599" lon="106.54618">
        <time>2025-04-30T13:12:16Z</time>
      </trkpt>
      <trkpt lat="29.549593" lon="106.54615">
        <time>2025-04-30T13:12:17Z</time>
      </trkpt>
      <trkpt lat="29.54959" lon="106.54612">
        <time>2025-04-30T13:12:18Z</time>
      </trkpt>
      <trkpt lat="29.549583" lon="106.54609">
        <time>2025-04-30T13:12:19Z</time>
      </trkpt>
      <trkpt lat="29.549576" lon="106.54607">
        <time>2025-04-30T13:12:20Z</time>
      </trkpt>
      <trkpt lat="29.54957" lon="106.546036">
        <time>2025-04-30T13:12:21Z</time>
      </trkpt>
      <trkpt lat="29.549562" lon="106.54601">
        <time>2025-04-30T13:12:22Z</time>
      </trkpt>
      <trkpt lat="29.549555" lon="106.54599">
        <time>2025-04-30T13:12:23Z</time>
      </trkpt>
      <trkpt lat="29.54955" lon="106.54596">
        <time>2025-04-30T13:12:24Z</time>
      </trkpt>
      <trkpt lat="29.549541" lon="106.54593">
        <time>2025-04-30T13:12:25Z</time>
      </trkpt>
      <trkpt lat="29.549536" lon="106.5459">
        <time>2025-04-30T13:12:26Z</time>
      </trkpt>
      <trkpt lat="29.549532" lon="106.545876">
        <time>2025-04-30T13:12:27Z</time>
      </trkpt>
      <trkpt lat="29.549528" lon="106.545845">
        <time>2025-04-30T13:12:28Z</time>
      </trkpt>
      <trkpt lat="29.549522" lon="106.54582">
        <time>2025-04-30T13:12:29Z</time>
      </trkpt>
      <trkpt lat="29.549519" lon="106.54579">
        <time>2025-04-30T13:12:30Z</time>
      </trkpt>
      <trkpt lat="29.54951" lon="106.54576">
        <time>2025-04-30T13:12:31Z</time>
      </trkpt>
      <trkpt lat="29.549503" lon="106.54574">
        <time>2025-04-30T13:12:32Z</time>
      </trkpt>
      <trkpt lat="29.549498" lon="106.54571">
        <time>2025-04-30T13:12:33Z</time>
      </trkpt>
      <trkpt lat="29.549492" lon="106.545685">
        <time>2025-04-30T13:12:34Z</time>
      </trkpt>
      <trkpt lat="29.549488" lon="106.54566">
        <time>2025-04-30T13:12:35Z</time>
      </trkpt>
      <trkpt lat="29.549484" lon="106.54563">
        <time>2025-04-30T13:12:36Z</time>
      </trkpt>
      <trkpt lat="29.549482" lon="106.54561">
        <time>2025-04-30T13:12:37Z</time>
      </trkpt>
      <trkpt lat="29.549477" lon="106.54558">
        <time>2025-04-30T13:12:38Z</time>
      </trkpt>
      <trkpt lat="29.549473" lon="106.545555">
        <time>2025-04-30T13:12:39Z</time>
      </trkpt>
      <trkpt lat="29.54947" lon="106.54554">
        <time>2025-04-30T13:12:40Z</time>
      </trkpt>
      <trkpt lat="29.549465" lon="106.54552">
        <time>2025-04-30T13:12:41Z</time>
      </trkpt>
      <trkpt lat="29.549463" lon="106.545494">
        <time>2025-04-30T13:12:42Z</time>
      </trkpt>
      <trkpt lat="29.549463" lon="106.54547">
        <time>2025-04-30T13:12:43Z</time>
      </trkpt>
      <trkpt lat="29.549461" lon="106.54544">
        <time>2025-04-30T13:12:44Z</time>
      </trkpt>
      <trkpt lat="29.549458" lon="106.54542">
        <time>2025-04-30T13:12:45Z</time>
      </trkpt>
      <trkpt lat="29.549454" lon="106.545395">
        <time>2025-04-30T13:12:46Z</time>
      </trkpt>
      <trkpt lat="29.549446" lon="106.54538">
        <time>2025-04-30T13:12:47Z</time>
      </trkpt>
      <trkpt lat="29.549438" lon="106.54536">
        <time>2025-04-30T13:12:48Z</time>
      </trkpt>
      <trkpt lat="29.54943" lon="106.545334">
        <time>2025-04-30T13:12:49Z</time>
      </trkpt>
      <trkpt lat="29.549417" lon="106.54532">
        <time>2025-04-30T13:12:50Z</time>
      </trkpt>
      <trkpt lat="29.549406" lon="106.545296">
        <time>2025-04-30T13:12:51Z</time>
      </trkpt>
      <trkpt lat="29.54939" lon="106.54527">
        <time>2025-04-30T13:12:52Z</time>
      </trkpt>
      <trkpt lat="29.549374" lon="106.54525">
        <time>2025-04-30T13:12:53Z</time>
      </trkpt>
      <trkpt lat="29.549355" lon="106.54523">
        <time>2025-04-30T13:12:54Z</time>
      </trkpt>
      <trkpt lat="29.549337" lon="106.54521">
        <time>2025-04-30T13:12:55Z</time>
      </trkpt>
      <trkpt lat="29.549322" lon="106.54518">
        <time>2025-04-30T13:12:56Z</time>
      </trkpt>
      <trkpt lat="29.549301" lon="106.54516">
        <time>2025-04-30T13:12:57Z</time>
      </trkpt>
      <trkpt lat="29.54928" lon="106.545135">
        <time>2025-04-30T13:12:58Z</time>
      </trkpt>
      <trkpt lat="29.54926" lon="106.545105">
        <time>2025-04-30T13:12:59Z</time>
      </trkpt>
      <trkpt lat="29.549238" lon="106.54508">
        <time>2025-04-30T13:13:00Z</time>
      </trkpt>
      <trkpt lat="29.54922" lon="106.545044">
        <time>2025-04-30T13:13:01Z</time>
      </trkpt>
      <trkpt lat="29.549202" lon="106.545006">
        <time>2025-04-30T13:13:02Z</time>
      </trkpt>
      <trkpt lat="29.549187" lon="106.54497">
        <time>2025-04-30T13:13:03Z</time>
      </trkpt>
      <trkpt lat="29.549173" lon="106.54493">
        <time>2025-04-30T13:13:04Z</time>
      </trkpt>
      <trkpt lat="29.54916" lon="106.5449">
        <time>2025-04-30T13:13:05Z</time>
      </trkpt>
      <trkpt lat="29.549147" lon="106.54487">
        <time>2025-04-30T13:13:06Z</time>
      </trkpt>
      <trkpt lat="29.549139" lon="106.54484">
        <time>2025-04-30T13:13:07Z</time>
      </trkpt>
      <trkpt lat="29.54913" lon="106.5448">
        <time>2025-04-30T13:13:08Z</time>
      </trkpt>
      <trkpt lat="29.549124" lon="106.54478">
        <time>2025-04-30T13:13:09Z</time>
      </trkpt>
      <trkpt lat="29.549116" lon="106.54474">
        <time>2025-04-30T13:13:10Z</time>
      </trkpt>
      <trkpt lat="29.549112" lon="106.544716">
        <time>2025-04-30T13:13:11Z</time>
      </trkpt>
      <trkpt lat="29.549107" lon="106.544685">
        <time>2025-04-30T13:13:12Z</time>
      </trkpt>
      <trkpt lat="29.5491" lon="106.544655">
        <time>2025-04-30T13:13:13Z</time>
      </trkpt>
      <trkpt lat="29.549097" lon="106.544624">
        <time>2025-04-30T13:13:14Z</time>
      </trkpt>
      <trkpt lat="29.549091" lon="106.54459">
        <time>2025-04-30T13:13:15Z</time>
      </trkpt>
      <trkpt lat="29.549088" lon="106.54457">
        <time>2025-04-30T13:13:16Z</time>
      </trkpt>
      <trkpt lat="29.549082" lon="106.54454">
        <time>2025-04-30T13:13:17Z</time>
      </trkpt>
      <trkpt lat="29.549076" lon="106.54451">
        <time>2025-04-30T13:13:18Z</time>
      </trkpt>
      <trkpt lat="29.54907" lon="106.54449">
        <time>2025-04-30T13:13:19Z</time>
      </trkpt>
      <trkpt lat="29.54906" lon="106.54446">
        <time>2025-04-30T13:13:20Z</time>
      </trkpt>
      <trkpt lat="29.549055" lon="106.544426">
        <time>2025-04-30T13:13:21Z</time>
      </trkpt>
      <trkpt lat="29.549047" lon="106.544395">
        <time>2025-04-30T13:13:22Z</time>
      </trkpt>
      <trkpt lat="29.549042" lon="106.544365">
        <time>2025-04-30T13:13:23Z</time>
      </trkpt>
      <trkpt lat="29.549036" lon="106.544334">
        <time>2025-04-30T13:13:24Z</time>
      </trkpt>
      <trkpt lat="29.549028" lon="106.544304">
        <time>2025-04-30T13:13:25Z</time>
      </trkpt>
      <trkpt lat="29.54902" lon="106.54427">
        <time>2025-04-30T13:13:26Z</time>
      </trkpt>
      <trkpt lat="29.54901" lon="106.54425">
        <time>2025-04-30T13:13:27Z</time>
      </trkpt>
      <trkpt lat="29.549002" lon="106.54423">
        <time>2025-04-30T13:13:28Z</time>
      </trkpt>
      <trkpt lat="29.548994" lon="106.5442">
        <time>2025-04-30T13:13:29Z</time>
      </trkpt>
      <trkpt lat="29.548986" lon="106.544174">
        <time>2025-04-30T13:13:30Z</time>
      </trkpt>
      <trkpt lat="29.548979" lon="106.54414">
        <time>2025-04-30T13:13:31Z</time>
      </trkpt>
      <trkpt lat="29.548977" lon="106.54412">
        <time>2025-04-30T13:13:32Z</time>
      </trkpt>
      <trkpt lat="29.548983" lon="106.5441">
        <time>2025-04-30T13:13:33Z</time>
      </trkpt>
      <trkpt lat="29.548994" lon="106.544075">
        <time>2025-04-30T13:13:34Z</time>
      </trkpt>
      <trkpt lat="29.54901" lon="106.54405">
        <time>2025-04-30T13:13:35Z</time>
      </trkpt>
      <trkpt lat="29.54903" lon="106.544044">
        <time>2025-04-30T13:13:36Z</time>
      </trkpt>
      <trkpt lat="29.549051" lon="106.54403">
        <time>2025-04-30T13:13:37Z</time>
      </trkpt>
      <trkpt lat="29.54907" lon="106.54402">
        <time>2025-04-30T13:13:38Z</time>
      </trkpt>
      <trkpt lat="29.549088" lon="106.54401">
        <time>2025-04-30T13:13:39Z</time>
      </trkpt>
      <trkpt lat="29.549105" lon="106.544">
        <time>2025-04-30T13:13:40Z</time>
      </trkpt>
      <trkpt lat="29.54912" lon="106.54398">
        <time>2025-04-30T13:13:41Z</time>
      </trkpt>
      <trkpt lat="29.549131" lon="106.54396">
        <time>2025-04-30T13:13:42Z</time>
      </trkpt>
      <trkpt lat="29.549139" lon="106.54394">
        <time>2025-04-30T13:13:43Z</time>
      </trkpt>
      <trkpt lat="29.54914" lon="106.543915">
        <time>2025-04-30T13:13:44Z</time>
      </trkpt>
      <trkpt lat="29.549145" lon="106.54389">
        <time>2025-04-30T13:13:45Z</time>
      </trkpt>
      <trkpt lat="29.549145" lon="106.54387">
        <time>2025-04-30T13:13:46Z</time>
      </trkpt>
      <trkpt lat="29.54914" lon="106.543846">
        <time>2025-04-30T13:13:47Z</time>
      </trkpt>
      <trkpt lat="29.549135" lon="106.54382">
        <time>2025-04-30T13:13:48Z</time>
      </trkpt>
      <trkpt lat="29.549128" lon="106.5438">
        <time>2025-04-30T13:13:49Z</time>
      </trkpt>
      <trkpt lat="29.549126" lon="106.54378">
        <time>2025-04-30T13:13:50Z</time>
      </trkpt>
      <trkpt lat="29.549128" lon="106.543755">
        <time>2025-04-30T13:13:51Z</time>
      </trkpt>
      <trkpt lat="29.549128" lon="106.543724">
        <time>2025-04-30T13:13:52Z</time>
      </trkpt>
      <trkpt lat="29.549126" lon="106.5437">
        <time>2025-04-30T13:13:53Z</time>
      </trkpt>
      <trkpt lat="29.549118" lon="106.54367">
        <time>2025-04-30T13:13:54Z</time>
      </trkpt>
      <trkpt lat="29.549109" lon="106.543655">
        <time>2025-04-30T13:13:55Z</time>
      </trkpt>
      <trkpt lat="29.549099" lon="106.543625">
        <time>2025-04-30T13:13:56Z</time>
      </trkpt>
      <trkpt lat="29.549088" lon="106.5436">
        <time>2025-04-30T13:13:57Z</time>
      </trkpt>
      <trkpt lat="29.549076" lon="106.54359">
        <time>2025-04-30T13:13:58Z</time>
      </trkpt>
      <trkpt lat="29.549063" lon="106.543564">
        <time>2025-04-30T13:13:59Z</time>
      </trkpt>
      <trkpt lat="29.549051" lon="106.54354">
        <time>2025-04-30T13:14:00Z</time>
      </trkpt>
      <trkpt lat="29.54904" lon="106.54352">
        <time>2025-04-30T13:14:01Z</time>
      </trkpt>
      <trkpt lat="29.549032" lon="106.543495">
        <time>2025-04-30T13:14:02Z</time>
      </trkpt>
      <trkpt lat="29.549025" lon="106.54348">
        <time>2025-04-30T13:14:03Z</time>
      </trkpt>
      <trkpt lat="29.549013" lon="106.54347">
        <time>2025-04-30T13:14:04Z</time>
      </trkpt>
      <trkpt lat="29.549" lon="106.54347">
        <time>2025-04-30T13:14:05Z</time>
      </trkpt>
      <trkpt lat="29.548983" lon="106.54347">
        <time>2025-04-30T13:14:06Z</time>
      </trkpt>
      <trkpt lat="29.548962" lon="106.54347">
        <time>2025-04-30T13:14:07Z</time>
      </trkpt>
      <trkpt lat="29.548937" lon="106.54347">
        <time>2025-04-30T13:14:08Z</time>
      </trkpt>
      <trkpt lat="29.548912" lon="106.54347">
        <time>2025-04-30T13:14:09Z</time>
      </trkpt>
      <trkpt lat="29.548887" lon="106.543465">
        <time>2025-04-30T13:14:10Z</time>
      </trkpt>
      <trkpt lat="29.548862" lon="106.54346">
        <time>2025-04-30T13:14:11Z</time>
      </trkpt>
      <trkpt lat="29.54884" lon="106.54344">
        <time>2025-04-30T13:14:12Z</time>
      </trkpt>
      <trkpt lat="29.548817" lon="106.54343">
        <time>2025-04-30T13:14:13Z</time>
      </trkpt>
      <trkpt lat="29.548794" lon="106.54341">
        <time>2025-04-30T13:14:14Z</time>
      </trkpt>
      <trkpt lat="29.54877" lon="106.5434">
        <time>2025-04-30T13:14:15Z</time>
      </trkpt>
      <trkpt lat="29.548744" lon="106.54338">
        <time>2025-04-30T13:14:16Z</time>
      </trkpt>
      <trkpt lat="29.548717" lon="106.543365">
        <time>2025-04-30T13:14:17Z</time>
      </trkpt>
      <trkpt lat="29.548685" lon="106.54335">
        <time>2025-04-30T13:14:18Z</time>
      </trkpt>
      <trkpt lat="29.548653" lon="106.543335">
        <time>2025-04-30T13:14:19Z</time>
      </trkpt>
      <trkpt lat="29.548624" lon="106.54332">
        <time>2025-04-30T13:14:20Z</time>
      </trkpt>
      <trkpt lat="29.548605" lon="106.54331">
        <time>2025-04-30T13:14:21Z</time>
      </trkpt>
      <trkpt lat="29.548594" lon="106.543304">
        <time>2025-04-30T13:14:22Z</time>
      </trkpt>
      <trkpt lat="29.548586" lon="106.543304">
        <time>2025-04-30T13:14:23Z</time>
      </trkpt>
      <trkpt lat="29.548573" lon="106.5433">
        <time>2025-04-30T13:14:24Z</time>
      </trkpt>
      <trkpt lat="29.548563" lon="106.54329">
        <time>2025-04-30T13:14:25Z</time>
      </trkpt>
      <trkpt lat="29.548555" lon="106.54328">
        <time>2025-04-30T13:14:26Z</time>
      </trkpt>
      <trkpt lat="29.548546" lon="106.543274">
        <time>2025-04-30T13:14:27Z</time>
      </trkpt>
      <trkpt lat="29.548538" lon="106.54327">
        <time>2025-04-30T13:14:28Z</time>
      </trkpt>
      <trkpt lat="29.548532" lon="106.54327">
        <time>2025-04-30T13:14:29Z</time>
      </trkpt>
      <trkpt lat="29.54853" lon="106.54326">
        <time>2025-04-30T13:14:30Z</time>
      </trkpt>
      <trkpt lat="29.548525" lon="106.54325">
        <time>2025-04-30T13:14:31Z</time>
      </trkpt>
      <trkpt lat="29.54852" lon="106.54325">
        <time>2025-04-30T13:14:32Z</time>
      </trkpt>
      <trkpt lat="29.548506" lon="106.54324">
        <time>2025-04-30T13:14:33Z</time>
      </trkpt>
      <trkpt lat="29.548496" lon="106.543236">
        <time>2025-04-30T13:14:34Z</time>
      </trkpt>
      <trkpt lat="29.548487" lon="106.54323">
        <time>2025-04-30T13:14:35Z</time>
      </trkpt>
      <trkpt lat="29.548477" lon="106.54322">
        <time>2025-04-30T13:14:36Z</time>
      </trkpt>
      <trkpt lat="29.548468" lon="106.54321">
        <time>2025-04-30T13:14:37Z</time>
      </trkpt>
      <trkpt lat="29.54846" lon="106.54321">
        <time>2025-04-30T13:14:38Z</time>
      </trkpt>
      <trkpt lat="29.548452" lon="106.543205">
        <time>2025-04-30T13:14:39Z</time>
      </trkpt>
      <trkpt lat="29.54844" lon="106.54319">
        <time>2025-04-30T13:14:40Z</time>
      </trkpt>
      <trkpt lat="29.548428" lon="106.543175">
        <time>2025-04-30T13:14:41Z</time>
      </trkpt>
      <trkpt lat="29.548414" lon="106.54317">
        <time>2025-04-30T13:14:42Z</time>
      </trkpt>
      <trkpt lat="29.5484" lon="106.54315">
        <time>2025-04-30T13:14:43Z</time>
      </trkpt>
      <trkpt lat="29.548386" lon="106.54314">
        <time>2025-04-30T13:14:44Z</time>
      </trkpt>
      <trkpt lat="29.548372" lon="106.54312">
        <time>2025-04-30T13:14:45Z</time>
      </trkpt>
      <trkpt lat="29.548359" lon="106.543106">
        <time>2025-04-30T13:14:46Z</time>
      </trkpt>
      <trkpt lat="29.548347" lon="106.5431">
        <time>2025-04-30T13:14:47Z</time>
      </trkpt>
      <trkpt lat="29.548336" lon="106.54309">
        <time>2025-04-30T13:14:48Z</time>
      </trkpt>
      <trkpt lat="29.548326" lon="106.54308">
        <time>2025-04-30T13:14:49Z</time>
      </trkpt>
      <trkpt lat="29.54832" lon="106.543076">
        <time>2025-04-30T13:14:50Z</time>
      </trkpt>
      <trkpt lat="29.54832" lon="106.543076">
        <time>2025-04-30T13:14:51Z</time>
      </trkpt>
      <trkpt lat="29.548315" lon="106.54307">
        <time>2025-04-30T13:14:52Z</time>
      </trkpt>
      <trkpt lat="29.54831" lon="106.54306">
        <time>2025-04-30T13:14:53Z</time>
      </trkpt>
      <trkpt lat="29.548302" lon="106.543045">
        <time>2025-04-30T13:14:54Z</time>
      </trkpt>
      <trkpt lat="29.548294" lon="106.54304">
        <time>2025-04-30T13:14:55Z</time>
      </trkpt>
      <trkpt lat="29.548286" lon="106.54303">
        <time>2025-04-30T13:14:56Z</time>
      </trkpt>
      <trkpt lat="29.548277" lon="106.54303">
        <time>2025-04-30T13:14:57Z</time>
      </trkpt>
      <trkpt lat="29.54827" lon="106.54302">
        <time>2025-04-30T13:14:58Z</time>
      </trkpt>
      <trkpt lat="29.548264" lon="106.543015">
        <time>2025-04-30T13:14:59Z</time>
      </trkpt>
      <trkpt lat="29.548256" lon="106.54301">
        <time>2025-04-30T13:15:00Z</time>
      </trkpt>
      <trkpt lat="29.548254" lon="106.543">
        <time>2025-04-30T13:15:01Z</time>
      </trkpt>
      <trkpt lat="29.54825" lon="106.54299">
        <time>2025-04-30T13:15:02Z</time>
      </trkpt>
      <trkpt lat="29.548244" lon="106.542984">
        <time>2025-04-30T13:15:03Z</time>
      </trkpt>
      <trkpt lat="29.548243" lon="106.54298">
        <time>2025-04-30T13:15:04Z</time>
      </trkpt>
      <trkpt lat="29.54824" lon="106.54296">
        <time>2025-04-30T13:15:05Z</time>
      </trkpt>
      <trkpt lat="29.548239" lon="106.54295">
        <time>2025-04-30T13:15:06Z</time>
      </trkpt>
      <trkpt lat="29.548235" lon="106.54294">
        <time>2025-04-30T13:15:07Z</time>
      </trkpt>
      <trkpt lat="29.54823" lon="106.54293">
        <time>2025-04-30T13:15:08Z</time>
      </trkpt>
      <trkpt lat="29.54822" lon="106.542915">
        <time>2025-04-30T13:15:09Z</time>
      </trkpt>
      <trkpt lat="29.548208" lon="106.54291">
        <time>2025-04-30T13:15:10Z</time>
      </trkpt>
      <trkpt lat="29.548197" lon="106.54289">
        <time>2025-04-30T13:15:11Z</time>
      </trkpt>
      <trkpt lat="29.548183" lon="106.54288">
        <time>2025-04-30T13:15:12Z</time>
      </trkpt>
      <trkpt lat="29.548172" lon="106.54286">
        <time>2025-04-30T13:15:13Z</time>
      </trkpt>
      <trkpt lat="29.54816" lon="106.54285">
        <time>2025-04-30T13:15:14Z</time>
      </trkpt>
      <trkpt lat="29.54815" lon="106.54283">
        <time>2025-04-30T13:15:15Z</time>
      </trkpt>
      <trkpt lat="29.548138" lon="106.542816">
        <time>2025-04-30T13:15:16Z</time>
      </trkpt>
      <trkpt lat="29.548126" lon="106.5428">
        <time>2025-04-30T13:15:17Z</time>
      </trkpt>
      <trkpt lat="29.548115" lon="106.542786">
        <time>2025-04-30T13:15:18Z</time>
      </trkpt>
      <trkpt lat="29.548103" lon="106.54277">
        <time>2025-04-30T13:15:19Z</time>
      </trkpt>
      <trkpt lat="29.548092" lon="106.54276">
        <time>2025-04-30T13:15:20Z</time>
      </trkpt>
      <trkpt lat="29.548082" lon="106.54275">
        <time>2025-04-30T13:15:21Z</time>
      </trkpt>
      <trkpt lat="29.54807" lon="106.54274">
        <time>2025-04-30T13:15:22Z</time>
      </trkpt>
      <trkpt lat="29.548058" lon="106.542725">
        <time>2025-04-30T13:15:23Z</time>
      </trkpt>
      <trkpt lat="29.548046" lon="106.54272">
        <time>2025-04-30T13:15:24Z</time>
      </trkpt>
      <trkpt lat="29.548033" lon="106.54271">
        <time>2025-04-30T13:15:25Z</time>
      </trkpt>
      <trkpt lat="29.548021" lon="106.54271">
        <time>2025-04-30T13:15:26Z</time>
      </trkpt>
      <trkpt lat="29.548014" lon="106.54271">
        <time>2025-04-30T13:15:27Z</time>
      </trkpt>
      <trkpt lat="29.548004" lon="106.54271">
        <time>2025-04-30T13:15:28Z</time>
      </trkpt>
      <trkpt lat="29.54799" lon="106.54271">
        <time>2025-04-30T13:15:29Z</time>
      </trkpt>
      <trkpt lat="29.547974" lon="106.54272">
        <time>2025-04-30T13:15:30Z</time>
      </trkpt>
      <trkpt lat="29.547958" lon="106.54271">
        <time>2025-04-30T13:15:31Z</time>
      </trkpt>
      <trkpt lat="29.547945" lon="106.54271">
        <time>2025-04-30T13:15:32Z</time>
      </trkpt>
      <trkpt lat="29.547934" lon="106.54271">
        <time>2025-04-30T13:15:33Z</time>
      </trkpt>
      <trkpt lat="29.547922" lon="106.5427">
        <time>2025-04-30T13:15:34Z</time>
      </trkpt>
      <trkpt lat="29.547913" lon="106.542694">
        <time>2025-04-30T13:15:35Z</time>
      </trkpt>
      <trkpt lat="29.547903" lon="106.54268">
        <time>2025-04-30T13:15:36Z</time>
      </trkpt>
      <trkpt lat="29.547892" lon="106.542656">
        <time>2025-04-30T13:15:37Z</time>
      </trkpt>
      <trkpt lat="29.547878" lon="106.54263">
        <time>2025-04-30T13:15:38Z</time>
      </trkpt>
      <trkpt lat="29.547867" lon="106.54261">
        <time>2025-04-30T13:15:39Z</time>
      </trkpt>
      <trkpt lat="29.54786" lon="106.54259">
        <time>2025-04-30T13:15:40Z</time>
      </trkpt>
      <trkpt lat="29.547852" lon="106.542564">
        <time>2025-04-30T13:15:41Z</time>
      </trkpt>
      <trkpt lat="29.547842" lon="106.54254">
        <time>2025-04-30T13:15:42Z</time>
      </trkpt>
      <trkpt lat="29.547832" lon="106.54251">
        <time>2025-04-30T13:15:43Z</time>
      </trkpt>
      <trkpt lat="29.54782" lon="106.54249">
        <time>2025-04-30T13:15:44Z</time>
      </trkpt>
      <trkpt lat="29.54781" lon="106.54245">
        <time>2025-04-30T13:15:45Z</time>
      </trkpt>
      <trkpt lat="29.547798" lon="106.54242">
        <time>2025-04-30T13:15:46Z</time>
      </trkpt>
      <trkpt lat="29.547787" lon="106.54239">
        <time>2025-04-30T13:15:47Z</time>
      </trkpt>
      <trkpt lat="29.547775" lon="106.54236">
        <time>2025-04-30T13:15:48Z</time>
      </trkpt>
      <trkpt lat="29.547764" lon="106.542336">
        <time>2025-04-30T13:15:49Z</time>
      </trkpt>
      <trkpt lat="29.547752" lon="106.54231">
        <time>2025-04-30T13:15:50Z</time>
      </trkpt>
      <trkpt lat="29.54774" lon="106.54229">
        <time>2025-04-30T13:15:51Z</time>
      </trkpt>
      <trkpt lat="29.54773" lon="106.542274">
        <time>2025-04-30T13:15:52Z</time>
      </trkpt>
      <trkpt lat="29.547716" lon="106.54226">
        <time>2025-04-30T13:15:53Z</time>
      </trkpt>
      <trkpt lat="29.547705" lon="106.54224">
        <time>2025-04-30T13:15:54Z</time>
      </trkpt>
      <trkpt lat="29.547693" lon="106.54221">
        <time>2025-04-30T13:15:55Z</time>
      </trkpt>
      <trkpt lat="29.547684" lon="106.54219">
        <time>2025-04-30T13:15:56Z</time>
      </trkpt>
      <trkpt lat="29.547672" lon="106.54217">
        <time>2025-04-30T13:15:57Z</time>
      </trkpt>
      <trkpt lat="29.547657" lon="106.542145">
        <time>2025-04-30T13:15:58Z</time>
      </trkpt>
      <trkpt lat="29.547642" lon="106.54212">
        <time>2025-04-30T13:15:59Z</time>
      </trkpt>
      <trkpt lat="29.547626" lon="106.54211">
        <time>2025-04-30T13:16:00Z</time>
      </trkpt>
      <trkpt lat="29.54761" lon="106.54209">
        <time>2025-04-30T13:16:01Z</time>
      </trkpt>
      <trkpt lat="29.547594" lon="106.542076">
        <time>2025-04-30T13:16:02Z</time>
      </trkpt>
      <trkpt lat="29.54758" lon="106.54206">
        <time>2025-04-30T13:16:03Z</time>
      </trkpt>
      <trkpt lat="29.547567" lon="106.54204">
        <time>2025-04-30T13:16:04Z</time>
      </trkpt>
      <trkpt lat="29.547552" lon="106.542015">
        <time>2025-04-30T13:16:05Z</time>
      </trkpt>
      <trkpt lat="29.547539" lon="106.542">
        <time>2025-04-30T13:16:06Z</time>
      </trkpt>
      <trkpt lat="29.547525" lon="106.54198">
        <time>2025-04-30T13:16:07Z</time>
      </trkpt>
      <trkpt lat="29.547512" lon="106.541954">
        <time>2025-04-30T13:16:08Z</time>
      </trkpt>
      <trkpt lat="29.547499" lon="106.54194">
        <time>2025-04-30T13:16:09Z</time>
      </trkpt>
      <trkpt lat="29.547483" lon="106.54191">
        <time>2025-04-30T13:16:10Z</time>
      </trkpt>
      <trkpt lat="29.547466" lon="106.541885">
        <time>2025-04-30T13:16:11Z</time>
      </trkpt>
      <trkpt lat="29.547451" lon="106.54186">
        <time>2025-04-30T13:16:12Z</time>
      </trkpt>
      <trkpt lat="29.547436" lon="106.54184">
        <time>2025-04-30T13:16:13Z</time>
      </trkpt>
      <trkpt lat="29.54742" lon="106.541824">
        <time>2025-04-30T13:16:14Z</time>
      </trkpt>
      <trkpt lat="29.547405" lon="106.5418">
        <time>2025-04-30T13:16:15Z</time>
      </trkpt>
      <trkpt lat="29.54739" lon="106.54179">
        <time>2025-04-30T13:16:16Z</time>
      </trkpt>
      <trkpt lat="29.547373" lon="106.54177">
        <time>2025-04-30T13:16:17Z</time>
      </trkpt>
      <trkpt lat="29.547358" lon="106.541756">
        <time>2025-04-30T13:16:18Z</time>
      </trkpt>
      <trkpt lat="29.547344" lon="106.54174">
        <time>2025-04-30T13:16:19Z</time>
      </trkpt>
      <trkpt lat="29.54733" lon="106.54172">
        <time>2025-04-30T13:16:20Z</time>
      </trkpt>
      <trkpt lat="29.547325" lon="106.54169">
        <time>2025-04-30T13:16:21Z</time>
      </trkpt>
      <trkpt lat="29.547321" lon="106.54166">
        <time>2025-04-30T13:16:22Z</time>
      </trkpt>
      <trkpt lat="29.547318" lon="106.541626">
        <time>2025-04-30T13:16:23Z</time>
      </trkpt>
      <trkpt lat="29.547312" lon="106.541595">
        <time>2025-04-30T13:16:24Z</time>
      </trkpt>
      <trkpt lat="29.547304" lon="106.541565">
        <time>2025-04-30T13:16:25Z</time>
      </trkpt>
      <trkpt lat="29.5473" lon="106.54154">
        <time>2025-04-30T13:16:26Z</time>
      </trkpt>
      <trkpt lat="29.547293" lon="106.54151">
        <time>2025-04-30T13:16:27Z</time>
      </trkpt>
      <trkpt lat="29.547287" lon="106.54149">
        <time>2025-04-30T13:16:28Z</time>
      </trkpt>
      <trkpt lat="29.54728" lon="106.54146">
        <time>2025-04-30T13:16:29Z</time>
      </trkpt>
      <trkpt lat="29.547276" lon="106.541435">
        <time>2025-04-30T13:16:30Z</time>
      </trkpt>
      <trkpt lat="29.54727" lon="106.54141">
        <time>2025-04-30T13:16:31Z</time>
      </trkpt>
      <trkpt lat="29.547264" lon="106.54139">
        <time>2025-04-30T13:16:32Z</time>
      </trkpt>
      <trkpt lat="29.547262" lon="106.54137">
        <time>2025-04-30T13:16:33Z</time>
      </trkpt>
      <trkpt lat="29.547255" lon="106.54135">
        <time>2025-04-30T13:16:34Z</time>
      </trkpt>
      <trkpt lat="29.547247" lon="106.54133">
        <time>2025-04-30T13:16:35Z</time>
      </trkpt>
      <trkpt lat="29.547237" lon="106.541306">
        <time>2025-04-30T13:16:36Z</time>
      </trkpt>
      <trkpt lat="29.547228" lon="106.54128">
        <time>2025-04-30T13:16:37Z</time>
      </trkpt>
      <trkpt lat="29.54722" lon="106.54125">
        <time>2025-04-30T13:16:38Z</time>
      </trkpt>
      <trkpt lat="29.547213" lon="106.54122">
        <time>2025-04-30T13:16:39Z</time>
      </trkpt>
      <trkpt lat="29.547213" lon="106.54119">
        <time>2025-04-30T13:16:40Z</time>
      </trkpt>
      <trkpt lat="29.54721" lon="106.54116">
        <time>2025-04-30T13:16:41Z</time>
      </trkpt>
      <trkpt lat="29.547207" lon="106.54113">
        <time>2025-04-30T13:16:42Z</time>
      </trkpt>
      <trkpt lat="29.547201" lon="106.5411">
        <time>2025-04-30T13:16:43Z</time>
      </trkpt>
      <trkpt lat="29.547197" lon="106.54107">
        <time>2025-04-30T13:16:44Z</time>
      </trkpt>
      <trkpt lat="29.547192" lon="106.54104">
        <time>2025-04-30T13:16:45Z</time>
      </trkpt>
      <trkpt lat="29.547188" lon="106.541016">
        <time>2025-04-30T13:16:46Z</time>
      </trkpt>
      <trkpt lat="29.547184" lon="106.54099">
        <time>2025-04-30T13:16:47Z</time>
      </trkpt>
      <trkpt lat="29.547176" lon="106.54097">
        <time>2025-04-30T13:16:48Z</time>
      </trkpt>
      <trkpt lat="29.547167" lon="106.54095">
        <time>2025-04-30T13:16:49Z</time>
      </trkpt>
      <trkpt lat="29.547152" lon="106.540924">
        <time>2025-04-30T13:16:50Z</time>
      </trkpt>
      <trkpt lat="29.547136" lon="106.54089">
        <time>2025-04-30T13:16:51Z</time>
      </trkpt>
      <trkpt lat="29.547125" lon="106.54086">
        <time>2025-04-30T13:16:52Z</time>
      </trkpt>
      <trkpt lat="29.547115" lon="106.54084">
        <time>2025-04-30T13:16:53Z</time>
      </trkpt>
      <trkpt lat="29.547104" lon="106.54082">
        <time>2025-04-30T13:16:54Z</time>
      </trkpt>
      <trkpt lat="29.547092" lon="106.54079">
        <time>2025-04-30T13:16:55Z</time>
      </trkpt>
      <trkpt lat="29.54708" lon="106.54076">
        <time>2025-04-30T13:16:56Z</time>
      </trkpt>
      <trkpt lat="29.547068" lon="106.54073">
        <time>2025-04-30T13:16:57Z</time>
      </trkpt>
      <trkpt lat="29.547056" lon="106.54071">
        <time>2025-04-30T13:16:58Z</time>
      </trkpt>
      <trkpt lat="29.547045" lon="106.54069">
        <time>2025-04-30T13:16:59Z</time>
      </trkpt>
      <trkpt lat="29.547033" lon="106.54066">
        <time>2025-04-30T13:17:00Z</time>
      </trkpt>
      <trkpt lat="29.547026" lon="106.540634">
        <time>2025-04-30T13:17:01Z</time>
      </trkpt>
      <trkpt lat="29.547016" lon="106.5406">
        <time>2025-04-30T13:17:02Z</time>
      </trkpt>
      <trkpt lat="29.547009" lon="106.54058">
        <time>2025-04-30T13:17:03Z</time>
      </trkpt>
      <trkpt lat="29.546997" lon="106.54056">
        <time>2025-04-30T13:17:04Z</time>
      </trkpt>
      <trkpt lat="29.546988" lon="106.54053">
        <time>2025-04-30T13:17:05Z</time>
      </trkpt>
      <trkpt lat="29.546978" lon="106.54051">
        <time>2025-04-30T13:17:06Z</time>
      </trkpt>
      <trkpt lat="29.54697" lon="106.54049">
        <time>2025-04-30T13:17:07Z</time>
      </trkpt>
      <trkpt lat="29.54696" lon="106.54047">
        <time>2025-04-30T13:17:08Z</time>
      </trkpt>
      <trkpt lat="29.546947" lon="106.54044">
        <time>2025-04-30T13:17:09Z</time>
      </trkpt>
      <trkpt lat="29.546934" lon="106.54041">
        <time>2025-04-30T13:17:10Z</time>
      </trkpt>
      <trkpt lat="29.54692" lon="106.54039">
        <time>2025-04-30T13:17:11Z</time>
      </trkpt>
      <trkpt lat="29.546907" lon="106.54036">
        <time>2025-04-30T13:17:12Z</time>
      </trkpt>
      <trkpt lat="29.546894" lon="106.54034">
        <time>2025-04-30T13:17:13Z</time>
      </trkpt>
      <trkpt lat="29.54688" lon="106.540306">
        <time>2025-04-30T13:17:14Z</time>
      </trkpt>
      <trkpt lat="29.546871" lon="106.54028">
        <time>2025-04-30T13:17:15Z</time>
      </trkpt>
      <trkpt lat="29.546862" lon="106.54026">
        <time>2025-04-30T13:17:16Z</time>
      </trkpt>
      <trkpt lat="29.546848" lon="106.54024">
        <time>2025-04-30T13:17:17Z</time>
      </trkpt>
      <trkpt lat="29.546835" lon="106.540215">
        <time>2025-04-30T13:17:18Z</time>
      </trkpt>
      <trkpt lat="29.546822" lon="106.54019">
        <time>2025-04-30T13:17:19Z</time>
      </trkpt>
      <trkpt lat="29.54681" lon="106.54017">
        <time>2025-04-30T13:17:20Z</time>
      </trkpt>
      <trkpt lat="29.5468" lon="106.540146">
        <time>2025-04-30T13:17:21Z</time>
      </trkpt>
      <trkpt lat="29.546791" lon="106.54012">
        <time>2025-04-30T13:17:22Z</time>
      </trkpt>
      <trkpt lat="29.546785" lon="106.54011">
        <time>2025-04-30T13:17:23Z</time>
      </trkpt>
      <trkpt lat="29.546778" lon="106.5401">
        <time>2025-04-30T13:17:24Z</time>
      </trkpt>
      <trkpt lat="29.546772" lon="106.540085">
        <time>2025-04-30T13:17:25Z</time>
      </trkpt>
      <trkpt lat="29.546764" lon="106.54007">
        <time>2025-04-30T13:17:26Z</time>
      </trkpt>
      <trkpt lat="29.54676" lon="106.54006">
        <time>2025-04-30T13:17:27Z</time>
      </trkpt>
      <trkpt lat="29.546755" lon="106.540054">
        <time>2025-04-30T13:17:28Z</time>
      </trkpt>
      <trkpt lat="29.546751" lon="106.54005">
        <time>2025-04-30T13:17:29Z</time>
      </trkpt>
      <trkpt lat="29.546747" lon="106.54004">
        <time>2025-04-30T13:17:30Z</time>
      </trkpt>
      <trkpt lat="29.546741" lon="106.54003">
        <time>2025-04-30T13:17:31Z</time>
      </trkpt>
      <trkpt lat="29.546736" lon="106.54002">
        <time>2025-04-30T13:17:32Z</time>
      </trkpt>
      <trkpt lat="29.546734" lon="106.54001">
        <time>2025-04-30T13:17:33Z</time>
      </trkpt>
      <trkpt lat="29.54673" lon="106.539986">
        <time>2025-04-30T13:17:34Z</time>
      </trkpt>
      <trkpt lat="29.546726" lon="106.53997">
        <time>2025-04-30T13:17:35Z</time>
      </trkpt>
      <trkpt lat="29.546722" lon="106.539955">
        <time>2025-04-30T13:17:36Z</time>
      </trkpt>
      <trkpt lat="29.54672" lon="106.53994">
        <time>2025-04-30T13:17:37Z</time>
      </trkpt>
      <trkpt lat="29.546719" lon="106.539925">
        <time>2025-04-30T13:17:38Z</time>
      </trkpt>
      <trkpt lat="29.546715" lon="106.53991">
        <time>2025-04-30T13:17:39Z</time>
      </trkpt>
      <trkpt lat="29.54671" lon="106.539894">
        <time>2025-04-30T13:17:40Z</time>
      </trkpt>
      <trkpt lat="29.546705" lon="106.53988">
        <time>2025-04-30T13:17:41Z</time>
      </trkpt>
      <trkpt lat="29.546698" lon="106.53987">
        <time>2025-04-30T13:17:42Z</time>
      </trkpt>
      <trkpt lat="29.546684" lon="106.53986">
        <time>2025-04-30T13:17:43Z</time>
      </trkpt>
      <trkpt lat="29.546675" lon="106.539856">
        <time>2025-04-30T13:17:44Z</time>
      </trkpt>
      <trkpt lat="29.546663" lon="106.53985">
        <time>2025-04-30T13:17:45Z</time>
      </trkpt>
      <trkpt lat="29.546656" lon="106.53983">
        <time>2025-04-30T13:17:46Z</time>
      </trkpt>
      <trkpt lat="29.546648" lon="106.539825">
        <time>2025-04-30T13:17:47Z</time>
      </trkpt>
      <trkpt lat="29.546642" lon="106.53981">
        <time>2025-04-30T13:17:48Z</time>
      </trkpt>
      <trkpt lat="29.546637" lon="106.539795">
        <time>2025-04-30T13:17:49Z</time>
      </trkpt>
      <trkpt lat="29.546635" lon="106.53979">
        <time>2025-04-30T13:17:50Z</time>
      </trkpt>
      <trkpt lat="29.546633" lon="106.53977">
        <time>2025-04-30T13:17:51Z</time>
      </trkpt>
      <trkpt lat="29.54663" lon="106.539764">
        <time>2025-04-30T13:17:52Z</time>
      </trkpt>
      <trkpt lat="29.546627" lon="106.53976">
        <time>2025-04-30T13:17:53Z</time>
      </trkpt>
      <trkpt lat="29.546618" lon="106.53975">
        <time>2025-04-30T13:17:54Z</time>
      </trkpt>
      <trkpt lat="29.546608" lon="106.53974">
        <time>2025-04-30T13:17:55Z</time>
      </trkpt>
      <trkpt lat="29.546602" lon="106.53973">
        <time>2025-04-30T13:17:56Z</time>
      </trkpt>
      <trkpt lat="29.546597" lon="106.53971">
        <time>2025-04-30T13:17:57Z</time>
      </trkpt>
      <trkpt lat="29.546593" lon="106.539696">
        <time>2025-04-30T13:17:58Z</time>
      </trkpt>
      <trkpt lat="29.54659" lon="106.53968">
        <time>2025-04-30T13:17:59Z</time>
      </trkpt>
      <trkpt lat="29.546587" lon="106.539665">
        <time>2025-04-30T13:18:00Z</time>
      </trkpt>
      <trkpt lat="29.546581" lon="106.53965">
        <time>2025-04-30T13:18:01Z</time>
      </trkpt>
      <trkpt lat="29.546577" lon="106.539635">
        <time>2025-04-30T13:18:02Z</time>
      </trkpt>
      <trkpt lat="29.546577" lon="106.53961">
        <time>2025-04-30T13:18:03Z</time>
      </trkpt>
      <trkpt lat="29.546577" lon="106.5396">
        <time>2025-04-30T13:18:04Z</time>
      </trkpt>
      <trkpt lat="29.546576" lon="106.53957">
        <time>2025-04-30T13:18:05Z</time>
      </trkpt>
      <trkpt lat="29.546574" lon="106.53955">
        <time>2025-04-30T13:18:06Z</time>
      </trkpt>
      <trkpt lat="29.546568" lon="106.539536">
        <time>2025-04-30T13:18:07Z</time>
      </trkpt>
      <trkpt lat="29.546562" lon="106.53952">
        <time>2025-04-30T13:18:08Z</time>
      </trkpt>
      <trkpt lat="29.546555" lon="106.53951">
        <time>2025-04-30T13:18:09Z</time>
      </trkpt>
      <trkpt lat="29.54655" lon="106.539505">
        <time>2025-04-30T13:18:10Z</time>
      </trkpt>
      <trkpt lat="29.546545" lon="106.53949">
        <time>2025-04-30T13:18:11Z</time>
      </trkpt>
      <trkpt lat="29.54654" lon="106.53948">
        <time>2025-04-30T13:18:12Z</time>
      </trkpt>
      <trkpt lat="29.546534" lon="106.53947">
        <time>2025-04-30T13:18:13Z</time>
      </trkpt>
      <trkpt lat="29.546528" lon="106.53945">
        <time>2025-04-30T13:18:14Z</time>
      </trkpt>
      <trkpt lat="29.546524" lon="106.539444">
        <time>2025-04-30T13:18:15Z</time>
      </trkpt>
      <trkpt lat="29.54652" lon="106.53944">
        <time>2025-04-30T13:18:16Z</time>
      </trkpt>
      <trkpt lat="29.546516" lon="106.53943">
        <time>2025-04-30T13:18:17Z</time>
      </trkpt>
      <trkpt lat="29.546515" lon="106.53942">
        <time>2025-04-30T13:18:18Z</time>
      </trkpt>
      <trkpt lat="29.546513" lon="106.539406">
        <time>2025-04-30T13:18:19Z</time>
      </trkpt>
      <trkpt lat="29.546513" lon="106.53939">
        <time>2025-04-30T13:18:20Z</time>
      </trkpt>
      <trkpt lat="29.54651" lon="106.53936">
        <time>2025-04-30T13:18:21Z</time>
      </trkpt>
      <trkpt lat="29.546507" lon="106.53934">
        <time>2025-04-30T13:18:22Z</time>
      </trkpt>
      <trkpt lat="29.546505" lon="106.53932">
        <time>2025-04-30T13:18:23Z</time>
      </trkpt>
      <trkpt lat="29.546501" lon="106.53931">
        <time>2025-04-30T13:18:24Z</time>
      </trkpt>
      <trkpt lat="29.546501" lon="106.53929">
        <time>2025-04-30T13:18:25Z</time>
      </trkpt>
      <trkpt lat="29.546501" lon="106.53927">
        <time>2025-04-30T13:18:26Z</time>
      </trkpt>
      <trkpt lat="29.5465" lon="106.53925">
        <time>2025-04-30T13:18:27Z</time>
      </trkpt>
      <trkpt lat="29.546497" lon="106.53923">
        <time>2025-04-30T13:18:28Z</time>
      </trkpt>
      <trkpt lat="29.546494" lon="106.539215">
        <time>2025-04-30T13:18:29Z</time>
      </trkpt>
      <trkpt lat="29.546488" lon="106.53919">
        <time>2025-04-30T13:18:30Z</time>
      </trkpt>
      <trkpt lat="29.546486" lon="106.53918">
        <time>2025-04-30T13:18:31Z</time>
      </trkpt>
      <trkpt lat="29.546484" lon="106.53916">
        <time>2025-04-30T13:18:32Z</time>
      </trkpt>
      <trkpt lat="29.546482" lon="106.53915">
        <time>2025-04-30T13:18:33Z</time>
      </trkpt>
      <trkpt lat="29.546478" lon="106.53912">
        <time>2025-04-30T13:18:34Z</time>
      </trkpt>
      <trkpt lat="29.546476" lon="106.53911">
        <time>2025-04-30T13:18:35Z</time>
      </trkpt>
      <trkpt lat="29.546473" lon="106.53909">
        <time>2025-04-30T13:18:36Z</time>
      </trkpt>
      <trkpt lat="29.546469" lon="106.53907">
        <time>2025-04-30T13:18:37Z</time>
      </trkpt>
      <trkpt lat="29.546465" lon="106.539055">
        <time>2025-04-30T13:18:38Z</time>
      </trkpt>
      <trkpt lat="29.546463" lon="106.53903">
        <time>2025-04-30T13:18:39Z</time>
      </trkpt>
      <trkpt lat="29.54646" lon="106.53902">
        <time>2025-04-30T13:18:40Z</time>
      </trkpt>
      <trkpt lat="29.54646" lon="106.539">
        <time>2025-04-30T13:18:41Z</time>
      </trkpt>
      <trkpt lat="29.546457" lon="106.53899">
        <time>2025-04-30T13:18:42Z</time>
      </trkpt>
      <trkpt lat="29.546455" lon="106.53897">
        <time>2025-04-30T13:18:43Z</time>
      </trkpt>
      <trkpt lat="29.546452" lon="106.538956">
        <time>2025-04-30T13:18:44Z</time>
      </trkpt>
      <trkpt lat="29.546448" lon="106.53894">
        <time>2025-04-30T13:18:45Z</time>
      </trkpt>
      <trkpt lat="29.546448" lon="106.538925">
        <time>2025-04-30T13:18:46Z</time>
      </trkpt>
      <trkpt lat="29.546448" lon="106.53891">
        <time>2025-04-30T13:18:47Z</time>
      </trkpt>
      <trkpt lat="29.546448" lon="106.53889">
        <time>2025-04-30T13:18:48Z</time>
      </trkpt>
      <trkpt lat="29.546448" lon="106.53887">
        <time>2025-04-30T13:18:49Z</time>
      </trkpt>
      <trkpt lat="29.546452" lon="106.53886">
        <time>2025-04-30T13:18:50Z</time>
      </trkpt>
      <trkpt lat="29.546455" lon="106.53884">
        <time>2025-04-30T13:18:51Z</time>
      </trkpt>
      <trkpt lat="29.546455" lon="106.53883">
        <time>2025-04-30T13:18:52Z</time>
      </trkpt>
      <trkpt lat="29.546453" lon="106.53882">
        <time>2025-04-30T13:18:53Z</time>
      </trkpt>
      <trkpt lat="29.546448" lon="106.53881">
        <time>2025-04-30T13:18:54Z</time>
      </trkpt>
      <trkpt lat="29.546442" lon="106.538795">
        <time>2025-04-30T13:18:55Z</time>
      </trkpt>
      <trkpt lat="29.546434" lon="106.53879">
        <time>2025-04-30T13:18:56Z</time>
      </trkpt>
      <trkpt lat="29.546429" lon="106.538765">
        <time>2025-04-30T13:18:57Z</time>
      </trkpt>
      <trkpt lat="29.546423" lon="106.53876">
        <time>2025-04-30T13:18:58Z</time>
      </trkpt>
      <trkpt lat="29.54642" lon="106.53874">
        <time>2025-04-30T13:18:59Z</time>
      </trkpt>
      <trkpt lat="29.546417" lon="106.538734">
        <time>2025-04-30T13:19:00Z</time>
      </trkpt>
      <trkpt lat="29.546412" lon="106.53872">
        <time>2025-04-30T13:19:01Z</time>
      </trkpt>
      <trkpt lat="29.546406" lon="106.538704">
        <time>2025-04-30T13:19:02Z</time>
      </trkpt>
      <trkpt lat="29.546402" lon="106.53869">
        <time>2025-04-30T13:19:03Z</time>
      </trkpt>
      <trkpt lat="29.546396" lon="106.53867">
        <time>2025-04-30T13:19:04Z</time>
      </trkpt>
      <trkpt lat="29.546392" lon="106.53866">
        <time>2025-04-30T13:19:05Z</time>
      </trkpt>
      <trkpt lat="29.546389" lon="106.53864">
        <time>2025-04-30T13:19:06Z</time>
      </trkpt>
      <trkpt lat="29.546385" lon="106.53863">
        <time>2025-04-30T13:19:07Z</time>
      </trkpt>
      <trkpt lat="29.54638" lon="106.53862">
        <time>2025-04-30T13:19:08Z</time>
      </trkpt>
      <trkpt lat="29.546373" lon="106.538605">
        <time>2025-04-30T13:19:09Z</time>
      </trkpt>
      <trkpt lat="29.546371" lon="106.53859">
        <time>2025-04-30T13:19:10Z</time>
      </trkpt>
      <trkpt lat="29.546371" lon="106.538574">
        <time>2025-04-30T13:19:11Z</time>
      </trkpt>
      <trkpt lat="29.546373" lon="106.53856">
        <time>2025-04-30T13:19:12Z</time>
      </trkpt>
      <trkpt lat="29.546373" lon="106.53854">
        <time>2025-04-30T13:19:13Z</time>
      </trkpt>
      <trkpt lat="29.546375" lon="106.53853">
        <time>2025-04-30T13:19:14Z</time>
      </trkpt>
      <trkpt lat="29.546377" lon="106.53851">
        <time>2025-04-30T13:19:15Z</time>
      </trkpt>
      <trkpt lat="29.546375" lon="106.538506">
        <time>2025-04-30T13:19:16Z</time>
      </trkpt>
      <trkpt lat="29.54637" lon="106.53849">
        <time>2025-04-30T13:19:17Z</time>
      </trkpt>
      <trkpt lat="29.546366" lon="106.53847">
        <time>2025-04-30T13:19:18Z</time>
      </trkpt>
      <trkpt lat="29.546364" lon="106.538445">
        <time>2025-04-30T13:19:19Z</time>
      </trkpt>
      <trkpt lat="29.546364" lon="106.53843">
        <time>2025-04-30T13:19:20Z</time>
      </trkpt>
      <trkpt lat="29.546364" lon="106.538414">
        <time>2025-04-30T13:19:21Z</time>
      </trkpt>
      <trkpt lat="29.546366" lon="106.5384">
        <time>2025-04-30T13:19:22Z</time>
      </trkpt>
      <trkpt lat="29.546366" lon="106.53838">
        <time>2025-04-30T13:19:23Z</time>
      </trkpt>
      <trkpt lat="29.546366" lon="106.538376">
        <time>2025-04-30T13:19:24Z</time>
      </trkpt>
      <trkpt lat="29.546366" lon="106.53836">
        <time>2025-04-30T13:19:25Z</time>
      </trkpt>
      <trkpt lat="29.546366" lon="106.538345">
        <time>2025-04-30T13:19:26Z</time>
      </trkpt>
      <trkpt lat="29.546366" lon="106.53833">
        <time>2025-04-30T13:19:27Z</time>
      </trkpt>
      <trkpt lat="29.546362" lon="106.53832">
        <time>2025-04-30T13:19:28Z</time>
      </trkpt>
      <trkpt lat="29.546358" lon="106.538315">
        <time>2025-04-30T13:19:29Z</time>
      </trkpt>
      <trkpt lat="29.546354" lon="106.5383">
        <time>2025-04-30T13:19:30Z</time>
      </trkpt>
      <trkpt lat="29.546352" lon="106.53829">
        <time>2025-04-30T13:19:31Z</time>
      </trkpt>
      <trkpt lat="29.54635" lon="106.53828">
        <time>2025-04-30T13:19:32Z</time>
      </trkpt>
      <trkpt lat="29.546349" lon="106.53826">
        <time>2025-04-30T13:19:33Z</time>
      </trkpt>
      <trkpt lat="29.546347" lon="106.538246">
        <time>2025-04-30T13:19:34Z</time>
      </trkpt>
      <trkpt lat="29.546347" lon="106.53823">
        <time>2025-04-30T13:19:35Z</time>
      </trkpt>
      <trkpt lat="29.546347" lon="106.538216">
        <time>2025-04-30T13:19:36Z</time>
      </trkpt>
      <trkpt lat="29.546347" lon="106.5382">
        <time>2025-04-30T13:19:37Z</time>
      </trkpt>
      <trkpt lat="29.546345" lon="106.538185">
        <time>2025-04-30T13:19:38Z</time>
      </trkpt>
      <trkpt lat="29.54634" lon="106.53817">
        <time>2025-04-30T13:19:39Z</time>
      </trkpt>
      <trkpt lat="29.546339" lon="106.538155">
        <time>2025-04-30T13:19:40Z</time>
      </trkpt>
      <trkpt lat="29.546333" lon="106.53814">
        <time>2025-04-30T13:19:41Z</time>
      </trkpt>
      <trkpt lat="29.54633" lon="106.538124">
        <time>2025-04-30T13:19:42Z</time>
      </trkpt>
      <trkpt lat="29.546328" lon="106.53811">
        <time>2025-04-30T13:19:43Z</time>
      </trkpt>
      <trkpt lat="29.546322" lon="106.5381">
        <time>2025-04-30T13:19:44Z</time>
      </trkpt>
      <trkpt lat="29.546318" lon="106.538086">
        <time>2025-04-30T13:19:45Z</time>
      </trkpt>
      <trkpt lat="29.546316" lon="106.53807">
        <time>2025-04-30T13:19:46Z</time>
      </trkpt>
      <trkpt lat="29.546314" lon="106.53806">
        <time>2025-04-30T13:19:47Z</time>
      </trkpt>
      <trkpt lat="29.546314" lon="106.53805">
        <time>2025-04-30T13:19:48Z</time>
      </trkpt>
      <trkpt lat="29.546312" lon="106.53803">
        <time>2025-04-30T13:19:49Z</time>
      </trkpt>
      <trkpt lat="29.54631" lon="106.53802">
        <time>2025-04-30T13:19:50Z</time>
      </trkpt>
      <trkpt lat="29.54631" lon="106.538">
        <time>2025-04-30T13:19:51Z</time>
      </trkpt>
      <trkpt lat="29.54631" lon="106.53799">
        <time>2025-04-30T13:19:52Z</time>
      </trkpt>
      <trkpt lat="29.54631" lon="106.53797">
        <time>2025-04-30T13:19:53Z</time>
      </trkpt>
      <trkpt lat="29.546309" lon="106.53796">
        <time>2025-04-30T13:19:54Z</time>
      </trkpt>
      <trkpt lat="29.546307" lon="106.53794">
        <time>2025-04-30T13:19:55Z</time>
      </trkpt>
      <trkpt lat="29.546307" lon="106.537926">
        <time>2025-04-30T13:19:56Z</time>
      </trkpt>
      <trkpt lat="29.546303" lon="106.53791">
        <time>2025-04-30T13:19:57Z</time>
      </trkpt>
      <trkpt lat="29.546299" lon="106.537895">
        <time>2025-04-30T13:19:58Z</time>
      </trkpt>
      <trkpt lat="29.546297" lon="106.53789">
        <time>2025-04-30T13:19:59Z</time>
      </trkpt>
      <trkpt lat="29.546293" lon="106.53787">
        <time>2025-04-30T13:20:00Z</time>
      </trkpt>
      <trkpt lat="29.54629" lon="106.537865">
        <time>2025-04-30T13:20:01Z</time>
      </trkpt>
      <trkpt lat="29.546286" lon="106.53786">
        <time>2025-04-30T13:20:02Z</time>
      </trkpt>
      <trkpt lat="29.546282" lon="106.53784">
        <time>2025-04-30T13:20:03Z</time>
      </trkpt>
      <trkpt lat="29.546278" lon="106.537834">
        <time>2025-04-30T13:20:04Z</time>
      </trkpt>
      <trkpt lat="29.546274" lon="106.53783">
        <time>2025-04-30T13:20:05Z</time>
      </trkpt>
      <trkpt lat="29.546268" lon="106.53781">
        <time>2025-04-30T13:20:06Z</time>
      </trkpt>
      <trkpt lat="29.54626" lon="106.537796">
        <time>2025-04-30T13:20:07Z</time>
      </trkpt>
      <trkpt lat="29.546255" lon="106.53779">
        <time>2025-04-30T13:20:08Z</time>
      </trkpt>
      <trkpt lat="29.54625" lon="106.53777">
        <time>2025-04-30T13:20:09Z</time>
      </trkpt>
      <trkpt lat="29.546244" lon="106.53776">
        <time>2025-04-30T13:20:10Z</time>
      </trkpt>
      <trkpt lat="29.546234" lon="106.53775">
        <time>2025-04-30T13:20:11Z</time>
      </trkpt>
      <trkpt lat="29.546227" lon="106.537735">
        <time>2025-04-30T13:20:12Z</time>
      </trkpt>
      <trkpt lat="29.546215" lon="106.53773">
        <time>2025-04-30T13:20:13Z</time>
      </trkpt>
      <trkpt lat="29.546206" lon="106.53772">
        <time>2025-04-30T13:20:14Z</time>
      </trkpt>
      <trkpt lat="29.546194" lon="106.53771">
        <time>2025-04-30T13:20:15Z</time>
      </trkpt>
      <trkpt lat="29.54618" lon="106.5377">
        <time>2025-04-30T13:20:16Z</time>
      </trkpt>
      <trkpt lat="29.546171" lon="106.53769">
        <time>2025-04-30T13:20:17Z</time>
      </trkpt>
      <trkpt lat="29.546164" lon="106.537674">
        <time>2025-04-30T13:20:18Z</time>
      </trkpt>
      <trkpt lat="29.54616" lon="106.53767">
        <time>2025-04-30T13:20:19Z</time>
      </trkpt>
      <trkpt lat="29.546156" lon="106.53765">
        <time>2025-04-30T13:20:20Z</time>
      </trkpt>
      <trkpt lat="29.546156" lon="106.537636">
        <time>2025-04-30T13:20:21Z</time>
      </trkpt>
      <trkpt lat="29.546158" lon="106.53763">
        <time>2025-04-30T13:20:22Z</time>
      </trkpt>
      <trkpt lat="29.54616" lon="106.53761">
        <time>2025-04-30T13:20:23Z</time>
      </trkpt>
      <trkpt lat="29.546162" lon="106.537605">
        <time>2025-04-30T13:20:24Z</time>
      </trkpt>
      <trkpt lat="29.546165" lon="106.53759">
        <time>2025-04-30T13:20:25Z</time>
      </trkpt>
      <trkpt lat="29.546165" lon="106.537575">
        <time>2025-04-30T13:20:26Z</time>
      </trkpt>
      <trkpt lat="29.546165" lon="106.53757">
        <time>2025-04-30T13:20:27Z</time>
      </trkpt>
      <trkpt lat="29.546165" lon="106.53755">
        <time>2025-04-30T13:20:28Z</time>
      </trkpt>
      <trkpt lat="29.546165" lon="106.53754">
        <time>2025-04-30T13:20:29Z</time>
      </trkpt>
      <trkpt lat="29.546162" lon="106.53752">
        <time>2025-04-30T13:20:30Z</time>
      </trkpt>
      <trkpt lat="29.546158" lon="106.53751">
        <time>2025-04-30T13:20:31Z</time>
      </trkpt>
      <trkpt lat="29.546156" lon="106.5375">
        <time>2025-04-30T13:20:32Z</time>
      </trkpt>
      <trkpt lat="29.546156" lon="106.53749">
        <time>2025-04-30T13:20:33Z</time>
      </trkpt>
      <trkpt lat="29.546154" lon="106.53748">
        <time>2025-04-30T13:20:34Z</time>
      </trkpt>
      <trkpt lat="29.546154" lon="106.53747">
        <time>2025-04-30T13:20:35Z</time>
      </trkpt>
      <trkpt lat="29.546152" lon="106.53746">
        <time>2025-04-30T13:20:36Z</time>
      </trkpt>
      <trkpt lat="29.546152" lon="106.53745">
        <time>2025-04-30T13:20:37Z</time>
      </trkpt>
      <trkpt lat="29.546152" lon="106.537445">
        <time>2025-04-30T13:20:38Z</time>
      </trkpt>
      <trkpt lat="29.546154" lon="106.53743">
        <time>2025-04-30T13:20:39Z</time>
      </trkpt>
      <trkpt lat="29.546156" lon="106.53742">
        <time>2025-04-30T13:20:40Z</time>
      </trkpt>
      <trkpt lat="29.546156" lon="106.537415">
        <time>2025-04-30T13:20:41Z</time>
      </trkpt>
      <trkpt lat="29.546156" lon="106.5374">
        <time>2025-04-30T13:20:42Z</time>
      </trkpt>
      <trkpt lat="29.546158" lon="106.53739">
        <time>2025-04-30T13:20:43Z</time>
      </trkpt>
      <trkpt lat="29.54616" lon="106.537384">
        <time>2025-04-30T13:20:44Z</time>
      </trkpt>
      <trkpt lat="29.546162" lon="106.53737">
        <time>2025-04-30T13:20:45Z</time>
      </trkpt>
      <trkpt lat="29.546164" lon="106.53736">
        <time>2025-04-30T13:20:46Z</time>
      </trkpt>
      <trkpt lat="29.546167" lon="106.537346">
        <time>2025-04-30T13:20:47Z</time>
      </trkpt>
      <trkpt lat="29.54617" lon="106.53733">
        <time>2025-04-30T13:20:48Z</time>
      </trkpt>
      <trkpt lat="29.546167" lon="106.537315">
        <time>2025-04-30T13:20:49Z</time>
      </trkpt>
      <trkpt lat="29.546165" lon="106.53731">
        <time>2025-04-30T13:20:50Z</time>
      </trkpt>
      <trkpt lat="29.546164" lon="106.53729">
        <time>2025-04-30T13:20:51Z</time>
      </trkpt>
      <trkpt lat="29.546164" lon="106.53728">
        <time>2025-04-30T13:20:52Z</time>
      </trkpt>
      <trkpt lat="29.54616" lon="106.53726">
        <time>2025-04-30T13:20:53Z</time>
      </trkpt>
      <trkpt lat="29.546158" lon="106.53725">
        <time>2025-04-30T13:20:54Z</time>
      </trkpt>
      <trkpt lat="29.546156" lon="106.53723">
        <time>2025-04-30T13:20:55Z</time>
      </trkpt>
      <trkpt lat="29.546156" lon="106.53722">
        <time>2025-04-30T13:20:56Z</time>
      </trkpt>
      <trkpt lat="29.546156" lon="106.5372">
        <time>2025-04-30T13:20:57Z</time>
      </trkpt>
      <trkpt lat="29.546156" lon="106.537186">
        <time>2025-04-30T13:20:58Z</time>
      </trkpt>
      <trkpt lat="29.54616" lon="106.53717">
        <time>2025-04-30T13:20:59Z</time>
      </trkpt>
      <trkpt lat="29.54616" lon="106.537155">
        <time>2025-04-30T13:21:00Z</time>
      </trkpt>
      <trkpt lat="29.54616" lon="106.53713">
        <time>2025-04-30T13:21:01Z</time>
      </trkpt>
      <trkpt lat="29.546158" lon="106.53712">
        <time>2025-04-30T13:21:02Z</time>
      </trkpt>
      <trkpt lat="29.546156" lon="106.5371">
        <time>2025-04-30T13:21:03Z</time>
      </trkpt>
      <trkpt lat="29.546158" lon="106.53709">
        <time>2025-04-30T13:21:04Z</time>
      </trkpt>
      <trkpt lat="29.54616" lon="106.53707">
        <time>2025-04-30T13:21:05Z</time>
      </trkpt>
      <trkpt lat="29.546164" lon="106.537056">
        <time>2025-04-30T13:21:06Z</time>
      </trkpt>
      <trkpt lat="29.546165" lon="106.53705">
        <time>2025-04-30T13:21:07Z</time>
      </trkpt>
      <trkpt lat="29.546167" lon="106.53703">
        <time>2025-04-30T13:21:08Z</time>
      </trkpt>
      <trkpt lat="29.54617" lon="106.537025">
        <time>2025-04-30T13:21:09Z</time>
      </trkpt>
      <trkpt lat="29.54617" lon="106.53702">
        <time>2025-04-30T13:21:10Z</time>
      </trkpt>
      <trkpt lat="29.546167" lon="106.53701">
        <time>2025-04-30T13:21:11Z</time>
      </trkpt>
      <trkpt lat="29.546164" lon="106.536995">
        <time>2025-04-30T13:21:12Z</time>
      </trkpt>
      <trkpt lat="29.546164" lon="106.53698">
        <time>2025-04-30T13:21:13Z</time>
      </trkpt>
      <trkpt lat="29.546164" lon="106.536964">
        <time>2025-04-30T13:21:14Z</time>
      </trkpt>
      <trkpt lat="29.546164" lon="106.53695">
        <time>2025-04-30T13:21:15Z</time>
      </trkpt>
      <trkpt lat="29.546164" lon="106.53693">
        <time>2025-04-30T13:21:16Z</time>
      </trkpt>
      <trkpt lat="29.546164" lon="106.53691">
        <time>2025-04-30T13:21:17Z</time>
      </trkpt>
      <trkpt lat="29.546165" lon="106.536896">
        <time>2025-04-30T13:21:18Z</time>
      </trkpt>
      <trkpt lat="29.54617" lon="106.53688">
        <time>2025-04-30T13:21:19Z</time>
      </trkpt>
      <trkpt lat="29.546173" lon="106.536865">
        <time>2025-04-30T13:21:20Z</time>
      </trkpt>
      <trkpt lat="29.546179" lon="106.53685">
        <time>2025-04-30T13:21:21Z</time>
      </trkpt>
      <trkpt lat="29.546183" lon="106.536835">
        <time>2025-04-30T13:21:22Z</time>
      </trkpt>
      <trkpt lat="29.546186" lon="106.53682">
        <time>2025-04-30T13:21:23Z</time>
      </trkpt>
      <trkpt lat="29.54619" lon="106.536804">
        <time>2025-04-30T13:21:24Z</time>
      </trkpt>
      <trkpt lat="29.546192" lon="106.5368">
        <time>2025-04-30T13:21:25Z</time>
      </trkpt>
      <trkpt lat="29.546192" lon="106.53678">
        <time>2025-04-30T13:21:26Z</time>
      </trkpt>
      <trkpt lat="29.546192" lon="106.536766">
        <time>2025-04-30T13:21:27Z</time>
      </trkpt>
      <trkpt lat="29.546192" lon="106.53675">
        <time>2025-04-30T13:21:28Z</time>
      </trkpt>
      <trkpt lat="29.546194" lon="106.536736">
        <time>2025-04-30T13:21:29Z</time>
      </trkpt>
      <trkpt lat="29.546196" lon="106.53673">
        <time>2025-04-30T13:21:30Z</time>
      </trkpt>
      <trkpt lat="29.5462" lon="106.53671">
        <time>2025-04-30T13:21:31Z</time>
      </trkpt>
      <trkpt lat="29.546202" lon="106.536705">
        <time>2025-04-30T13:21:32Z</time>
      </trkpt>
      <trkpt lat="29.546202" lon="106.53669">
        <time>2025-04-30T13:21:33Z</time>
      </trkpt>
      <trkpt lat="29.546204" lon="106.536674">
        <time>2025-04-30T13:21:34Z</time>
      </trkpt>
      <trkpt lat="29.546206" lon="106.53667">
        <time>2025-04-30T13:21:35Z</time>
      </trkpt>
      <trkpt lat="29.546207" lon="106.53665">
        <time>2025-04-30T13:21:36Z</time>
      </trkpt>
      <trkpt lat="29.54621" lon="106.536644">
        <time>2025-04-30T13:21:37Z</time>
      </trkpt>
    </trkseg>
  </trk>
</gpx>